(Exported by FreeCAD)
(Post Processor: linuxcnc_post)
(Output Time:2024-05-14 20:56:53.392924)
(begin preamble)
G17 G54 G40 G49 G80 G90
G21
(begin operation: Fixture)
(machine units: mm/min)
G54 
(finish operation: Fixture)
(begin operation: TC: 6.3mm_Endmill001)
(machine units: mm/min)
(TC: 6.3mm_Endmill001) 
M5
M6 T10 
G43 H10 
M3 S600 
(finish operation: TC: 6.3mm_Endmill001)
(begin operation: DressupTag)
(machine units: mm/min)
G0 Z5.000 
G0 X67.809 Y116.654 Z5.000 
G0 X67.809 Y116.654 Z3.000 
G1 X67.809 Y116.654 Z-3.000 F120.000 
G2 X69.665 Y112.185 Z-3.000 I-4.481 J-4.481 F300.000 
G1 X69.665 Y3.995 Z-3.000 F300.000 
G2 X63.587 Y-2.320 Z-3.000 I-6.329 J0.009 F300.000 
G1 X3.175 Y-2.330 Z-3.000 F300.000 
G2 X-3.150 Y3.995 Z-3.000 I0.012 J6.337 F300.000 
G1 X-3.150 Y112.190 Z-3.000 F300.000 
G2 X3.170 Y118.510 Z-3.000 I6.332 J-0.012 F300.000 
G1 X63.340 Y118.510 Z-3.000 F300.000 
G2 X67.809 Y116.654 Z-3.000 I-0.012 J-6.337 F300.000 
G1 X67.809 Y116.654 Z-6.000 F120.000 
G2 X69.665 Y112.185 Z-6.000 I-4.481 J-4.481 F300.000 
G1 X69.665 Y3.995 Z-6.000 F300.000 
G2 X63.587 Y-2.320 Z-6.000 I-6.329 J0.009 F300.000 
G1 X3.175 Y-2.330 Z-6.000 F300.000 
G2 X-3.150 Y3.995 Z-6.000 I0.012 J6.337 F300.000 
G1 X-3.150 Y112.190 Z-6.000 F300.000 
G2 X3.170 Y118.510 Z-6.000 I6.332 J-0.012 F300.000 
G1 X63.340 Y118.510 Z-6.000 F300.000 
G2 X67.809 Y116.654 Z-6.000 I-0.012 J-6.337 F300.000 
G1 X67.809 Y116.654 Z-9.000 F120.000 
G2 X69.665 Y112.185 Z-9.000 I-4.481 J-4.481 F300.000 
G1 X69.665 Y3.995 Z-9.000 F300.000 
G2 X63.587 Y-2.320 Z-9.000 I-6.329 J0.009 F300.000 
G1 X3.175 Y-2.330 Z-9.000 F300.000 
G2 X-3.150 Y3.995 Z-9.000 I0.012 J6.337 F300.000 
G1 X-3.150 Y112.190 Z-9.000 F300.000 
G2 X3.170 Y118.510 Z-9.000 I6.332 J-0.012 F300.000 
G1 X63.340 Y118.510 Z-9.000 F300.000 
G2 X67.809 Y116.654 Z-9.000 I-0.012 J-6.337 F300.000 
G1 X67.809 Y116.654 Z-12.000 F120.000 
G2 X69.665 Y112.185 Z-12.000 I-4.481 J-4.481 F300.000 
G1 X69.665 Y3.995 Z-12.000 F300.000 
G2 X63.587 Y-2.320 Z-12.000 I-6.329 J0.009 F300.000 
G1 X3.175 Y-2.330 Z-12.000 F300.000 
G2 X-3.150 Y3.995 Z-12.000 I0.012 J6.337 F300.000 
G1 X-3.150 Y112.190 Z-12.000 F300.000 
G2 X3.170 Y118.510 Z-12.000 I6.332 J-0.012 F300.000 
G1 X63.340 Y118.510 Z-12.000 F300.000 
G2 X67.809 Y116.654 Z-12.000 I-0.012 J-6.337 F300.000 
G1 X67.809 Y116.654 Z-13.000 F120.000 
G2 X69.665 Y112.185 Z-13.000 I-4.481 J-4.481 F300.000 
G1 X69.665 Y3.995 Z-13.000 F300.000 
G2 X63.587 Y-2.320 Z-13.000 I-6.329 J0.009 F300.000 
G1 X3.175 Y-2.330 Z-13.000 F300.000 
G2 X-3.150 Y3.995 Z-13.000 I0.012 J6.337 F300.000 
G1 X-3.150 Y112.190 Z-13.000 F300.000 
G2 X3.170 Y118.510 Z-13.000 I6.332 J-0.012 F300.000 
G1 X63.340 Y118.510 Z-13.000 F300.000 
G2 X67.809 Y116.654 Z-13.000 I-0.012 J-6.337 F300.000 
G0 X67.809 Y116.654 Z5.000 
(finish operation: DressupTag)
(begin postamble)
M05
G17 G54 G90 G80 G40
M2
