(Exported by FreeCAD)
(Post Processor: linuxcnc_post)
(Output Time:2024-05-14 20:45:50.659951)
(begin preamble)
G17 G54 G40 G49 G80 G90
G21
(begin operation: Fixture)
(machine units: mm/min)
G54 
(finish operation: Fixture)
(begin operation: TC: 6.3mm_Endmill001)
(machine units: mm/min)
(TC: 6.3mm_Endmill001) 
M5
M6 T10 
G43 H10 
M3 S600 
(finish operation: TC: 6.3mm_Endmill001)
(begin operation: DressupTag001)
(machine units: mm/min)
G0 Z5.000 
G0 X63.349 Y112.197 Z5.000 
G0 X63.349 Y112.197 Z5.000 
G0 X63.349 Y112.197 Z3.000 
G1 X63.349 Y112.197 Z-3.000 F120.000 
G2 X63.365 Y112.061 Z-3.000 I-0.087 J-0.079 F300.000 
G1 X63.365 Y4.119 Z-3.000 F300.000 
G2 X63.352 Y3.986 Z-3.000 I-0.168 J-0.051 F300.000 
G2 X63.216 Y3.970 Z-3.000 I-0.079 J0.087 F300.000 
G1 X3.299 Y3.970 Z-3.000 F300.000 
G2 X3.166 Y3.983 Z-3.000 I-0.051 J0.168 F300.000 
G2 X3.150 Y4.119 Z-3.000 I0.087 J0.079 F300.000 
G1 X3.150 Y112.066 Z-3.000 F300.000 
G2 X3.162 Y112.196 Z-3.000 I0.163 J0.051 F300.000 
G2 X3.294 Y112.210 Z-3.000 I0.076 J-0.085 F300.000 
G1 X63.216 Y112.210 Z-3.000 F300.000 
G2 X63.349 Y112.197 Z-3.000 I0.051 J-0.168 F300.000 
G1 X63.349 Y112.197 Z-6.000 F120.000 
G2 X63.365 Y112.061 Z-6.000 I-0.087 J-0.079 F300.000 
G1 X63.365 Y4.119 Z-6.000 F300.000 
G2 X63.352 Y3.986 Z-6.000 I-0.168 J-0.051 F300.000 
G2 X63.216 Y3.970 Z-6.000 I-0.079 J0.087 F300.000 
G1 X3.299 Y3.970 Z-6.000 F300.000 
G2 X3.166 Y3.983 Z-6.000 I-0.051 J0.168 F300.000 
G2 X3.150 Y4.119 Z-6.000 I0.087 J0.079 F300.000 
G1 X3.150 Y112.066 Z-6.000 F300.000 
G2 X3.162 Y112.196 Z-6.000 I0.163 J0.051 F300.000 
G2 X3.294 Y112.210 Z-6.000 I0.076 J-0.085 F300.000 
G1 X63.216 Y112.210 Z-6.000 F300.000 
G2 X63.349 Y112.197 Z-6.000 I0.051 J-0.168 F300.000 
G1 X63.349 Y112.197 Z-9.000 F120.000 
G2 X63.365 Y112.061 Z-9.000 I-0.087 J-0.079 F300.000 
G1 X63.365 Y4.119 Z-9.000 F300.000 
G2 X63.352 Y3.986 Z-9.000 I-0.168 J-0.051 F300.000 
G2 X63.216 Y3.970 Z-9.000 I-0.079 J0.087 F300.000 
G1 X3.299 Y3.970 Z-9.000 F300.000 
G2 X3.166 Y3.983 Z-9.000 I-0.051 J0.168 F300.000 
G2 X3.150 Y4.119 Z-9.000 I0.087 J0.079 F300.000 
G1 X3.150 Y112.066 Z-9.000 F300.000 
G2 X3.162 Y112.196 Z-9.000 I0.163 J0.051 F300.000 
G2 X3.294 Y112.210 Z-9.000 I0.076 J-0.085 F300.000 
G1 X63.216 Y112.210 Z-9.000 F300.000 
G2 X63.349 Y112.197 Z-9.000 I0.051 J-0.168 F300.000 
G1 X63.349 Y112.197 Z-12.000 F120.000 
G2 X63.365 Y112.061 Z-12.000 I-0.087 J-0.079 F300.000 
G1 X63.365 Y4.119 Z-12.000 F300.000 
G2 X63.352 Y3.986 Z-12.000 I-0.168 J-0.051 F300.000 
G2 X63.216 Y3.970 Z-12.000 I-0.079 J0.087 F300.000 
G1 X3.299 Y3.970 Z-12.000 F300.000 
G2 X3.166 Y3.983 Z-12.000 I-0.051 J0.168 F300.000 
G2 X3.150 Y4.119 Z-12.000 I0.087 J0.079 F300.000 
G1 X3.150 Y112.066 Z-12.000 F300.000 
G2 X3.162 Y112.196 Z-12.000 I0.163 J0.051 F300.000 
G2 X3.294 Y112.210 Z-12.000 I0.076 J-0.085 F300.000 
G1 X63.216 Y112.210 Z-12.000 F300.000 
G2 X63.349 Y112.197 Z-12.000 I0.051 J-0.168 F300.000 
G1 X63.349 Y112.197 Z-13.000 F120.000 
G2 X63.365 Y112.061 Z-13.000 I-0.087 J-0.079 F300.000 
G1 X63.365 Y4.119 Z-13.000 F300.000 
G2 X63.352 Y3.986 Z-13.000 I-0.168 J-0.051 F300.000 
G2 X63.216 Y3.970 Z-13.000 I-0.079 J0.087 F300.000 
G1 X3.299 Y3.970 Z-13.000 F300.000 
G2 X3.166 Y3.983 Z-13.000 I-0.051 J0.168 F300.000 
G2 X3.150 Y4.119 Z-13.000 I0.087 J0.079 F300.000 
G1 X3.150 Y112.066 Z-13.000 F300.000 
G2 X3.162 Y112.196 Z-13.000 I0.163 J0.051 F300.000 
G2 X3.294 Y112.210 Z-13.000 I0.076 J-0.085 F300.000 
G1 X63.216 Y112.210 Z-13.000 F300.000 
G2 X63.349 Y112.197 Z-13.000 I0.051 J-0.168 F300.000 
G0 X63.349 Y112.197 Z5.000 
(finish operation: DressupTag001)
(begin postamble)
M05
G17 G54 G90 G80 G40
M2
