(Exported by FreeCAD)
(Post Processor: linuxcnc_post)
(Output Time:2024-05-14 21:16:08.736647)
(begin preamble)
G17 G54 G40 G49 G80 G90
G21
(begin operation: Fixture)
(machine units: mm/min)
G54 
(finish operation: Fixture)
(begin operation: TC: 6.3mm_Endmill001)
(machine units: mm/min)
(TC: 6.3mm_Endmill001) 
M5
M6 T10 
G43 H10 
M3 S600 
(finish operation: TC: 6.3mm_Endmill001)
(begin operation: humbucker interior)
(machine units: mm/min)
(Profile001) 
(Compensated Tool Path. Diameter: 6.3) 
G0 Z5.000 
G0 X41.994 Y90.269 
G0 Z3.000 
G1 X41.994 Y90.269 Z-3.500 F120.000 
G2 X42.074 Y90.249 Z-3.500 I-0.002 J-0.175 F300.000 
G2 X42.090 Y90.112 Z-3.500 I-0.087 J-0.079 F300.000 
G1 X42.090 Y26.064 Z-3.500 F300.000 
G2 X42.077 Y25.931 Z-3.500 I-0.168 J-0.051 F300.000 
G2 X41.941 Y25.915 Z-3.500 I-0.079 J0.087 F300.000 
G1 X33.730 Y25.915 Z-3.500 F300.000 
G3 X30.580 Y22.765 Z-3.500 I-0.000 J-3.150 F300.000 
G1 X30.580 Y17.736 Z-3.500 F300.000 
G2 X30.567 Y17.603 Z-3.500 I-0.168 J-0.051 F300.000 
G2 X30.431 Y17.587 Z-3.500 I-0.079 J0.087 F300.000 
G1 X21.159 Y17.593 Z-3.500 F300.000 
G2 X21.026 Y17.606 Z-3.500 I-0.051 J0.168 F300.000 
G2 X21.010 Y17.742 Z-3.500 I0.087 J0.079 F300.000 
G1 X21.010 Y22.775 Z-3.500 F300.000 
G3 X17.860 Y25.925 Z-3.500 I-3.150 J0.000 F300.000 
G1 X9.649 Y25.925 Z-3.500 F300.000 
G2 X9.516 Y25.938 Z-3.500 I-0.051 J0.168 F300.000 
G2 X9.500 Y26.074 Z-3.500 I0.087 J0.079 F300.000 
G1 X9.496 Y90.116 Z-3.500 F300.000 
G2 X9.509 Y90.249 Z-3.500 I0.168 J0.051 F300.000 
G2 X9.645 Y90.265 Z-3.500 I0.079 J-0.087 F300.000 
G1 X17.856 Y90.265 Z-3.500 F300.000 
G3 X21.006 Y93.415 Z-3.500 I0.000 J3.150 F300.000 
G1 X21.006 Y98.449 Z-3.500 F300.000 
G2 X21.019 Y98.581 Z-3.500 I0.168 J0.051 F300.000 
G2 X21.155 Y98.597 Z-3.500 I0.079 J-0.087 F300.000 
G1 X30.432 Y98.597 Z-3.500 F300.000 
G2 X30.565 Y98.585 Z-3.500 I0.051 J-0.168 F300.000 
G2 X30.581 Y98.449 Z-3.500 I-0.087 J-0.079 F300.000 
G1 X30.580 Y93.418 Z-3.500 F300.000 
G3 X33.728 Y90.268 Z-3.500 I3.150 J-0.000 F300.000 
G1 X41.941 Y90.261 Z-3.500 F300.000 
G2 X41.994 Y90.269 Z-3.500 I0.051 J-0.168 F300.000 
G1 X41.994 Y90.269 Z-7.000 F120.000 
G2 X42.074 Y90.249 Z-7.000 I-0.002 J-0.175 F300.000 
G2 X42.090 Y90.112 Z-7.000 I-0.087 J-0.079 F300.000 
G1 X42.090 Y26.064 Z-7.000 F300.000 
G2 X42.077 Y25.931 Z-7.000 I-0.168 J-0.051 F300.000 
G2 X41.941 Y25.915 Z-7.000 I-0.079 J0.087 F300.000 
G1 X33.730 Y25.915 Z-7.000 F300.000 
G3 X30.580 Y22.765 Z-7.000 I-0.000 J-3.150 F300.000 
G1 X30.580 Y17.736 Z-7.000 F300.000 
G2 X30.567 Y17.603 Z-7.000 I-0.168 J-0.051 F300.000 
G2 X30.431 Y17.587 Z-7.000 I-0.079 J0.087 F300.000 
G1 X21.159 Y17.593 Z-7.000 F300.000 
G2 X21.026 Y17.606 Z-7.000 I-0.051 J0.168 F300.000 
G2 X21.010 Y17.742 Z-7.000 I0.087 J0.079 F300.000 
G1 X21.010 Y22.775 Z-7.000 F300.000 
G3 X17.860 Y25.925 Z-7.000 I-3.150 J0.000 F300.000 
G1 X9.649 Y25.925 Z-7.000 F300.000 
G2 X9.516 Y25.938 Z-7.000 I-0.051 J0.168 F300.000 
G2 X9.500 Y26.074 Z-7.000 I0.087 J0.079 F300.000 
G1 X9.496 Y90.116 Z-7.000 F300.000 
G2 X9.509 Y90.249 Z-7.000 I0.168 J0.051 F300.000 
G2 X9.645 Y90.265 Z-7.000 I0.079 J-0.087 F300.000 
G1 X17.856 Y90.265 Z-7.000 F300.000 
G3 X21.006 Y93.415 Z-7.000 I0.000 J3.150 F300.000 
G1 X21.006 Y98.449 Z-7.000 F300.000 
G2 X21.019 Y98.581 Z-7.000 I0.168 J0.051 F300.000 
G2 X21.155 Y98.597 Z-7.000 I0.079 J-0.087 F300.000 
G1 X30.432 Y98.597 Z-7.000 F300.000 
G2 X30.565 Y98.585 Z-7.000 I0.051 J-0.168 F300.000 
G2 X30.581 Y98.449 Z-7.000 I-0.087 J-0.079 F300.000 
G1 X30.580 Y93.418 Z-7.000 F300.000 
G3 X33.728 Y90.268 Z-7.000 I3.150 J-0.000 F300.000 
G1 X41.941 Y90.261 Z-7.000 F300.000 
G2 X41.994 Y90.269 Z-7.000 I0.051 J-0.168 F300.000 
G1 X41.994 Y90.269 Z-10.500 F120.000 
G2 X42.074 Y90.249 Z-10.500 I-0.002 J-0.175 F300.000 
G2 X42.090 Y90.112 Z-10.500 I-0.087 J-0.079 F300.000 
G1 X42.090 Y26.064 Z-10.500 F300.000 
G2 X42.077 Y25.931 Z-10.500 I-0.168 J-0.051 F300.000 
G2 X41.941 Y25.915 Z-10.500 I-0.079 J0.087 F300.000 
G1 X33.730 Y25.915 Z-10.500 F300.000 
G3 X30.580 Y22.765 Z-10.500 I-0.000 J-3.150 F300.000 
G1 X30.580 Y17.736 Z-10.500 F300.000 
G2 X30.567 Y17.603 Z-10.500 I-0.168 J-0.051 F300.000 
G2 X30.431 Y17.587 Z-10.500 I-0.079 J0.087 F300.000 
G1 X21.159 Y17.593 Z-10.500 F300.000 
G2 X21.026 Y17.606 Z-10.500 I-0.051 J0.168 F300.000 
G2 X21.010 Y17.742 Z-10.500 I0.087 J0.079 F300.000 
G1 X21.010 Y22.775 Z-10.500 F300.000 
G3 X17.860 Y25.925 Z-10.500 I-3.150 J0.000 F300.000 
G1 X9.649 Y25.925 Z-10.500 F300.000 
G2 X9.516 Y25.938 Z-10.500 I-0.051 J0.168 F300.000 
G2 X9.500 Y26.074 Z-10.500 I0.087 J0.079 F300.000 
G1 X9.496 Y90.116 Z-10.500 F300.000 
G2 X9.509 Y90.249 Z-10.500 I0.168 J0.051 F300.000 
G2 X9.645 Y90.265 Z-10.500 I0.079 J-0.087 F300.000 
G1 X17.856 Y90.265 Z-10.500 F300.000 
G3 X21.006 Y93.415 Z-10.500 I0.000 J3.150 F300.000 
G1 X21.006 Y98.449 Z-10.500 F300.000 
G2 X21.019 Y98.581 Z-10.500 I0.168 J0.051 F300.000 
G2 X21.155 Y98.597 Z-10.500 I0.079 J-0.087 F300.000 
G1 X30.432 Y98.597 Z-10.500 F300.000 
G2 X30.565 Y98.585 Z-10.500 I0.051 J-0.168 F300.000 
G2 X30.581 Y98.449 Z-10.500 I-0.087 J-0.079 F300.000 
G1 X30.580 Y93.418 Z-10.500 F300.000 
G3 X33.728 Y90.268 Z-10.500 I3.150 J-0.000 F300.000 
G1 X41.941 Y90.261 Z-10.500 F300.000 
G2 X41.994 Y90.269 Z-10.500 I0.051 J-0.168 F300.000 
G1 X41.994 Y90.269 Z-13.000 F120.000 
G2 X42.074 Y90.249 Z-13.000 I-0.002 J-0.175 F300.000 
G2 X42.090 Y90.112 Z-13.000 I-0.087 J-0.079 F300.000 
G1 X42.090 Y26.064 Z-13.000 F300.000 
G2 X42.077 Y25.931 Z-13.000 I-0.168 J-0.051 F300.000 
G2 X41.941 Y25.915 Z-13.000 I-0.079 J0.087 F300.000 
G1 X33.730 Y25.915 Z-13.000 F300.000 
G3 X30.580 Y22.765 Z-13.000 I-0.000 J-3.150 F300.000 
G1 X30.580 Y17.736 Z-13.000 F300.000 
G2 X30.567 Y17.603 Z-13.000 I-0.168 J-0.051 F300.000 
G2 X30.431 Y17.587 Z-13.000 I-0.079 J0.087 F300.000 
G1 X21.159 Y17.593 Z-13.000 F300.000 
G2 X21.026 Y17.606 Z-13.000 I-0.051 J0.168 F300.000 
G2 X21.010 Y17.742 Z-13.000 I0.087 J0.079 F300.000 
G1 X21.010 Y22.775 Z-13.000 F300.000 
G3 X17.860 Y25.925 Z-13.000 I-3.150 J0.000 F300.000 
G1 X9.649 Y25.925 Z-13.000 F300.000 
G2 X9.516 Y25.938 Z-13.000 I-0.051 J0.168 F300.000 
G2 X9.500 Y26.074 Z-13.000 I0.087 J0.079 F300.000 
G1 X9.496 Y90.116 Z-13.000 F300.000 
G2 X9.509 Y90.249 Z-13.000 I0.168 J0.051 F300.000 
G2 X9.645 Y90.265 Z-13.000 I0.079 J-0.087 F300.000 
G1 X17.856 Y90.265 Z-13.000 F300.000 
G3 X21.006 Y93.415 Z-13.000 I0.000 J3.150 F300.000 
G1 X21.006 Y98.449 Z-13.000 F300.000 
G2 X21.019 Y98.581 Z-13.000 I0.168 J0.051 F300.000 
G2 X21.155 Y98.597 Z-13.000 I0.079 J-0.087 F300.000 
G1 X30.432 Y98.597 Z-13.000 F300.000 
G2 X30.565 Y98.585 Z-13.000 I0.051 J-0.168 F300.000 
G2 X30.581 Y98.449 Z-13.000 I-0.087 J-0.079 F300.000 
G1 X30.580 Y93.418 Z-13.000 F300.000 
G3 X33.728 Y90.268 Z-13.000 I3.150 J-0.000 F300.000 
G1 X41.941 Y90.261 Z-13.000 F300.000 
G2 X41.994 Y90.269 Z-13.000 I0.051 J-0.168 F300.000 
G0 Z5.000 
G0 Z5.000 
(finish operation: humbucker interior)
(begin postamble)
M05
G17 G54 G90 G80 G40
M2
