(Exported by FreeCAD)
(Post Processor: linuxcnc_post)
(Output Time:2024-05-03 21:19:47.771933)
(begin preamble)
G17 G54 G40 G49 G80 G90
G21
(begin operation: Fixture)
(machine units: mm/min)
G54 
(finish operation: Fixture)
(begin operation: TC: 6.3mm_Endmill002)
(machine units: mm/min)
(TC: 6.3mm_Endmill002) 
M5
M6 T10 
G43 H10 
M3 S600 
(finish operation: TC: 6.3mm_Endmill002)
(begin operation: P90 exterior)
(machine units: mm/min)
(P90 exterior) 
(Compensated Tool Path. Diameter: 6.3) 
G0 Z5.000 
G0 X68.806 Y116.836 
G0 Z3.000 
G1 X68.806 Y116.836 Z-3.000 F120.000 
G2 X70.663 Y112.367 Z-3.000 I-4.481 J-4.481 F300.000 
G1 X70.663 Y4.175 Z-3.000 F300.000 
G2 X64.585 Y-2.140 Z-3.000 I-6.329 J0.009 F300.000 
G1 X4.175 Y-2.150 Z-3.000 F300.000 
G2 X-2.150 Y4.175 Z-3.000 I0.012 J6.337 F300.000 
G1 X-2.150 Y112.372 Z-3.000 F300.000 
G2 X4.170 Y118.692 Z-3.000 I6.332 J-0.012 F300.000 
G1 X64.338 Y118.693 Z-3.000 F300.000 
G2 X68.806 Y116.836 Z-3.000 I-0.012 J-6.337 F300.000 
G1 X68.806 Y116.836 Z-6.000 F120.000 
G2 X70.663 Y112.367 Z-6.000 I-4.481 J-4.481 F300.000 
G1 X70.663 Y4.175 Z-6.000 F300.000 
G2 X64.585 Y-2.140 Z-6.000 I-6.329 J0.009 F300.000 
G1 X4.175 Y-2.150 Z-6.000 F300.000 
G2 X-2.150 Y4.175 Z-6.000 I0.012 J6.337 F300.000 
G1 X-2.150 Y112.372 Z-6.000 F300.000 
G2 X4.170 Y118.692 Z-6.000 I6.332 J-0.012 F300.000 
G1 X64.338 Y118.693 Z-6.000 F300.000 
G2 X68.806 Y116.836 Z-6.000 I-0.012 J-6.337 F300.000 
G1 X68.806 Y116.836 Z-9.000 F120.000 
G2 X70.663 Y112.367 Z-9.000 I-4.481 J-4.481 F300.000 
G1 X70.663 Y4.175 Z-9.000 F300.000 
G2 X64.585 Y-2.140 Z-9.000 I-6.329 J0.009 F300.000 
G1 X4.175 Y-2.150 Z-9.000 F300.000 
G2 X-2.150 Y4.175 Z-9.000 I0.012 J6.337 F300.000 
G1 X-2.150 Y112.372 Z-9.000 F300.000 
G2 X4.170 Y118.692 Z-9.000 I6.332 J-0.012 F300.000 
G1 X64.338 Y118.693 Z-9.000 F300.000 
G2 X68.806 Y116.836 Z-9.000 I-0.012 J-6.337 F300.000 
G1 X68.806 Y116.836 Z-12.000 F120.000 
G2 X70.663 Y112.367 Z-12.000 I-4.481 J-4.481 F300.000 
G1 X70.663 Y4.175 Z-12.000 F300.000 
G2 X64.585 Y-2.140 Z-12.000 I-6.329 J0.009 F300.000 
G1 X4.175 Y-2.150 Z-12.000 F300.000 
G2 X-2.150 Y4.175 Z-12.000 I0.012 J6.337 F300.000 
G1 X-2.150 Y112.372 Z-12.000 F300.000 
G2 X4.170 Y118.692 Z-12.000 I6.332 J-0.012 F300.000 
G1 X64.338 Y118.693 Z-12.000 F300.000 
G2 X68.806 Y116.836 Z-12.000 I-0.012 J-6.337 F300.000 
G1 X68.806 Y116.836 Z-14.000 F120.000 
G2 X70.663 Y112.367 Z-14.000 I-4.481 J-4.481 F300.000 
G1 X70.663 Y4.175 Z-14.000 F300.000 
G2 X64.585 Y-2.140 Z-14.000 I-6.329 J0.009 F300.000 
G1 X4.175 Y-2.150 Z-14.000 F300.000 
G2 X-2.150 Y4.175 Z-14.000 I0.012 J6.337 F300.000 
G1 X-2.150 Y112.372 Z-14.000 F300.000 
G2 X4.170 Y118.692 Z-14.000 I6.332 J-0.012 F300.000 
G1 X64.338 Y118.693 Z-14.000 F300.000 
G2 X68.806 Y116.836 Z-14.000 I-0.012 J-6.337 F300.000 
G0 Z5.000 
G0 Z5.000 
(finish operation: P90 exterior)
(begin postamble)
M05
G17 G54 G90 G80 G40
M2
