(Exported by FreeCAD)
(Post Processor: linuxcnc_post)
(Output Time:2024-05-03 21:19:16.245803)
(begin preamble)
G17 G54 G40 G49 G80 G90
G21
(begin operation: Fixture)
(machine units: mm/min)
G54 
(finish operation: Fixture)
(begin operation: TC: 6.3mm_Endmill002)
(machine units: mm/min)
(TC: 6.3mm_Endmill002) 
M5
M6 T10 
G43 H10 
M3 S600 
(finish operation: TC: 6.3mm_Endmill002)
(begin operation: P90 interior)
(machine units: mm/min)
(P90 interior) 
(Compensated Tool Path. Diameter: 6.3) 
G0 Z5.000 
G0 X46.354 Y98.064 
G0 Z3.000 
G1 X46.354 Y98.064 Z-3.000 F120.000 
G2 X47.063 Y96.278 Z-3.000 I-1.713 J-1.713 F300.000 
G1 X47.063 Y20.265 Z-3.000 F300.000 
G2 X44.568 Y17.770 Z-3.000 I-2.421 J-0.074 F300.000 
G1 X19.345 Y17.770 Z-3.000 F300.000 
G2 X16.850 Y20.265 Z-3.000 I-0.074 J2.421 F300.000 
G1 X16.850 Y96.278 Z-3.000 F300.000 
G2 X19.345 Y98.772 Z-3.000 I2.421 J0.074 F300.000 
G1 X44.568 Y98.772 Z-3.000 F300.000 
G2 X46.354 Y98.064 Z-3.000 I0.074 J-2.421 F300.000 
G1 X46.354 Y98.064 Z-6.000 F120.000 
G2 X47.063 Y96.278 Z-6.000 I-1.713 J-1.713 F300.000 
G1 X47.063 Y20.265 Z-6.000 F300.000 
G2 X44.568 Y17.770 Z-6.000 I-2.421 J-0.074 F300.000 
G1 X19.345 Y17.770 Z-6.000 F300.000 
G2 X16.850 Y20.265 Z-6.000 I-0.074 J2.421 F300.000 
G1 X16.850 Y96.278 Z-6.000 F300.000 
G2 X19.345 Y98.772 Z-6.000 I2.421 J0.074 F300.000 
G1 X44.568 Y98.772 Z-6.000 F300.000 
G2 X46.354 Y98.064 Z-6.000 I0.074 J-2.421 F300.000 
G1 X46.354 Y98.064 Z-9.000 F120.000 
G2 X47.063 Y96.278 Z-9.000 I-1.713 J-1.713 F300.000 
G1 X47.063 Y20.265 Z-9.000 F300.000 
G2 X44.568 Y17.770 Z-9.000 I-2.421 J-0.074 F300.000 
G1 X19.345 Y17.770 Z-9.000 F300.000 
G2 X16.850 Y20.265 Z-9.000 I-0.074 J2.421 F300.000 
G1 X16.850 Y96.278 Z-9.000 F300.000 
G2 X19.345 Y98.772 Z-9.000 I2.421 J0.074 F300.000 
G1 X44.568 Y98.772 Z-9.000 F300.000 
G2 X46.354 Y98.064 Z-9.000 I0.074 J-2.421 F300.000 
G1 X46.354 Y98.064 Z-12.000 F120.000 
G2 X47.063 Y96.278 Z-12.000 I-1.713 J-1.713 F300.000 
G1 X47.063 Y20.265 Z-12.000 F300.000 
G2 X44.568 Y17.770 Z-12.000 I-2.421 J-0.074 F300.000 
G1 X19.345 Y17.770 Z-12.000 F300.000 
G2 X16.850 Y20.265 Z-12.000 I-0.074 J2.421 F300.000 
G1 X16.850 Y96.278 Z-12.000 F300.000 
G2 X19.345 Y98.772 Z-12.000 I2.421 J0.074 F300.000 
G1 X44.568 Y98.772 Z-12.000 F300.000 
G2 X46.354 Y98.064 Z-12.000 I0.074 J-2.421 F300.000 
G1 X46.354 Y98.064 Z-14.000 F120.000 
G2 X47.063 Y96.278 Z-14.000 I-1.713 J-1.713 F300.000 
G1 X47.063 Y20.265 Z-14.000 F300.000 
G2 X44.568 Y17.770 Z-14.000 I-2.421 J-0.074 F300.000 
G1 X19.345 Y17.770 Z-14.000 F300.000 
G2 X16.850 Y20.265 Z-14.000 I-0.074 J2.421 F300.000 
G1 X16.850 Y96.278 Z-14.000 F300.000 
G2 X19.345 Y98.772 Z-14.000 I2.421 J0.074 F300.000 
G1 X44.568 Y98.772 Z-14.000 F300.000 
G2 X46.354 Y98.064 Z-14.000 I0.074 J-2.421 F300.000 
G0 Z5.000 
G0 Z5.000 
(finish operation: P90 interior)
(begin postamble)
M05
G17 G54 G90 G80 G40
M2
