(Exported by FreeCAD)
(Post Processor: linuxcnc_post)
(Output Time:2024-05-14 20:28:44.606044)
(begin preamble)
G17 G54 G40 G49 G80 G90
G21
(begin operation: Fixture)
(machine units: mm/min)
G54 
(finish operation: Fixture)
(begin operation: TC: 6.3mm_Endmill001)
(machine units: mm/min)
(TC: 6.3mm_Endmill001) 
M5
M6 T10 
G43 H10 
M3 S600 
(finish operation: TC: 6.3mm_Endmill001)
(begin operation: P90  exterior)
(machine units: mm/min)
(P90  exterior) 
(Compensated Tool Path. Diameter: 6.3) 
G0 Z5.000 
G0 X68.813 Y117.655 
G0 Z3.000 
G1 X68.813 Y117.655 Z-3.000 F120.000 
G2 X70.660 Y113.432 Z-3.000 I-4.477 J-4.474 F300.000 
G1 X70.670 Y4.995 Z-3.000 F300.000 
G2 X64.592 Y-1.320 Z-3.000 I-6.329 J0.009 F300.000 
G1 X4.175 Y-1.330 Z-3.000 F300.000 
G2 X-2.140 Y4.748 Z-3.000 I0.009 J6.329 F300.000 
G1 X-2.150 Y113.190 Z-3.000 F300.000 
G2 X4.170 Y119.510 Z-3.000 I6.332 J-0.012 F300.000 
G1 X64.345 Y119.510 Z-3.000 F300.000 
G2 X68.813 Y117.655 Z-3.000 I-0.009 J-6.329 F300.000 
G1 X68.813 Y117.655 Z-6.000 F120.000 
G2 X70.660 Y113.432 Z-6.000 I-4.477 J-4.474 F300.000 
G1 X70.670 Y4.995 Z-6.000 F300.000 
G2 X64.592 Y-1.320 Z-6.000 I-6.329 J0.009 F300.000 
G1 X4.175 Y-1.330 Z-6.000 F300.000 
G2 X-2.140 Y4.748 Z-6.000 I0.009 J6.329 F300.000 
G1 X-2.150 Y113.190 Z-6.000 F300.000 
G2 X4.170 Y119.510 Z-6.000 I6.332 J-0.012 F300.000 
G1 X64.345 Y119.510 Z-6.000 F300.000 
G2 X68.813 Y117.655 Z-6.000 I-0.009 J-6.329 F300.000 
G1 X68.813 Y117.655 Z-9.000 F120.000 
G2 X70.660 Y113.432 Z-9.000 I-4.477 J-4.474 F300.000 
G1 X70.670 Y4.995 Z-9.000 F300.000 
G2 X64.592 Y-1.320 Z-9.000 I-6.329 J0.009 F300.000 
G1 X4.175 Y-1.330 Z-9.000 F300.000 
G2 X-2.140 Y4.748 Z-9.000 I0.009 J6.329 F300.000 
G1 X-2.150 Y113.190 Z-9.000 F300.000 
G2 X4.170 Y119.510 Z-9.000 I6.332 J-0.012 F300.000 
G1 X64.345 Y119.510 Z-9.000 F300.000 
G2 X68.813 Y117.655 Z-9.000 I-0.009 J-6.329 F300.000 
G1 X68.813 Y117.655 Z-12.000 F120.000 
G2 X70.660 Y113.432 Z-12.000 I-4.477 J-4.474 F300.000 
G1 X70.670 Y4.995 Z-12.000 F300.000 
G2 X64.592 Y-1.320 Z-12.000 I-6.329 J0.009 F300.000 
G1 X4.175 Y-1.330 Z-12.000 F300.000 
G2 X-2.140 Y4.748 Z-12.000 I0.009 J6.329 F300.000 
G1 X-2.150 Y113.190 Z-12.000 F300.000 
G2 X4.170 Y119.510 Z-12.000 I6.332 J-0.012 F300.000 
G1 X64.345 Y119.510 Z-12.000 F300.000 
G2 X68.813 Y117.655 Z-12.000 I-0.009 J-6.329 F300.000 
G1 X68.813 Y117.655 Z-14.000 F120.000 
G2 X70.660 Y113.432 Z-14.000 I-4.477 J-4.474 F300.000 
G1 X70.670 Y4.995 Z-14.000 F300.000 
G2 X64.592 Y-1.320 Z-14.000 I-6.329 J0.009 F300.000 
G1 X4.175 Y-1.330 Z-14.000 F300.000 
G2 X-2.140 Y4.748 Z-14.000 I0.009 J6.329 F300.000 
G1 X-2.150 Y113.190 Z-14.000 F300.000 
G2 X4.170 Y119.510 Z-14.000 I6.332 J-0.012 F300.000 
G1 X64.345 Y119.510 Z-14.000 F300.000 
G2 X68.813 Y117.655 Z-14.000 I-0.009 J-6.329 F300.000 
G0 Z5.000 
G0 Z5.000 
(finish operation: P90  exterior)
(begin postamble)
M05
G17 G54 G90 G80 G40
M2
