(Exported by FreeCAD)
(Post Processor: linuxcnc_post)
(Output Time:2024-07-19 17:14:35.935806)
(begin preamble)
G17 G54 G40 G49 G80 G90
G21
(begin operation: Fixture)
(machine units: mm/min)
G54 
(finish operation: Fixture)
(begin operation: TC: 6.3mm_Endmill001)
(machine units: mm/min)
(TC: 6.3mm_Endmill001) 
M5
M6 T10 
G43 H10 
M3 S600 
(finish operation: TC: 6.3mm_Endmill001)
(begin operation: DressupTag)
(machine units: mm/min)
G0 Z5.000 
G0 X133.035 Y67.347 Z5.000 
G0 X133.035 Y67.347 Z3.000 
G1 X133.035 Y67.347 Z-3.000 F120.000 
G2 X135.217 Y40.829 Z-3.000 I-14.546 J-14.546 F300.000 
G1 X135.217 Y40.829 Z-3.000 F300.000 
G3 X135.201 Y29.397 Z-3.000 I7.723 J-5.727 F300.000 
G2 X104.053 Y2.762 Z-3.000 I-16.747 J-11.946 F300.000 
G3 X72.543 Y2.774 Z-3.000 I-15.761 J-15.774 F300.000 
G2 X60.719 Y-2.956 Z-3.000 I-14.416 J14.681 F300.000 
G2 X37.892 Y13.757 Z-3.000 I-2.590 J20.407 F300.000 
G3 X16.612 Y32.245 Z-3.000 I-21.975 J-3.802 F300.000 
G2 X2.175 Y38.977 Z-3.000 I0.799 J20.559 F300.000 
G2 X31.811 Y67.490 Z-3.000 I15.234 J13.824 F300.000 
G3 X63.319 Y67.478 Z-3.000 I15.760 J15.775 F300.000 
G2 X91.541 Y68.049 Z-3.000 I14.414 J-14.677 F300.000 
G1 X91.541 Y68.049 Z-3.000 F300.000 
G3 X104.675 Y68.043 Z-3.000 I6.570 J7.010 F300.000 
G2 X133.035 Y67.347 Z-3.000 I13.814 J-15.242 F300.000 
G1 X133.035 Y67.347 Z-6.000 F120.000 
G2 X135.217 Y40.829 Z-6.000 I-14.546 J-14.546 F300.000 
G1 X135.217 Y40.829 Z-6.000 F300.000 
G3 X135.201 Y29.397 Z-6.000 I7.723 J-5.727 F300.000 
G2 X104.053 Y2.762 Z-6.000 I-16.747 J-11.946 F300.000 
G3 X72.543 Y2.774 Z-6.000 I-15.761 J-15.774 F300.000 
G2 X60.719 Y-2.956 Z-6.000 I-14.416 J14.681 F300.000 
G2 X37.892 Y13.757 Z-6.000 I-2.590 J20.407 F300.000 
G3 X16.612 Y32.245 Z-6.000 I-21.975 J-3.802 F300.000 
G2 X2.175 Y38.977 Z-6.000 I0.799 J20.559 F300.000 
G2 X31.811 Y67.490 Z-6.000 I15.234 J13.824 F300.000 
G3 X63.319 Y67.478 Z-6.000 I15.760 J15.775 F300.000 
G2 X91.541 Y68.049 Z-6.000 I14.414 J-14.677 F300.000 
G1 X91.541 Y68.049 Z-6.000 F300.000 
G3 X104.675 Y68.043 Z-6.000 I6.570 J7.010 F300.000 
G2 X133.035 Y67.347 Z-6.000 I13.814 J-15.242 F300.000 
G1 X133.035 Y67.347 Z-9.000 F120.000 
G2 X135.217 Y40.829 Z-9.000 I-14.546 J-14.546 F300.000 
G1 X135.217 Y40.829 Z-9.000 F300.000 
G3 X135.201 Y29.397 Z-9.000 I7.723 J-5.727 F300.000 
G2 X132.791 Y2.699 Z-9.000 I-16.747 J-11.946 F300.000 
G1 X132.536 Y2.456 Z-8.645 F209.432 
G1 X132.128 Y2.082 Z-8.087 F209.498 
G1 X131.841 Y1.832 Z-7.723 F212.588 
G1 X131.710 Y1.720 Z-7.831 F235.800 
G1 X131.243 Y1.338 Z-8.437 F209.778 
G1 X130.801 Y0.998 Z-9.000 F209.437 
G2 X104.053 Y2.762 Z-9.000 I-12.347 J16.453 F300.000 
G3 X72.543 Y2.774 Z-9.000 I-15.761 J-15.774 F300.000 
G2 X60.719 Y-2.956 Z-9.000 I-14.416 J14.681 F300.000 
G2 X47.058 Y0.113 Z-9.000 I-2.590 J20.407 F300.000 
G1 X46.528 Y0.463 Z-8.358 F209.441 
G1 X46.023 Y0.819 Z-7.746 F210.448 
G1 X45.953 Y0.870 Z-7.656 F207.851 
G1 X45.967 Y0.860 Z-7.668 F229.582 
G1 X45.975 Y0.854 Z-7.720 F141.012 
G1 X45.947 Y0.875 Z-7.733 F259.139 
G1 X45.476 Y1.232 Z-8.313 F211.139 
G1 X44.946 Y1.659 Z-9.000 F209.444 
G2 X37.892 Y13.757 Z-9.000 I13.183 J15.792 F300.000 
G3 X16.612 Y32.245 Z-9.000 I-21.975 J-3.802 F300.000 
G2 X2.175 Y38.977 Z-9.000 I0.799 J20.559 F300.000 
G2 X2.232 Y66.687 Z-9.000 I15.234 J13.824 F300.000 
G1 X2.675 Y67.156 Z-8.348 F209.442 
G1 X2.884 Y67.368 Z-8.048 F209.566 
G1 X3.120 Y67.600 Z-7.729 F212.197 
G1 X3.158 Y67.636 Z-7.716 F271.422 
G1 X3.369 Y67.836 Z-7.990 F213.591 
G1 X3.732 Y68.166 Z-8.484 F209.563 
G1 X4.118 Y68.501 Z-9.000 F209.436 
G2 X31.811 Y67.490 Z-9.000 I13.291 J-15.701 F300.000 
G3 X63.319 Y67.478 Z-9.000 I15.760 J15.775 F300.000 
G2 X91.541 Y68.049 Z-9.000 I14.414 J-14.677 F300.000 
G1 X91.541 Y68.049 Z-9.000 F300.000 
G3 X104.675 Y68.043 Z-9.000 I6.570 J7.010 F300.000 
G2 X133.035 Y67.347 Z-9.000 I13.814 J-15.242 F300.000 
G1 X133.035 Y67.347 Z-12.000 F120.000 
G2 X135.217 Y40.829 Z-12.000 I-14.546 J-14.546 F300.000 
G1 X135.217 Y40.829 Z-12.000 F300.000 
G3 X135.201 Y29.397 Z-12.000 I7.723 J-5.727 F300.000 
G2 X134.767 Y4.919 Z-12.000 I-16.747 J-11.946 F300.000 
G1 X133.981 Y3.957 Z-10.749 F209.599 
G1 X133.246 Y3.156 Z-9.652 F209.483 
G1 X132.845 Y2.752 Z-9.077 F209.437 
G1 X132.433 Y2.359 Z-8.502 F209.434 
G1 X132.203 Y2.150 Z-8.188 F209.492 
G1 X131.845 Y1.835 Z-7.727 F211.842 
G1 X131.814 Y1.809 Z-7.718 F275.074 
G1 X131.772 Y1.773 Z-7.755 F232.371 
G1 X131.376 Y1.445 Z-8.265 F210.451 
G1 X130.886 Y1.062 Z-8.892 F209.451 
G1 X130.131 Y0.516 Z-9.833 F209.436 
G1 X129.352 Y0.004 Z-10.774 F209.492 
G1 X128.301 Y-0.610 Z-12.000 F209.600 
G2 X104.053 Y2.762 Z-12.000 I-9.847 J18.061 F300.000 
G3 X72.543 Y2.774 Z-12.000 I-15.761 J-15.774 F300.000 
G2 X60.719 Y-2.956 Z-12.000 I-14.416 J14.681 F300.000 
G2 X49.672 Y-1.302 Z-12.000 I-2.590 J20.407 F300.000 
G1 X48.554 Y-0.756 Z-10.747 F209.599 
G1 X47.269 Y-0.020 Z-9.252 F209.464 
G1 X46.622 Y0.399 Z-8.473 F209.432 
G1 X46.329 Y0.601 Z-8.115 F209.514 
G1 X46.023 Y0.819 Z-7.746 F211.045 
G1 X45.975 Y0.854 Z-7.712 F241.024 
G1 X45.566 Y1.162 Z-8.197 F213.126 
G1 X45.118 Y1.517 Z-8.774 F209.465 
G1 X44.381 Y2.149 Z-9.755 F209.433 
G1 X43.633 Y2.855 Z-10.793 F209.489 
G1 X42.807 Y3.724 Z-12.000 F209.602 
G2 X37.892 Y13.757 Z-12.000 I15.321 J13.727 F300.000 
G3 X16.612 Y32.245 Z-12.000 I-21.975 J-3.802 F300.000 
G2 X2.175 Y38.977 Z-12.000 I0.799 J20.559 F300.000 
G2 X0.389 Y64.354 Z-12.000 I15.234 J13.824 F300.000 
G1 X1.108 Y65.349 Z-10.764 F209.600 
G1 X1.819 Y66.222 Z-9.628 F209.482 
G1 X2.192 Y66.643 Z-9.059 F209.436 
G1 X2.576 Y67.054 Z-8.491 F209.434 
G1 X2.863 Y67.347 Z-8.078 F209.522 
G1 X3.120 Y67.600 Z-7.729 F211.982 
G1 X3.145 Y67.624 Z-7.723 F277.702 
G1 X3.202 Y67.678 Z-7.764 F243.938 
G1 X3.425 Y67.888 Z-8.066 F210.835 
G1 X3.441 Y67.903 Z-8.088 F209.643 
G1 X3.805 Y68.231 Z-8.583 F209.506 
G1 X4.214 Y68.583 Z-9.128 F209.432 
G1 X5.176 Y69.339 Z-10.363 F209.451 
G1 X5.495 Y69.571 Z-10.761 F209.517 
G1 X6.519 Y70.253 Z-12.000 F209.600 
G2 X31.811 Y67.490 Z-12.000 I10.889 J-17.452 F300.000 
G3 X63.319 Y67.478 Z-12.000 I15.760 J15.775 F300.000 
G2 X91.541 Y68.049 Z-12.000 I14.414 J-14.677 F300.000 
G1 X91.541 Y68.049 Z-12.000 F300.000 
G3 X104.675 Y68.043 Z-12.000 I6.570 J7.010 F300.000 
G2 X133.035 Y67.347 Z-12.000 I13.814 J-15.242 F300.000 
G1 X133.035 Y67.347 Z-14.000 F120.000 
G2 X135.217 Y40.829 Z-14.000 I-14.546 J-14.546 F300.000 
G1 X135.217 Y40.829 Z-14.000 F300.000 
G3 X135.201 Y29.397 Z-14.000 I7.723 J-5.727 F300.000 
G2 X135.904 Y6.558 Z-14.000 I-16.747 J-11.946 F300.000 
G1 X135.227 Y5.542 Z-12.778 F209.915 
G1 X134.492 Y4.568 Z-11.551 F209.706 
G1 X134.016 Y3.998 Z-10.804 F209.580 
G1 X133.993 Y3.971 Z-10.767 F209.540 
G1 X133.244 Y3.154 Z-9.649 F209.483 
G1 X132.835 Y2.742 Z-9.063 F209.437 
G1 X132.414 Y2.342 Z-8.476 F209.435 
G1 X132.180 Y2.129 Z-8.157 F209.502 
G1 X131.879 Y1.864 Z-7.760 F210.510 
G1 X131.824 Y1.817 Z-7.718 F239.860 
G1 X131.802 Y1.798 Z-7.723 F280.813 
G1 X131.782 Y1.782 Z-7.743 F222.962 
G1 X131.376 Y1.445 Z-8.264 F210.686 
G1 X130.919 Y1.087 Z-8.850 F209.453 
G1 X130.151 Y0.529 Z-9.810 F209.434 
G1 X129.357 Y0.007 Z-10.768 F209.491 
G1 X128.300 Y-0.611 Z-12.001 F209.600 
G1 X127.208 Y-1.164 Z-13.230 F209.777 
G1 X126.859 Y-1.325 Z-13.615 F209.927 
G1 X126.506 Y-1.479 Z-14.000 F210.004 
G2 X104.053 Y2.762 Z-14.000 I-8.052 J18.930 F300.000 
G3 X72.543 Y2.774 Z-14.000 I-15.761 J-15.774 F300.000 
G2 X60.719 Y-2.956 Z-14.000 I-14.416 J14.681 F300.000 
G2 X51.528 Y-2.032 Z-14.000 I-2.590 J20.407 F300.000 
G1 X50.385 Y-1.607 Z-12.778 F209.915 
G1 X49.268 Y-1.114 Z-11.551 F209.706 
G1 X48.625 Y-0.793 Z-10.828 F209.581 
G1 X48.594 Y-0.777 Z-10.793 F209.542 
G1 X47.286 Y-0.030 Z-9.272 F209.466 
G1 X46.628 Y0.395 Z-8.481 F209.432 
G1 X46.330 Y0.600 Z-8.116 F209.512 
G1 X46.023 Y0.819 Z-7.746 F211.040 
G1 X45.975 Y0.854 Z-7.712 F241.024 
G1 X45.566 Y1.162 Z-8.197 F213.126 
G1 X45.118 Y1.517 Z-8.774 F209.465 
G1 X44.381 Y2.149 Z-9.755 F209.433 
G1 X43.633 Y2.855 Z-10.793 F209.489 
G1 X42.791 Y3.743 Z-12.025 F209.603 
G1 X42.002 Y4.680 Z-13.254 F209.781 
G1 X41.774 Y4.974 Z-13.627 F209.931 
G1 X41.550 Y5.272 Z-14.000 F210.006 
G2 X37.892 Y13.757 Z-14.000 I16.579 J12.179 F300.000 
G3 X16.612 Y32.245 Z-14.000 I-21.975 J-3.802 F300.000 
G2 X2.175 Y38.977 Z-14.000 I0.799 J20.559 F300.000 
G2 X-0.650 Y62.652 Z-14.000 I15.234 J13.824 F300.000 
G1 X-0.034 Y63.705 Z-12.778 F209.915 
G1 X0.643 Y64.720 Z-11.551 F209.706 
G1 X1.093 Y65.329 Z-10.789 F209.579 
G1 X1.115 Y65.358 Z-10.752 F209.538 
G1 X1.807 Y66.208 Z-9.646 F209.483 
G1 X2.187 Y66.638 Z-9.067 F209.437 
G1 X2.579 Y67.057 Z-8.487 F209.434 
G1 X2.834 Y67.318 Z-8.119 F209.510 
G1 X3.120 Y67.600 Z-7.729 F211.741 
G1 X3.145 Y67.624 Z-7.723 F277.702 
G1 X3.202 Y67.678 Z-7.764 F243.938 
G1 X3.425 Y67.888 Z-8.066 F210.835 
G1 X3.441 Y67.903 Z-8.088 F209.643 
G1 X3.805 Y68.231 Z-8.583 F209.506 
G1 X4.214 Y68.583 Z-9.128 F209.432 
G1 X5.176 Y69.339 Z-10.363 F209.451 
G1 X5.495 Y69.571 Z-10.761 F209.517 
G1 X6.514 Y70.250 Z-11.993 F209.599 
G1 X7.571 Y70.867 Z-13.222 F209.776 
G1 X7.914 Y71.049 Z-13.611 F209.926 
G1 X8.260 Y71.226 Z-14.000 F210.004 
G2 X31.811 Y67.490 Z-14.000 I9.148 J-18.425 F300.000 
G3 X63.319 Y67.478 Z-14.000 I15.760 J15.775 F300.000 
G2 X91.541 Y68.049 Z-14.000 I14.414 J-14.677 F300.000 
G1 X91.541 Y68.049 Z-14.000 F300.000 
G3 X104.675 Y68.043 Z-14.000 I6.570 J7.010 F300.000 
G2 X133.035 Y67.347 Z-14.000 I13.814 J-15.242 F300.000 
G0 X133.035 Y67.347 Z5.000 
(finish operation: DressupTag)
(begin operation: holes)
(machine units: mm/min)
(holes) 
(Compensated Tool Path. Diameter: 6.3) 
G0 Z5.000 
G0 X18.545 Y53.937 
G0 Z3.000 
G1 X18.545 Y53.937 Z-3.000 F120.000 
G2 X18.965 Y53.200 Z-3.000 I-1.136 J-1.136 F300.000 
G2 X17.808 Y51.245 Z-3.000 I-1.556 J-0.399 F300.000 
G2 X15.853 Y52.401 Z-3.000 I-0.399 J1.556 F300.000 
G2 X18.545 Y53.937 Z-3.000 I1.556 J0.399 F300.000 
G1 X18.545 Y53.937 Z-6.000 F120.000 
G2 X18.965 Y53.200 Z-6.000 I-1.136 J-1.136 F300.000 
G2 X17.808 Y51.245 Z-6.000 I-1.556 J-0.399 F300.000 
G2 X15.853 Y52.401 Z-6.000 I-0.399 J1.556 F300.000 
G2 X18.545 Y53.937 Z-6.000 I1.556 J0.399 F300.000 
G1 X18.545 Y53.937 Z-9.000 F120.000 
G2 X18.965 Y53.200 Z-9.000 I-1.136 J-1.136 F300.000 
G2 X17.808 Y51.245 Z-9.000 I-1.556 J-0.399 F300.000 
G2 X15.853 Y52.401 Z-9.000 I-0.399 J1.556 F300.000 
G2 X18.545 Y53.937 Z-9.000 I1.556 J0.399 F300.000 
G1 X18.545 Y53.937 Z-12.000 F120.000 
G2 X18.965 Y53.200 Z-12.000 I-1.136 J-1.136 F300.000 
G2 X17.808 Y51.245 Z-12.000 I-1.556 J-0.399 F300.000 
G2 X15.853 Y52.401 Z-12.000 I-0.399 J1.556 F300.000 
G2 X18.545 Y53.937 Z-12.000 I1.556 J0.399 F300.000 
G1 X18.545 Y53.937 Z-14.000 F120.000 
G2 X18.965 Y53.200 Z-14.000 I-1.136 J-1.136 F300.000 
G2 X17.808 Y51.245 Z-14.000 I-1.556 J-0.399 F300.000 
G2 X15.853 Y52.401 Z-14.000 I-0.399 J1.556 F300.000 
G2 X18.545 Y53.937 Z-14.000 I1.556 J0.399 F300.000 
G0 Z5.000 
G0 Z5.000 
G0 X18.545 Y53.937 
G0 X56.948 Y18.540 
G0 X56.948 Y18.540 Z3.000 
G1 X56.948 Y18.540 Z-3.000 F120.000 
G2 X57.828 Y19.029 Z-3.000 I1.181 J-1.089 F300.000 
G2 X58.611 Y15.918 Z-3.000 I0.301 J-1.578 F300.000 
G1 X58.422 Y15.871 Z-3.000 F300.000 
G2 X56.948 Y18.540 Z-3.000 I-0.293 J1.580 F300.000 
G1 X56.948 Y18.540 Z-6.000 F120.000 
G2 X57.828 Y19.029 Z-6.000 I1.181 J-1.089 F300.000 
G2 X58.611 Y15.918 Z-6.000 I0.301 J-1.578 F300.000 
G1 X58.422 Y15.871 Z-6.000 F300.000 
G2 X56.948 Y18.540 Z-6.000 I-0.293 J1.580 F300.000 
G1 X56.948 Y18.540 Z-9.000 F120.000 
G2 X57.828 Y19.029 Z-9.000 I1.181 J-1.089 F300.000 
G2 X58.611 Y15.918 Z-9.000 I0.301 J-1.578 F300.000 
G1 X58.422 Y15.871 Z-9.000 F300.000 
G2 X56.948 Y18.540 Z-9.000 I-0.293 J1.580 F300.000 
G1 X56.948 Y18.540 Z-12.000 F120.000 
G2 X57.828 Y19.029 Z-12.000 I1.181 J-1.089 F300.000 
G2 X58.611 Y15.918 Z-12.000 I0.301 J-1.578 F300.000 
G1 X58.422 Y15.871 Z-12.000 F300.000 
G2 X56.948 Y18.540 Z-12.000 I-0.293 J1.580 F300.000 
G1 X56.948 Y18.540 Z-14.000 F120.000 
G2 X57.828 Y19.029 Z-14.000 I1.181 J-1.089 F300.000 
G2 X58.611 Y15.918 Z-14.000 I0.301 J-1.578 F300.000 
G1 X58.422 Y15.871 Z-14.000 F300.000 
G2 X56.948 Y18.540 Z-14.000 I-0.293 J1.580 F300.000 
G0 Z5.000 
G0 Z5.000 
G0 X56.948 Y18.540 
G0 X76.901 Y51.428 
G0 X76.901 Y51.428 Z3.000 
G1 X76.901 Y51.428 Z-3.000 F120.000 
G2 X77.238 Y54.329 Z-3.000 I0.833 J1.373 F300.000 
G2 X79.262 Y53.297 Z-3.000 I0.496 J-1.528 F300.000 
G2 X78.230 Y51.273 Z-3.000 I-1.528 J-0.496 F300.000 
G2 X76.901 Y51.428 Z-3.000 I-0.496 J1.528 F300.000 
G1 X76.901 Y51.428 Z-6.000 F120.000 
G2 X77.238 Y54.329 Z-6.000 I0.833 J1.373 F300.000 
G2 X79.262 Y53.297 Z-6.000 I0.496 J-1.528 F300.000 
G2 X78.230 Y51.273 Z-6.000 I-1.528 J-0.496 F300.000 
G2 X76.901 Y51.428 Z-6.000 I-0.496 J1.528 F300.000 
G1 X76.901 Y51.428 Z-9.000 F120.000 
G2 X77.238 Y54.329 Z-9.000 I0.833 J1.373 F300.000 
G2 X79.262 Y53.297 Z-9.000 I0.496 J-1.528 F300.000 
G2 X78.230 Y51.273 Z-9.000 I-1.528 J-0.496 F300.000 
G2 X76.901 Y51.428 Z-9.000 I-0.496 J1.528 F300.000 
G1 X76.901 Y51.428 Z-12.000 F120.000 
G2 X77.238 Y54.329 Z-12.000 I0.833 J1.373 F300.000 
G2 X79.262 Y53.297 Z-12.000 I0.496 J-1.528 F300.000 
G2 X78.230 Y51.273 Z-12.000 I-1.528 J-0.496 F300.000 
G2 X76.901 Y51.428 Z-12.000 I-0.496 J1.528 F300.000 
G1 X76.901 Y51.428 Z-14.000 F120.000 
G2 X77.238 Y54.329 Z-14.000 I0.833 J1.373 F300.000 
G2 X79.262 Y53.297 Z-14.000 I0.496 J-1.528 F300.000 
G2 X78.230 Y51.273 Z-14.000 I-1.528 J-0.496 F300.000 
G2 X76.901 Y51.428 Z-14.000 I-0.496 J1.528 F300.000 
G0 Z5.000 
G0 Z5.000 
G0 X76.901 Y51.428 
G0 X115.296 Y52.695 
G0 X115.296 Y52.695 Z3.000 
G1 X115.296 Y52.695 Z-3.000 F120.000 
G2 X117.778 Y55.916 Z-3.000 I3.193 J0.105 F300.000 
G2 X121.604 Y53.512 Z-3.000 I0.711 J-3.115 F300.000 
G2 X119.200 Y49.686 Z-3.000 I-3.115 J-0.711 F300.000 
G2 X115.296 Y52.695 Z-3.000 I-0.711 J3.115 F300.000 
G1 X115.296 Y52.695 Z-6.000 F120.000 
G2 X117.778 Y55.916 Z-6.000 I3.193 J0.105 F300.000 
G2 X121.604 Y53.512 Z-6.000 I0.711 J-3.115 F300.000 
G2 X119.200 Y49.686 Z-6.000 I-3.115 J-0.711 F300.000 
G2 X115.296 Y52.695 Z-6.000 I-0.711 J3.115 F300.000 
G1 X115.296 Y52.695 Z-9.000 F120.000 
G2 X117.778 Y55.916 Z-9.000 I3.193 J0.105 F300.000 
G2 X121.604 Y53.512 Z-9.000 I0.711 J-3.115 F300.000 
G2 X119.200 Y49.686 Z-9.000 I-3.115 J-0.711 F300.000 
G2 X115.296 Y52.695 Z-9.000 I-0.711 J3.115 F300.000 
G1 X115.296 Y52.695 Z-12.000 F120.000 
G2 X117.778 Y55.916 Z-12.000 I3.193 J0.105 F300.000 
G2 X121.604 Y53.512 Z-12.000 I0.711 J-3.115 F300.000 
G2 X119.200 Y49.686 Z-12.000 I-3.115 J-0.711 F300.000 
G2 X115.296 Y52.695 Z-12.000 I-0.711 J3.115 F300.000 
G1 X115.296 Y52.695 Z-14.000 F120.000 
G2 X117.778 Y55.916 Z-14.000 I3.193 J0.105 F300.000 
G2 X121.604 Y53.512 Z-14.000 I0.711 J-3.115 F300.000 
G2 X119.200 Y49.686 Z-14.000 I-3.115 J-0.711 F300.000 
G2 X115.296 Y52.695 Z-14.000 I-0.711 J3.115 F300.000 
G0 Z5.000 
G0 Z5.000 
G0 X115.296 Y52.695 
G0 X118.311 Y19.051 
G0 X118.311 Y19.051 Z3.000 
G1 X118.311 Y19.051 Z-3.000 F120.000 
G2 X118.747 Y15.871 Z-3.000 I0.143 J-1.600 F300.000 
G2 X116.874 Y17.157 Z-3.000 I-0.293 J1.580 F300.000 
G2 X118.161 Y19.031 Z-3.000 I1.580 J0.293 F300.000 
G2 X118.311 Y19.051 Z-3.000 I0.293 J-1.580 F300.000 
G1 X118.311 Y19.051 Z-6.000 F120.000 
G2 X118.747 Y15.871 Z-6.000 I0.143 J-1.600 F300.000 
G2 X116.874 Y17.157 Z-6.000 I-0.293 J1.580 F300.000 
G2 X118.161 Y19.031 Z-6.000 I1.580 J0.293 F300.000 
G2 X118.311 Y19.051 Z-6.000 I0.293 J-1.580 F300.000 
G1 X118.311 Y19.051 Z-9.000 F120.000 
G2 X118.747 Y15.871 Z-9.000 I0.143 J-1.600 F300.000 
G2 X116.874 Y17.157 Z-9.000 I-0.293 J1.580 F300.000 
G2 X118.161 Y19.031 Z-9.000 I1.580 J0.293 F300.000 
G2 X118.311 Y19.051 Z-9.000 I0.293 J-1.580 F300.000 
G1 X118.311 Y19.051 Z-12.000 F120.000 
G2 X118.747 Y15.871 Z-12.000 I0.143 J-1.600 F300.000 
G2 X116.874 Y17.157 Z-12.000 I-0.293 J1.580 F300.000 
G2 X118.161 Y19.031 Z-12.000 I1.580 J0.293 F300.000 
G2 X118.311 Y19.051 Z-12.000 I0.293 J-1.580 F300.000 
G1 X118.311 Y19.051 Z-14.000 F120.000 
G2 X118.747 Y15.871 Z-14.000 I0.143 J-1.600 F300.000 
G2 X116.874 Y17.157 Z-14.000 I-0.293 J1.580 F300.000 
G2 X118.161 Y19.031 Z-14.000 I1.580 J0.293 F300.000 
G2 X118.311 Y19.051 Z-14.000 I0.293 J-1.580 F300.000 
G0 Z5.000 
G0 Z5.000 
(finish operation: holes)
(begin postamble)
M05
G17 G54 G90 G80 G40
M2
