(Exported by FreeCAD)
(Post Processor: linuxcnc_post)
(Output Time:2024-07-19 16:19:04.137058)
(begin preamble)
G17 G54 G40 G49 G80 G90
G21
(begin operation: Fixture)
(machine units: mm/min)
G54 
(finish operation: Fixture)
(begin operation: TC: 6.3mm_Endmill001)
(machine units: mm/min)
(TC: 6.3mm_Endmill001) 
M5
M6 T10 
G43 H10 
M3 S600 
(finish operation: TC: 6.3mm_Endmill001)
(begin operation: DressupTag)
(machine units: mm/min)
G0 Z5.000 
G0 X67.809 Y116.654 Z5.000 
G0 X67.809 Y116.654 Z3.000 
G1 X67.809 Y116.654 Z-3.000 F120.000 
G2 X69.665 Y112.185 Z-3.000 I-4.481 J-4.481 F300.000 
G1 X69.665 Y3.995 Z-3.000 F300.000 
G2 X63.587 Y-2.320 Z-3.000 I-6.329 J0.009 F300.000 
G1 X3.175 Y-2.330 Z-3.000 F300.000 
G2 X-3.140 Y3.748 Z-3.000 I0.009 J6.329 F300.000 
G1 X-3.150 Y112.190 Z-3.000 F300.000 
G2 X3.170 Y118.510 Z-3.000 I6.332 J-0.012 F300.000 
G1 X63.340 Y118.510 Z-3.000 F300.000 
G2 X67.809 Y116.654 Z-3.000 I-0.012 J-6.337 F300.000 
G1 X67.809 Y116.654 Z-6.000 F120.000 
G2 X69.665 Y112.185 Z-6.000 I-4.481 J-4.481 F300.000 
G1 X69.665 Y3.995 Z-6.000 F300.000 
G2 X63.587 Y-2.320 Z-6.000 I-6.329 J0.009 F300.000 
G1 X3.175 Y-2.330 Z-6.000 F300.000 
G2 X-3.140 Y3.748 Z-6.000 I0.009 J6.329 F300.000 
G1 X-3.150 Y112.190 Z-6.000 F300.000 
G2 X3.170 Y118.510 Z-6.000 I6.332 J-0.012 F300.000 
G1 X63.340 Y118.510 Z-6.000 F300.000 
G2 X67.809 Y116.654 Z-6.000 I-0.012 J-6.337 F300.000 
G1 X67.809 Y116.654 Z-9.000 F120.000 
G2 X69.665 Y112.185 Z-9.000 I-4.481 J-4.481 F300.000 
G1 X69.665 Y90.323 Z-9.000 F300.000 
G1 X69.665 Y87.823 Z-6.500 F210.000 
G1 X69.665 Y83.643 Z-6.500 F300.000 
G1 X69.665 Y81.143 Z-9.000 F210.000 
G1 X69.665 Y35.284 Z-9.000 F300.000 
G1 X69.665 Y32.784 Z-6.500 F210.000 
G1 X69.665 Y28.604 Z-6.500 F300.000 
G1 X69.665 Y26.104 Z-9.000 F210.000 
G1 X69.665 Y3.995 Z-9.000 F300.000 
G2 X63.587 Y-2.320 Z-9.000 I-6.329 J0.009 F300.000 
G1 X3.175 Y-2.330 Z-9.000 F300.000 
G2 X-3.140 Y3.748 Z-9.000 I0.009 J6.329 F300.000 
G1 X-3.142 Y25.858 Z-9.000 F300.000 
G1 X-3.142 Y28.358 Z-6.500 F210.000 
G1 X-3.143 Y32.538 Z-6.500 F300.000 
G1 X-3.143 Y35.038 Z-9.000 F210.000 
G1 X-3.147 Y80.899 Z-9.000 F300.000 
G1 X-3.147 Y83.399 Z-6.500 F210.000 
G1 X-3.148 Y87.579 Z-6.500 F300.000 
G1 X-3.148 Y90.079 Z-9.000 F210.000 
G1 X-3.150 Y112.190 Z-9.000 F300.000 
G2 X3.170 Y118.510 Z-9.000 I6.332 J-0.012 F300.000 
G1 X63.340 Y118.510 Z-9.000 F300.000 
G2 X67.809 Y116.654 Z-9.000 I-0.012 J-6.337 F300.000 
G1 X67.809 Y116.654 Z-12.000 F120.000 
G2 X69.665 Y112.185 Z-12.000 I-4.481 J-4.481 F300.000 
G1 X69.665 Y93.323 Z-12.000 F300.000 
G1 X69.665 Y87.823 Z-6.500 F210.000 
G1 X69.665 Y83.643 Z-6.500 F300.000 
G1 X69.665 Y78.143 Z-12.000 F210.000 
G1 X69.665 Y38.284 Z-12.000 F300.000 
G1 X69.665 Y32.784 Z-6.500 F210.000 
G1 X69.665 Y28.604 Z-6.500 F300.000 
G1 X69.665 Y23.104 Z-12.000 F210.000 
G1 X69.665 Y3.995 Z-12.000 F300.000 
G2 X63.587 Y-2.320 Z-12.000 I-6.329 J0.009 F300.000 
G1 X3.175 Y-2.330 Z-12.000 F300.000 
G2 X-3.140 Y3.748 Z-12.000 I0.009 J6.329 F300.000 
G1 X-3.142 Y22.858 Z-12.000 F300.000 
G1 X-3.142 Y28.358 Z-6.500 F210.000 
G1 X-3.143 Y32.538 Z-6.500 F300.000 
G1 X-3.143 Y38.038 Z-12.000 F210.000 
G1 X-3.147 Y77.899 Z-12.000 F300.000 
G1 X-3.147 Y83.399 Z-6.500 F210.000 
G1 X-3.148 Y87.579 Z-6.500 F300.000 
G1 X-3.148 Y93.079 Z-12.000 F210.000 
G1 X-3.150 Y112.190 Z-12.000 F300.000 
G2 X3.170 Y118.510 Z-12.000 I6.332 J-0.012 F300.000 
G1 X63.340 Y118.510 Z-12.000 F300.000 
G2 X67.809 Y116.654 Z-12.000 I-0.012 J-6.337 F300.000 
G1 X67.809 Y116.654 Z-13.000 F120.000 
G2 X69.665 Y112.185 Z-13.000 I-4.481 J-4.481 F300.000 
G1 X69.665 Y94.323 Z-13.000 F300.000 
G1 X69.665 Y87.823 Z-6.500 F210.000 
G1 X69.665 Y83.643 Z-6.500 F300.000 
G1 X69.665 Y77.143 Z-13.000 F210.000 
G1 X69.665 Y39.284 Z-13.000 F300.000 
G1 X69.665 Y32.784 Z-6.500 F210.000 
G1 X69.665 Y28.604 Z-6.500 F300.000 
G1 X69.665 Y22.104 Z-13.000 F210.000 
G1 X69.665 Y3.995 Z-13.000 F300.000 
G2 X63.587 Y-2.320 Z-13.000 I-6.329 J0.009 F300.000 
G1 X3.175 Y-2.330 Z-13.000 F300.000 
G2 X-3.140 Y3.748 Z-13.000 I0.009 J6.329 F300.000 
G1 X-3.142 Y21.858 Z-13.000 F300.000 
G1 X-3.142 Y28.358 Z-6.500 F210.000 
G1 X-3.143 Y32.538 Z-6.500 F300.000 
G1 X-3.143 Y39.038 Z-13.000 F210.000 
G1 X-3.147 Y76.899 Z-13.000 F300.000 
G1 X-3.147 Y83.399 Z-6.500 F210.000 
G1 X-3.148 Y87.579 Z-6.500 F300.000 
G1 X-3.148 Y94.079 Z-13.000 F210.000 
G1 X-3.150 Y112.190 Z-13.000 F300.000 
G2 X3.170 Y118.510 Z-13.000 I6.332 J-0.012 F300.000 
G1 X63.340 Y118.510 Z-13.000 F300.000 
G2 X67.809 Y116.654 Z-13.000 I-0.012 J-6.337 F300.000 
G0 X67.809 Y116.654 Z5.000 
(finish operation: DressupTag)
(begin postamble)
M05
G17 G54 G90 G80 G40
M2
