(Exported by FreeCAD)
(Post Processor: linuxcnc_post)
(Output Time:2024-07-19 17:02:23.318037)
(begin preamble)
G17 G54 G40 G49 G80 G90
G21
(begin operation: Fixture)
(machine units: mm/min)
G54 
(finish operation: Fixture)
(begin operation: TC: 3.1mm_Ball_End)
(machine units: mm/min)
(TC: 3.1mm_Ball_End) 
M5
M6 T11 
G43 H11 
M3 S100 
(finish operation: TC: 3.1mm_Ball_End)
(begin operation: Profile002)
(machine units: mm/min)
(Profile002) 
(Compensated Tool Path. Diameter: 3.1) 
G0 Z5.000 
G0 X31.137 Y26.846 
G0 X31.142 Y26.838 
G0 X31.142 Y26.838 Z3.000 
G1 X31.142 Y26.838 Z-3.100 F120.000 
G2 X31.092 Y26.814 Z-3.100 I-0.025 J-0.012 F300.000 
G2 X31.105 Y26.851 Z-3.100 I0.025 J0.012 F300.000 
G2 X31.142 Y26.838 Z-3.100 I0.012 J-0.025 F300.000 
G1 X31.142 Y26.838 Z-6.200 F120.000 
G2 X31.092 Y26.814 Z-6.200 I-0.025 J-0.012 F300.000 
G2 X31.105 Y26.851 Z-6.200 I0.025 J0.012 F300.000 
G2 X31.142 Y26.838 Z-6.200 I0.012 J-0.025 F300.000 
G1 X31.142 Y26.838 Z-9.300 F120.000 
G2 X31.092 Y26.814 Z-9.300 I-0.025 J-0.012 F300.000 
G2 X31.105 Y26.851 Z-9.300 I0.025 J0.012 F300.000 
G2 X31.142 Y26.838 Z-9.300 I0.012 J-0.025 F300.000 
G1 X31.142 Y26.838 Z-12.400 F120.000 
G2 X31.092 Y26.814 Z-12.400 I-0.025 J-0.012 F300.000 
G2 X31.105 Y26.851 Z-12.400 I0.025 J0.012 F300.000 
G2 X31.142 Y26.838 Z-12.400 I0.012 J-0.025 F300.000 
G1 X31.142 Y26.838 Z-14.000 F120.000 
G2 X31.092 Y26.814 Z-14.000 I-0.025 J-0.012 F300.000 
G2 X31.105 Y26.851 Z-14.000 I0.025 J0.012 F300.000 
G2 X31.142 Y26.838 Z-14.000 I0.012 J-0.025 F300.000 
G0 Z5.000 
G0 Z5.000 
G0 X31.142 Y26.838 
G0 X51.115 Y68.951 
G0 X51.115 Y68.951 Z3.000 
G1 X51.115 Y68.951 Z-3.100 F120.000 
G2 X51.115 Y69.001 Z-3.100 I0.012 J0.025 F300.000 
G2 X51.139 Y68.951 Z-3.100 I0.012 J-0.025 F300.000 
G2 X51.115 Y68.951 Z-3.100 I-0.012 J0.025 F300.000 
G1 X51.115 Y68.951 Z-6.200 F120.000 
G2 X51.115 Y69.001 Z-6.200 I0.012 J0.025 F300.000 
G2 X51.139 Y68.951 Z-6.200 I0.012 J-0.025 F300.000 
G2 X51.115 Y68.951 Z-6.200 I-0.012 J0.025 F300.000 
G1 X51.115 Y68.951 Z-9.300 F120.000 
G2 X51.115 Y69.001 Z-9.300 I0.012 J0.025 F300.000 
G2 X51.139 Y68.951 Z-9.300 I0.012 J-0.025 F300.000 
G2 X51.115 Y68.951 Z-9.300 I-0.012 J0.025 F300.000 
G1 X51.115 Y68.951 Z-12.400 F120.000 
G2 X51.115 Y69.001 Z-12.400 I0.012 J0.025 F300.000 
G2 X51.139 Y68.951 Z-12.400 I0.012 J-0.025 F300.000 
G2 X51.115 Y68.951 Z-12.400 I-0.012 J0.025 F300.000 
G1 X51.115 Y68.951 Z-14.000 F120.000 
G2 X51.115 Y69.001 Z-14.000 I0.012 J0.025 F300.000 
G2 X51.139 Y68.951 Z-14.000 I0.012 J-0.025 F300.000 
G2 X51.115 Y68.951 Z-14.000 I-0.012 J0.025 F300.000 
G0 Z5.000 
G0 Z5.000 
G0 X51.115 Y68.951 
G0 X92.462 Y6.709 
G0 X92.462 Y6.709 Z3.000 
G1 X92.462 Y6.709 Z-3.100 F120.000 
G2 X92.502 Y6.698 Z-3.100 I0.015 J-0.023 F300.000 
G2 X92.452 Y6.674 Z-3.100 I-0.025 J-0.012 F300.000 
G2 X92.462 Y6.709 Z-3.100 I0.025 J0.012 F300.000 
G1 X92.462 Y6.709 Z-6.200 F120.000 
G2 X92.502 Y6.698 Z-6.200 I0.015 J-0.023 F300.000 
G2 X92.452 Y6.674 Z-6.200 I-0.025 J-0.012 F300.000 
G2 X92.462 Y6.709 Z-6.200 I0.025 J0.012 F300.000 
G1 X92.462 Y6.709 Z-9.300 F120.000 
G2 X92.502 Y6.698 Z-9.300 I0.015 J-0.023 F300.000 
G2 X92.452 Y6.674 Z-9.300 I-0.025 J-0.012 F300.000 
G2 X92.462 Y6.709 Z-9.300 I0.025 J0.012 F300.000 
G1 X92.462 Y6.709 Z-12.400 F120.000 
G2 X92.502 Y6.698 Z-12.400 I0.015 J-0.023 F300.000 
G2 X92.452 Y6.674 Z-12.400 I-0.025 J-0.012 F300.000 
G2 X92.462 Y6.709 Z-12.400 I0.025 J0.012 F300.000 
G1 X92.462 Y6.709 Z-14.000 F120.000 
G2 X92.502 Y6.698 Z-14.000 I0.015 J-0.023 F300.000 
G2 X92.452 Y6.674 Z-14.000 I-0.025 J-0.012 F300.000 
G2 X92.462 Y6.709 Z-14.000 I0.025 J0.012 F300.000 
G0 Z5.000 
G0 Z5.000 
G0 X92.462 Y6.709 
G0 X138.264 Y38.160 
G0 X138.264 Y38.160 Z3.000 
G1 X138.264 Y38.160 Z-3.100 F120.000 
G2 X138.275 Y38.201 Z-3.100 I0.023 J0.016 F300.000 
G2 X138.299 Y38.151 Z-3.100 I0.012 J-0.025 F300.000 
G2 X138.264 Y38.160 Z-3.100 I-0.012 J0.025 F300.000 
G1 X138.264 Y38.160 Z-6.200 F120.000 
G2 X138.275 Y38.201 Z-6.200 I0.023 J0.016 F300.000 
G2 X138.299 Y38.151 Z-6.200 I0.012 J-0.025 F300.000 
G2 X138.264 Y38.160 Z-6.200 I-0.012 J0.025 F300.000 
G1 X138.264 Y38.160 Z-9.300 F120.000 
G2 X138.275 Y38.201 Z-9.300 I0.023 J0.016 F300.000 
G2 X138.299 Y38.151 Z-9.300 I0.012 J-0.025 F300.000 
G2 X138.264 Y38.160 Z-9.300 I-0.012 J0.025 F300.000 
G1 X138.264 Y38.160 Z-12.400 F120.000 
G2 X138.275 Y38.201 Z-12.400 I0.023 J0.016 F300.000 
G2 X138.299 Y38.151 Z-12.400 I0.012 J-0.025 F300.000 
G2 X138.264 Y38.160 Z-12.400 I-0.012 J0.025 F300.000 
G1 X138.264 Y38.160 Z-14.000 F120.000 
G2 X138.275 Y38.201 Z-14.000 I0.023 J0.016 F300.000 
G2 X138.299 Y38.151 Z-14.000 I0.012 J-0.025 F300.000 
G2 X138.264 Y38.160 Z-14.000 I-0.012 J0.025 F300.000 
G0 Z5.000 
G0 Z5.000 
(finish operation: Profile002)
(begin postamble)
M05
G17 G54 G90 G80 G40
M2
