(Exported by FreeCAD)
(Post Processor: linuxcnc_post)
(Output Time:2024-07-19 19:05:52.415541)
(begin preamble)
G17 G54 G40 G49 G80 G90
G21
(begin operation: Fixture)
(machine units: mm/min)
G54 
(finish operation: Fixture)
(begin operation: TC: 3.1mm_Ball_End)
(machine units: mm/min)
(TC: 3.1mm_Ball_End) 
M5
M6 T11 
G43 H11 
M3 S600 
(finish operation: TC: 3.1mm_Ball_End)
(begin operation: holes)
(machine units: mm/min)
(holes) 
(Compensated Tool Path. Diameter: 3.1) 
G0 Z6.000 
G0 X14.546 Y29.876 
G0 Z4.000 
G1 X14.546 Y29.876 Z-3.000 F120.000 
G2 X13.901 Y27.189 Z-3.000 I-1.146 J-1.146 F300.000 
G2 X12.899 Y30.271 Z-3.000 I-0.501 J1.541 F300.000 
G2 X14.546 Y29.876 Z-3.000 I0.501 J-1.541 F300.000 
G1 X14.546 Y29.876 Z-6.000 F120.000 
G2 X13.901 Y27.189 Z-6.000 I-1.146 J-1.146 F300.000 
G2 X12.899 Y30.271 Z-6.000 I-0.501 J1.541 F300.000 
G2 X14.546 Y29.876 Z-6.000 I0.501 J-1.541 F300.000 
G1 X14.546 Y29.876 Z-9.000 F120.000 
G2 X13.901 Y27.189 Z-9.000 I-1.146 J-1.146 F300.000 
G2 X12.899 Y30.271 Z-9.000 I-0.501 J1.541 F300.000 
G2 X14.546 Y29.876 Z-9.000 I0.501 J-1.541 F300.000 
G1 X14.546 Y29.876 Z-12.000 F120.000 
G2 X13.901 Y27.189 Z-12.000 I-1.146 J-1.146 F300.000 
G2 X12.899 Y30.271 Z-12.000 I-0.501 J1.541 F300.000 
G2 X14.546 Y29.876 Z-12.000 I0.501 J-1.541 F300.000 
G1 X14.546 Y29.876 Z-14.000 F120.000 
G2 X13.901 Y27.189 Z-14.000 I-1.146 J-1.146 F300.000 
G2 X12.899 Y30.271 Z-14.000 I-0.501 J1.541 F300.000 
G2 X14.546 Y29.876 Z-14.000 I0.501 J-1.541 F300.000 
G0 Z6.000 
G0 Z6.000 
G0 X14.546 Y29.876 
G0 X12.260 Y416.880 
G0 X12.260 Y416.880 Z4.000 
G1 X12.260 Y416.880 Z-3.000 F120.000 
G2 X10.709 Y417.999 Z-3.000 I-0.010 J1.620 F300.000 
G2 X13.791 Y419.001 Z-3.000 I1.541 J0.501 F300.000 
G2 X12.260 Y416.880 Z-3.000 I-1.541 J-0.501 F300.000 
G1 X12.260 Y416.880 Z-6.000 F120.000 
G2 X10.709 Y417.999 Z-6.000 I-0.010 J1.620 F300.000 
G2 X13.791 Y419.001 Z-6.000 I1.541 J0.501 F300.000 
G2 X12.260 Y416.880 Z-6.000 I-1.541 J-0.501 F300.000 
G1 X12.260 Y416.880 Z-9.000 F120.000 
G2 X10.709 Y417.999 Z-9.000 I-0.010 J1.620 F300.000 
G2 X13.791 Y419.001 Z-9.000 I1.541 J0.501 F300.000 
G2 X12.260 Y416.880 Z-9.000 I-1.541 J-0.501 F300.000 
G1 X12.260 Y416.880 Z-12.000 F120.000 
G2 X10.709 Y417.999 Z-12.000 I-0.010 J1.620 F300.000 
G2 X13.791 Y419.001 Z-12.000 I1.541 J0.501 F300.000 
G2 X12.260 Y416.880 Z-12.000 I-1.541 J-0.501 F300.000 
G1 X12.260 Y416.880 Z-14.000 F120.000 
G2 X10.709 Y417.999 Z-14.000 I-0.010 J1.620 F300.000 
G2 X13.791 Y419.001 Z-14.000 I1.541 J0.501 F300.000 
G2 X12.260 Y416.880 Z-14.000 I-1.541 J-0.501 F300.000 
G0 Z6.000 
G0 Z6.000 
(finish operation: holes)
(begin postamble)
M05
G17 G54 G90 G80 G40
M2
