(Exported by FreeCAD)
(Post Processor: linuxcnc_post)
(Output Time:2024-07-19 15:34:04.582274)
(begin preamble)
G17 G54 G40 G49 G80 G90
G21
(begin operation: Fixture)
(machine units: mm/min)
G54 
(finish operation: Fixture)
(begin operation: TC: 6.3mm_Endmill002)
(machine units: mm/min)
(TC: 6.3mm_Endmill002) 
M5
M6 T10 
G43 H10 
M3 S600 
(finish operation: TC: 6.3mm_Endmill002)
(begin operation: DressupTag)
(machine units: mm/min)
G0 Z5.000 
G0 X68.806 Y116.835 Z5.000 
G0 X68.806 Y116.835 Z3.000 
G1 X68.806 Y116.835 Z-3.000 F120.000 
G2 X70.663 Y112.366 Z-3.000 I-4.481 J-4.481 F300.000 
G1 X70.662 Y4.176 Z-3.000 F300.000 
G2 X64.585 Y-2.139 Z-3.000 I-6.329 J0.009 F300.000 
G1 X4.175 Y-2.149 Z-3.000 F300.000 
G2 X-2.150 Y4.176 Z-3.000 I0.012 J6.337 F300.000 
G1 X-2.150 Y112.371 Z-3.000 F300.000 
G2 X4.170 Y118.691 Z-3.000 I6.332 J-0.012 F300.000 
G1 X64.337 Y118.691 Z-3.000 F300.000 
G2 X68.806 Y116.835 Z-3.000 I-0.012 J-6.337 F300.000 
G1 X68.806 Y116.835 Z-6.000 F120.000 
G2 X70.663 Y112.366 Z-6.000 I-4.481 J-4.481 F300.000 
G1 X70.662 Y4.176 Z-6.000 F300.000 
G2 X64.585 Y-2.139 Z-6.000 I-6.329 J0.009 F300.000 
G1 X4.175 Y-2.149 Z-6.000 F300.000 
G2 X-2.150 Y4.176 Z-6.000 I0.012 J6.337 F300.000 
G1 X-2.150 Y112.371 Z-6.000 F300.000 
G2 X4.170 Y118.691 Z-6.000 I6.332 J-0.012 F300.000 
G1 X64.337 Y118.691 Z-6.000 F300.000 
G2 X68.806 Y116.835 Z-6.000 I-0.012 J-6.337 F300.000 
G1 X68.806 Y116.835 Z-9.000 F120.000 
G2 X70.663 Y112.366 Z-9.000 I-4.481 J-4.481 F300.000 
G1 X70.662 Y88.809 Z-9.000 F300.000 
G1 X70.662 Y86.809 Z-7.000 F210.000 
G1 X70.662 Y83.829 Z-7.000 F300.000 
G1 X70.662 Y81.829 Z-9.000 F210.000 
G1 X70.662 Y34.714 Z-9.000 F300.000 
G1 X70.662 Y32.714 Z-7.000 F210.000 
G1 X70.662 Y29.734 Z-7.000 F300.000 
G1 X70.662 Y27.734 Z-9.000 F210.000 
G1 X70.662 Y4.176 Z-9.000 F300.000 
G2 X64.585 Y-2.139 Z-9.000 I-6.329 J0.009 F300.000 
G1 X4.175 Y-2.149 Z-9.000 F300.000 
G2 X-2.150 Y4.176 Z-9.000 I0.012 J6.337 F300.000 
G1 X-2.150 Y27.735 Z-9.000 F300.000 
G1 X-2.150 Y29.735 Z-7.000 F210.000 
G1 X-2.150 Y32.715 Z-7.000 F300.000 
G1 X-2.150 Y34.715 Z-9.000 F210.000 
G1 X-2.150 Y81.832 Z-9.000 F300.000 
G1 X-2.150 Y83.832 Z-7.000 F210.000 
G1 X-2.150 Y86.812 Z-7.000 F300.000 
G1 X-2.150 Y88.813 Z-9.000 F210.000 
G1 X-2.150 Y112.371 Z-9.000 F300.000 
G2 X4.170 Y118.691 Z-9.000 I6.332 J-0.012 F300.000 
G1 X64.337 Y118.691 Z-9.000 F300.000 
G2 X68.806 Y116.835 Z-9.000 I-0.012 J-6.337 F300.000 
G1 X68.806 Y116.835 Z-12.000 F120.000 
G2 X70.663 Y112.366 Z-12.000 I-4.481 J-4.481 F300.000 
G1 X70.662 Y91.809 Z-12.000 F300.000 
G1 X70.662 Y86.809 Z-7.000 F210.000 
G1 X70.662 Y83.829 Z-7.000 F300.000 
G1 X70.662 Y78.829 Z-12.000 F210.000 
G1 X70.662 Y37.714 Z-12.000 F300.000 
G1 X70.662 Y32.714 Z-7.000 F210.000 
G1 X70.662 Y29.734 Z-7.000 F300.000 
G1 X70.662 Y24.734 Z-12.000 F210.000 
G1 X70.662 Y4.176 Z-12.000 F300.000 
G2 X64.585 Y-2.139 Z-12.000 I-6.329 J0.009 F300.000 
G1 X4.175 Y-2.149 Z-12.000 F300.000 
G2 X-2.150 Y4.176 Z-12.000 I0.012 J6.337 F300.000 
G1 X-2.150 Y24.735 Z-12.000 F300.000 
G1 X-2.150 Y29.735 Z-7.000 F210.000 
G1 X-2.150 Y32.715 Z-7.000 F300.000 
G1 X-2.150 Y37.715 Z-12.000 F210.000 
G1 X-2.150 Y78.832 Z-12.000 F300.000 
G1 X-2.150 Y83.832 Z-7.000 F210.000 
G1 X-2.150 Y86.812 Z-7.000 F300.000 
G1 X-2.150 Y91.813 Z-12.000 F210.000 
G1 X-2.150 Y112.371 Z-12.000 F300.000 
G2 X4.170 Y118.691 Z-12.000 I6.332 J-0.012 F300.000 
G1 X64.337 Y118.691 Z-12.000 F300.000 
G2 X68.806 Y116.835 Z-12.000 I-0.012 J-6.337 F300.000 
G1 X68.806 Y116.835 Z-14.000 F120.000 
G2 X70.663 Y112.366 Z-14.000 I-4.481 J-4.481 F300.000 
G1 X70.662 Y93.809 Z-14.000 F300.000 
G1 X70.662 Y86.809 Z-7.000 F210.000 
G1 X70.662 Y83.829 Z-7.000 F300.000 
G1 X70.662 Y76.829 Z-14.000 F210.000 
G1 X70.662 Y39.714 Z-14.000 F300.000 
G1 X70.662 Y32.714 Z-7.000 F210.000 
G1 X70.662 Y29.734 Z-7.000 F300.000 
G1 X70.662 Y22.734 Z-14.000 F210.000 
G1 X70.662 Y4.176 Z-14.000 F300.000 
G2 X64.585 Y-2.139 Z-14.000 I-6.329 J0.009 F300.000 
G1 X4.175 Y-2.149 Z-14.000 F300.000 
G2 X-2.150 Y4.176 Z-14.000 I0.012 J6.337 F300.000 
G1 X-2.150 Y22.735 Z-14.000 F300.000 
G1 X-2.150 Y29.735 Z-7.000 F210.000 
G1 X-2.150 Y32.715 Z-7.000 F300.000 
G1 X-2.150 Y39.715 Z-14.000 F210.000 
G1 X-2.150 Y76.832 Z-14.000 F300.000 
G1 X-2.150 Y83.832 Z-7.000 F210.000 
G1 X-2.150 Y86.812 Z-7.000 F300.000 
G1 X-2.150 Y93.812 Z-14.000 F210.000 
G1 X-2.150 Y112.371 Z-14.000 F300.000 
G2 X4.170 Y118.691 Z-14.000 I6.332 J-0.012 F300.000 
G1 X64.337 Y118.691 Z-14.000 F300.000 
G2 X68.806 Y116.835 Z-14.000 I-0.012 J-6.337 F300.000 
G0 X68.806 Y116.835 Z5.000 
(finish operation: DressupTag)
(begin postamble)
M05
G17 G54 G90 G80 G40
M2
