(Exported by FreeCAD)
(Post Processor: linuxcnc_post)
(Output Time:2024-07-19 16:10:49.407805)
(begin preamble)
G17 G54 G40 G49 G80 G90
G21
(begin operation: Fixture)
(machine units: mm/min)
G54 
(finish operation: Fixture)
(begin operation: TC: 6.3mm_Endmill001)
(machine units: mm/min)
(TC: 6.3mm_Endmill001) 
M5
M6 T10 
G43 H10 
M3 S600 
(finish operation: TC: 6.3mm_Endmill001)
(begin operation: DressupTag)
(machine units: mm/min)
G0 Z5.000 
G0 X68.813 Y117.655 Z5.000 
G0 X68.813 Y117.655 Z3.000 
G1 X68.813 Y117.655 Z-3.000 F120.000 
G2 X70.660 Y113.432 Z-3.000 I-4.477 J-4.474 F300.000 
G1 X70.670 Y4.995 Z-3.000 F300.000 
G2 X64.592 Y-1.320 Z-3.000 I-6.329 J0.009 F300.000 
G1 X4.175 Y-1.330 Z-3.000 F300.000 
G2 X-2.140 Y4.748 Z-3.000 I0.009 J6.329 F300.000 
G1 X-2.150 Y113.190 Z-3.000 F300.000 
G2 X4.170 Y119.510 Z-3.000 I6.332 J-0.012 F300.000 
G1 X64.345 Y119.510 Z-3.000 F300.000 
G2 X68.813 Y117.655 Z-3.000 I-0.009 J-6.329 F300.000 
G1 X68.813 Y117.655 Z-6.000 F120.000 
G2 X70.660 Y113.432 Z-6.000 I-4.477 J-4.474 F300.000 
G1 X70.670 Y4.995 Z-6.000 F300.000 
G2 X64.592 Y-1.320 Z-6.000 I-6.329 J0.009 F300.000 
G1 X4.175 Y-1.330 Z-6.000 F300.000 
G2 X-2.140 Y4.748 Z-6.000 I0.009 J6.329 F300.000 
G1 X-2.150 Y113.190 Z-6.000 F300.000 
G2 X4.170 Y119.510 Z-6.000 I6.332 J-0.012 F300.000 
G1 X64.345 Y119.510 Z-6.000 F300.000 
G2 X68.813 Y117.655 Z-6.000 I-0.009 J-6.329 F300.000 
G1 X68.813 Y117.655 Z-9.000 F120.000 
G2 X70.660 Y113.432 Z-9.000 I-4.477 J-4.474 F300.000 
G1 X70.662 Y89.823 Z-9.000 F300.000 
G1 X70.663 Y87.823 Z-7.000 F210.000 
G1 X70.663 Y84.823 Z-7.000 F300.000 
G1 X70.663 Y82.823 Z-9.000 F210.000 
G1 X70.667 Y35.604 Z-9.000 F300.000 
G1 X70.667 Y33.604 Z-7.000 F210.000 
G1 X70.668 Y30.604 Z-7.000 F300.000 
G1 X70.668 Y28.604 Z-9.000 F210.000 
G1 X70.670 Y4.995 Z-9.000 F300.000 
G2 X64.592 Y-1.320 Z-9.000 I-6.329 J0.009 F300.000 
G1 X4.175 Y-1.330 Z-9.000 F300.000 
G2 X-2.140 Y4.748 Z-9.000 I0.009 J6.329 F300.000 
G1 X-2.142 Y28.358 Z-9.000 F300.000 
G1 X-2.143 Y30.358 Z-7.000 F210.000 
G1 X-2.143 Y33.358 Z-7.000 F300.000 
G1 X-2.143 Y35.358 Z-9.000 F210.000 
G1 X-2.147 Y82.579 Z-9.000 F300.000 
G1 X-2.147 Y84.579 Z-7.000 F210.000 
G1 X-2.148 Y87.579 Z-7.000 F300.000 
G1 X-2.148 Y89.579 Z-9.000 F210.000 
G1 X-2.150 Y113.190 Z-9.000 F300.000 
G2 X4.170 Y119.510 Z-9.000 I6.332 J-0.012 F300.000 
G1 X64.345 Y119.510 Z-9.000 F300.000 
G2 X68.813 Y117.655 Z-9.000 I-0.009 J-6.329 F300.000 
G1 X68.813 Y117.655 Z-12.000 F120.000 
G2 X70.660 Y113.432 Z-12.000 I-4.477 J-4.474 F300.000 
G1 X70.662 Y92.823 Z-12.000 F300.000 
G1 X70.663 Y87.823 Z-7.000 F210.000 
G1 X70.663 Y84.823 Z-7.000 F300.000 
G1 X70.663 Y79.823 Z-12.000 F210.000 
G1 X70.667 Y38.604 Z-12.000 F300.000 
G1 X70.667 Y33.604 Z-7.000 F210.000 
G1 X70.668 Y30.604 Z-7.000 F300.000 
G1 X70.668 Y25.604 Z-12.000 F210.000 
G1 X70.670 Y4.995 Z-12.000 F300.000 
G2 X64.592 Y-1.320 Z-12.000 I-6.329 J0.009 F300.000 
G1 X4.175 Y-1.330 Z-12.000 F300.000 
G2 X-2.140 Y4.748 Z-12.000 I0.009 J6.329 F300.000 
G1 X-2.142 Y25.358 Z-12.000 F300.000 
G1 X-2.143 Y30.358 Z-7.000 F210.000 
G1 X-2.143 Y33.358 Z-7.000 F300.000 
G1 X-2.143 Y38.358 Z-12.000 F210.000 
G1 X-2.147 Y79.579 Z-12.000 F300.000 
G1 X-2.147 Y84.579 Z-7.000 F210.000 
G1 X-2.148 Y87.579 Z-7.000 F300.000 
G1 X-2.148 Y92.579 Z-12.000 F210.000 
G1 X-2.150 Y113.190 Z-12.000 F300.000 
G2 X4.170 Y119.510 Z-12.000 I6.332 J-0.012 F300.000 
G1 X64.345 Y119.510 Z-12.000 F300.000 
G2 X68.813 Y117.655 Z-12.000 I-0.009 J-6.329 F300.000 
G1 X68.813 Y117.655 Z-14.000 F120.000 
G2 X70.660 Y113.432 Z-14.000 I-4.477 J-4.474 F300.000 
G1 X70.662 Y94.823 Z-14.000 F300.000 
G1 X70.663 Y87.823 Z-7.000 F210.000 
G1 X70.663 Y84.823 Z-7.000 F300.000 
G1 X70.663 Y77.823 Z-14.000 F210.000 
G1 X70.667 Y40.604 Z-14.000 F300.000 
G1 X70.667 Y33.604 Z-7.000 F210.000 
G1 X70.668 Y30.604 Z-7.000 F300.000 
G1 X70.668 Y23.604 Z-14.000 F210.000 
G1 X70.670 Y4.995 Z-14.000 F300.000 
G2 X64.592 Y-1.320 Z-14.000 I-6.329 J0.009 F300.000 
G1 X4.175 Y-1.330 Z-14.000 F300.000 
G2 X-2.140 Y4.748 Z-14.000 I0.009 J6.329 F300.000 
G1 X-2.142 Y23.358 Z-14.000 F300.000 
G1 X-2.143 Y30.358 Z-7.000 F210.000 
G1 X-2.143 Y33.358 Z-7.000 F300.000 
G1 X-2.143 Y40.358 Z-14.000 F210.000 
G1 X-2.147 Y77.579 Z-14.000 F300.000 
G1 X-2.147 Y84.579 Z-7.000 F210.000 
G1 X-2.148 Y87.579 Z-7.000 F300.000 
G1 X-2.148 Y94.579 Z-14.000 F210.000 
G1 X-2.150 Y113.190 Z-14.000 F300.000 
G2 X4.170 Y119.510 Z-14.000 I6.332 J-0.012 F300.000 
G1 X64.345 Y119.510 Z-14.000 F300.000 
G2 X68.813 Y117.655 Z-14.000 I-0.009 J-6.329 F300.000 
G0 X68.813 Y117.655 Z5.000 
(finish operation: DressupTag)
(begin postamble)
M05
G17 G54 G90 G80 G40
M2
