(Exported by FreeCAD)
(Post Processor: linuxcnc_post)
(Output Time:2024-07-19 16:56:50.334863)
(begin preamble)
G17 G54 G40 G49 G80 G90
G21
(begin operation: Fixture)
(machine units: mm/min)
G54 
(finish operation: Fixture)
(begin operation: TC: 6.3mm_Endmill001)
(machine units: mm/min)
(TC: 6.3mm_Endmill001) 
M5
M6 T10 
G43 H10 
M3 S100 
(finish operation: TC: 6.3mm_Endmill001)
(begin operation: DressupTag)
(machine units: mm/min)
G0 Z5.000 
G0 X138.400 Y72.802 Z5.000 
G0 X138.400 Y72.802 Z3.000 
G1 X138.400 Y72.802 Z-3.000 F120.000 
G2 X145.367 Y56.083 Z-3.000 I-16.821 J-16.820 F300.000 
G1 X145.368 Y20.638 Z-3.000 F300.000 
G2 X121.676 Y-3.149 Z-3.000 I-23.788 J0.002 F300.000 
G1 X61.221 Y-3.150 Z-3.000 F300.000 
G2 X45.700 Y2.613 Z-3.000 I0.006 J23.796 F300.000 
G1 X4.909 Y38.018 Z-3.000 F300.000 
G2 X20.414 Y79.768 Z-3.000 I15.594 J17.963 F300.000 
G1 X121.581 Y79.770 Z-3.000 F300.000 
G2 X138.400 Y72.802 Z-3.000 I-0.002 J-23.788 F300.000 
G1 X138.400 Y72.802 Z-6.000 F120.000 
G2 X145.367 Y56.083 Z-6.000 I-16.821 J-16.820 F300.000 
G1 X145.368 Y20.638 Z-6.000 F300.000 
G2 X121.676 Y-3.149 Z-6.000 I-23.788 J0.002 F300.000 
G1 X61.221 Y-3.150 Z-6.000 F300.000 
G2 X45.700 Y2.613 Z-6.000 I0.006 J23.796 F300.000 
G1 X4.909 Y38.018 Z-6.000 F300.000 
G2 X20.414 Y79.768 Z-6.000 I15.594 J17.963 F300.000 
G1 X121.581 Y79.770 Z-6.000 F300.000 
G2 X138.400 Y72.802 Z-6.000 I-0.002 J-23.788 F300.000 
G1 X138.400 Y72.802 Z-9.000 F120.000 
G2 X145.367 Y56.083 Z-9.000 I-16.821 J-16.820 F300.000 
G1 X145.367 Y42.795 Z-9.000 F300.000 
G1 X145.368 Y40.795 Z-7.000 F210.000 
G1 X145.368 Y38.525 Z-7.000 F300.000 
G1 X145.368 Y36.525 Z-9.000 F210.000 
G1 X145.368 Y20.638 Z-9.000 F300.000 
G2 X121.676 Y-3.149 Z-9.000 I-23.788 J0.002 F300.000 
G1 X61.221 Y-3.150 Z-9.000 F300.000 
G2 X45.700 Y2.613 Z-9.000 I0.006 J23.796 F300.000 
G1 X4.909 Y38.018 Z-9.000 F300.000 
G2 X20.414 Y79.768 Z-9.000 I15.594 J17.963 F300.000 
G1 X121.581 Y79.770 Z-9.000 F300.000 
G2 X138.400 Y72.802 Z-9.000 I-0.002 J-23.788 F300.000 
G1 X138.400 Y72.802 Z-12.000 F120.000 
G2 X145.367 Y56.083 Z-12.000 I-16.821 J-16.820 F300.000 
G1 X145.367 Y45.795 Z-12.000 F300.000 
G1 X145.368 Y40.795 Z-7.000 F210.000 
G1 X145.368 Y38.525 Z-7.000 F300.000 
G1 X145.368 Y33.525 Z-12.000 F210.000 
G1 X145.368 Y20.638 Z-12.000 F300.000 
G2 X121.676 Y-3.149 Z-12.000 I-23.788 J0.002 F300.000 
G1 X61.221 Y-3.150 Z-12.000 F300.000 
G2 X45.700 Y2.613 Z-12.000 I0.006 J23.796 F300.000 
G1 X4.909 Y38.018 Z-12.000 F300.000 
G2 X20.414 Y79.768 Z-12.000 I15.594 J17.963 F300.000 
G1 X121.581 Y79.770 Z-12.000 F300.000 
G2 X138.400 Y72.802 Z-12.000 I-0.002 J-23.788 F300.000 
G1 X138.400 Y72.802 Z-14.000 F120.000 
G2 X145.367 Y56.083 Z-14.000 I-16.821 J-16.820 F300.000 
G1 X145.367 Y47.795 Z-14.000 F300.000 
G1 X145.368 Y40.795 Z-7.000 F210.000 
G1 X145.368 Y38.525 Z-7.000 F300.000 
G1 X145.368 Y31.525 Z-14.000 F210.000 
G1 X145.368 Y20.638 Z-14.000 F300.000 
G2 X121.676 Y-3.149 Z-14.000 I-23.788 J0.002 F300.000 
G1 X61.221 Y-3.150 Z-14.000 F300.000 
G2 X45.700 Y2.613 Z-14.000 I0.006 J23.796 F300.000 
G1 X4.909 Y38.018 Z-14.000 F300.000 
G2 X20.414 Y79.768 Z-14.000 I15.594 J17.963 F300.000 
G1 X121.581 Y79.770 Z-14.000 F300.000 
G2 X138.400 Y72.802 Z-14.000 I-0.002 J-23.788 F300.000 
G0 X138.400 Y72.802 Z5.000 
(finish operation: DressupTag)
(begin postamble)
M05
G17 G54 G90 G80 G40
M2
