(Exported by FreeCAD)
(Post Processor: linuxcnc_post)
(Output Time:2024-07-19 19:05:27.683273)
(begin preamble)
G17 G54 G40 G49 G80 G90
G21
(begin operation: Fixture)
(machine units: mm/min)
G54 
(finish operation: Fixture)
(begin operation: TC: 6.3mm_Endmill001)
(machine units: mm/min)
(TC: 6.3mm_Endmill001) 
M5
M6 T10 
G43 H10 
M3 S600 
(finish operation: TC: 6.3mm_Endmill001)
(begin operation: DressupTag)
(machine units: mm/min)
G0 Z6.000 
G0 X24.987 Y567.207 Z6.000 
G0 X24.987 Y567.207 Z4.000 
G1 X24.987 Y567.207 Z-6.300 F120.000 
G2 X25.910 Y564.980 Z-6.300 I-2.227 J-2.227 F300.000 
G1 X25.910 Y1.000 Z-6.300 F300.000 
G2 X23.796 Y-1.975 Z-6.300 I-3.150 J0.000 F300.000 
G2 X21.849 Y-2.015 Z-6.300 I-1.036 J2.975 F300.000 
G2 X15.495 Y1.543 Z-6.300 I12.906 J30.499 F300.000 
G2 X3.919 Y15.548 Z-6.300 I18.909 J27.416 F300.000 
G2 X0.752 Y28.112 Z-6.300 I38.842 J16.473 F300.000 
G1 X0.730 Y28.456 Z-6.300 F300.000 
G1 X-2.149 Y409.319 Z-6.300 F300.000 
G2 X-2.209 Y412.890 Z-6.300 I45.707 J2.548 F300.000 
G2 X-1.585 Y424.115 Z-6.300 I246.620 J-8.076 F300.000 
G2 X3.912 Y474.876 Z-6.300 I830.633 J-64.279 F300.000 
G2 X5.542 Y484.571 Z-6.300 I144.354 J-19.283 F300.000 
G1 X19.657 Y565.521 Z-6.300 F300.000 
G2 X24.987 Y567.207 Z-6.300 I3.103 J-0.541 F300.000 
G1 X24.987 Y567.207 Z-12.600 F120.000 
G2 X25.910 Y564.980 Z-12.600 I-2.227 J-2.227 F300.000 
G1 X25.910 Y533.655 Z-12.600 F300.000 
G1 X25.910 Y528.555 Z-7.500 F210.000 
G1 X25.910 Y525.385 Z-7.500 F300.000 
G1 X25.910 Y520.285 Z-12.600 F210.000 
G1 X25.910 Y258.595 Z-12.600 F300.000 
G1 X25.910 Y253.495 Z-7.500 F210.000 
G1 X25.910 Y250.325 Z-7.500 F300.000 
G1 X25.910 Y245.225 Z-12.600 F210.000 
G1 X25.910 Y29.935 Z-12.600 F300.000 
G1 X25.910 Y24.835 Z-7.500 F210.000 
G1 X25.910 Y21.665 Z-7.500 F300.000 
G1 X25.910 Y16.565 Z-12.600 F210.000 
G1 X25.910 Y1.000 Z-12.600 F300.000 
G2 X23.796 Y-1.975 Z-12.600 I-3.150 J0.000 F300.000 
G2 X21.849 Y-2.015 Z-12.600 I-1.036 J2.975 F300.000 
G2 X15.495 Y1.543 Z-12.600 I12.906 J30.499 F300.000 
G2 X3.919 Y15.548 Z-12.600 I18.909 J27.416 F300.000 
G2 X0.752 Y28.112 Z-12.600 I38.842 J16.473 F300.000 
G1 X0.730 Y28.456 Z-12.600 F300.000 
G1 X0.226 Y95.065 Z-12.600 F300.000 
G1 X0.188 Y100.165 Z-7.500 F210.000 
G1 X0.164 Y103.335 Z-7.500 F300.000 
G1 X0.125 Y108.435 Z-12.600 F210.000 
G1 X-1.062 Y265.515 Z-12.600 F300.000 
G1 X-1.101 Y270.615 Z-7.500 F210.000 
G1 X-1.125 Y273.785 Z-7.500 F300.000 
G1 X-1.163 Y278.885 Z-12.600 F210.000 
G1 X-2.149 Y409.319 Z-12.600 F300.000 
G2 X-2.209 Y412.890 Z-12.600 I45.707 J2.548 F300.000 
G2 X-1.585 Y424.115 Z-12.600 I246.620 J-8.076 F300.000 
G2 X0.082 Y442.891 Z-12.600 I830.633 J-64.279 F300.000 
G1 X0.606 Y447.964 Z-7.500 F210.000 
G2 X0.947 Y451.115 Z-7.500 I828.442 J-88.128 F300.000 
G1 X1.521 Y456.183 Z-12.600 F210.000 
G2 X3.912 Y474.876 Z-12.600 I827.527 J-96.347 F300.000 
G2 X5.542 Y484.571 Z-12.600 I144.354 J-19.283 F300.000 
G1 X19.657 Y565.521 Z-12.600 F300.000 
G2 X24.987 Y567.207 Z-12.600 I3.103 J-0.541 F300.000 
G1 X24.987 Y567.207 Z-14.000 F120.000 
G2 X25.910 Y564.980 Z-14.000 I-2.227 J-2.227 F300.000 
G1 X25.910 Y535.055 Z-14.000 F300.000 
G1 X25.910 Y528.555 Z-7.500 F210.000 
G1 X25.910 Y525.385 Z-7.500 F300.000 
G1 X25.910 Y518.885 Z-14.000 F210.000 
G1 X25.910 Y259.995 Z-14.000 F300.000 
G1 X25.910 Y253.495 Z-7.500 F210.000 
G1 X25.910 Y250.325 Z-7.500 F300.000 
G1 X25.910 Y243.825 Z-14.000 F210.000 
G1 X25.910 Y31.335 Z-14.000 F300.000 
G1 X25.910 Y24.835 Z-7.500 F210.000 
G1 X25.910 Y21.665 Z-7.500 F300.000 
G1 X25.910 Y15.165 Z-14.000 F210.000 
G1 X25.910 Y1.000 Z-14.000 F300.000 
G2 X23.796 Y-1.975 Z-14.000 I-3.150 J0.000 F300.000 
G2 X21.849 Y-2.015 Z-14.000 I-1.036 J2.975 F300.000 
G2 X15.495 Y1.543 Z-14.000 I12.906 J30.499 F300.000 
G2 X3.919 Y15.548 Z-14.000 I18.909 J27.416 F300.000 
G2 X0.752 Y28.112 Z-14.000 I38.842 J16.473 F300.000 
G1 X0.730 Y28.456 Z-14.000 F300.000 
G1 X0.237 Y93.665 Z-14.000 F300.000 
G1 X0.188 Y100.165 Z-7.500 F210.000 
G1 X0.164 Y103.335 Z-7.500 F300.000 
G1 X0.115 Y109.835 Z-14.000 F210.000 
G1 X-1.052 Y264.115 Z-14.000 F300.000 
G1 X-1.101 Y270.615 Z-7.500 F210.000 
G1 X-1.125 Y273.785 Z-7.500 F300.000 
G1 X-1.174 Y280.285 Z-14.000 F210.000 
G1 X-2.149 Y409.319 Z-14.000 F300.000 
G2 X-2.209 Y412.890 Z-14.000 I45.707 J2.548 F300.000 
G2 X-1.585 Y424.115 Z-14.000 I246.620 J-8.076 F300.000 
G2 X-0.057 Y441.497 Z-14.000 I830.633 J-64.279 F300.000 
G1 X0.606 Y447.964 Z-7.500 F210.000 
G2 X0.947 Y451.115 Z-7.500 I828.442 J-88.128 F300.000 
G1 X1.684 Y457.573 Z-14.000 F210.000 
G2 X3.912 Y474.876 Z-14.000 I827.364 J-97.737 F300.000 
G2 X5.542 Y484.571 Z-14.000 I144.354 J-19.283 F300.000 
G1 X19.657 Y565.521 Z-14.000 F300.000 
G2 X24.987 Y567.207 Z-14.000 I3.103 J-0.541 F300.000 
G0 X24.987 Y567.207 Z6.000 
(finish operation: DressupTag)
(begin postamble)
M05
G17 G54 G90 G80 G40
M2
