(Exported by FreeCAD)
(Post Processor: linuxcnc_post)
(Output Time:2024-11-19 20:44:17.226050)
(begin preamble)
G17 G54 G40 G49 G80 G90
G21
(begin operation: Fixture)
(machine units: mm/min)
G54 
(finish operation: Fixture)
(begin operation: TC: 6.3mm_Endmill001)
(machine units: mm/min)
(TC: 6.3mm_Endmill001) 
M5
M6 T10 
G43 H10 
M3 S600 
(finish operation: TC: 6.3mm_Endmill001)
(begin operation: internal carved spaces)
(machine units: mm/min)
(internal carved spaces) 
(Compensated Tool Path. Diameter: 6.3) 
G0 Z4.000 
G0 X542.000 Y49.202 
G0 Y49.202 
G0 Y49.202 Z2.000 
G1 X542.000 Y49.202 Z-4.000 F120.000 
G1 X542.000 Y48.358 Z-4.000 F300.000 
G1 X521.217 Y48.358 Z-4.000 F300.000 
G3 X519.700 Y48.755 Z-4.000 I-1.497 J-2.625 F300.000 
G1 X123.250 Y48.755 Z-4.000 F300.000 
G1 X123.250 Y48.805 Z-4.000 F300.000 
G1 X519.750 Y48.805 Z-4.000 F300.000 
G3 X521.267 Y49.202 Z-4.000 I0.020 J3.022 F300.000 
G1 X542.000 Y49.202 Z-4.000 F300.000 
G1 X542.000 Y49.202 Z-7.000 F120.000 
G1 X542.000 Y48.358 Z-7.000 F300.000 
G1 X521.217 Y48.358 Z-7.000 F300.000 
G3 X519.700 Y48.755 Z-7.000 I-1.497 J-2.625 F300.000 
G1 X123.250 Y48.755 Z-7.000 F300.000 
G1 X123.250 Y48.805 Z-7.000 F300.000 
G1 X519.750 Y48.805 Z-7.000 F300.000 
G3 X521.267 Y49.202 Z-7.000 I0.020 J3.022 F300.000 
G1 X542.000 Y49.202 Z-7.000 F300.000 
G1 X542.000 Y49.202 Z-10.000 F120.000 
G1 X542.000 Y48.358 Z-10.000 F300.000 
G1 X521.217 Y48.358 Z-10.000 F300.000 
G3 X519.700 Y48.755 Z-10.000 I-1.497 J-2.625 F300.000 
G1 X123.250 Y48.755 Z-10.000 F300.000 
G1 X123.250 Y48.805 Z-10.000 F300.000 
G1 X519.750 Y48.805 Z-10.000 F300.000 
G3 X521.267 Y49.202 Z-10.000 I0.020 J3.022 F300.000 
G1 X542.000 Y49.202 Z-10.000 F300.000 
G1 X542.000 Y49.202 Z-13.000 F120.000 
G1 X542.000 Y48.358 Z-13.000 F300.000 
G1 X521.217 Y48.358 Z-13.000 F300.000 
G3 X519.700 Y48.755 Z-13.000 I-1.497 J-2.625 F300.000 
G1 X123.250 Y48.755 Z-13.000 F300.000 
G1 X123.250 Y48.805 Z-13.000 F300.000 
G1 X519.750 Y48.805 Z-13.000 F300.000 
G3 X521.267 Y49.202 Z-13.000 I0.020 J3.022 F300.000 
G1 X542.000 Y49.202 Z-13.000 F300.000 
G1 X542.000 Y49.202 Z-16.000 F120.000 
G1 X542.000 Y48.358 Z-16.000 F300.000 
G1 X521.217 Y48.358 Z-16.000 F300.000 
G3 X519.700 Y48.755 Z-16.000 I-1.497 J-2.625 F300.000 
G1 X123.250 Y48.755 Z-16.000 F300.000 
G1 X123.250 Y48.805 Z-16.000 F300.000 
G1 X519.750 Y48.805 Z-16.000 F300.000 
G3 X521.267 Y49.202 Z-16.000 I0.020 J3.022 F300.000 
G1 X542.000 Y49.202 Z-16.000 F300.000 
G0 Z4.000 
G0 Z4.000 
G0 X542.000 Y49.202 
G0 X553.020 
G0 X553.020 Z2.000 
G1 X553.020 Y49.202 Z-4.000 F120.000 
G1 X553.020 Y53.568 Z-4.000 F300.000 
G1 X584.820 Y53.568 Z-4.000 F300.000 
G1 X584.820 Y43.992 Z-4.000 F300.000 
G1 X553.020 Y43.992 Z-4.000 F300.000 
G1 X553.020 Y49.202 Z-4.000 F300.000 
G1 X553.020 Y49.202 Z-7.000 F120.000 
G1 X553.020 Y53.568 Z-7.000 F300.000 
G1 X584.820 Y53.568 Z-7.000 F300.000 
G1 X584.820 Y43.992 Z-7.000 F300.000 
G1 X553.020 Y43.992 Z-7.000 F300.000 
G1 X553.020 Y49.202 Z-7.000 F300.000 
G1 X553.020 Y49.202 Z-10.000 F120.000 
G1 X553.020 Y53.568 Z-10.000 F300.000 
G1 X584.820 Y53.568 Z-10.000 F300.000 
G1 X584.820 Y43.992 Z-10.000 F300.000 
G1 X553.020 Y43.992 Z-10.000 F300.000 
G1 X553.020 Y49.202 Z-10.000 F300.000 
G1 X553.020 Y49.202 Z-13.000 F120.000 
G1 X553.020 Y53.568 Z-13.000 F300.000 
G1 X584.820 Y53.568 Z-13.000 F300.000 
G1 X584.820 Y43.992 Z-13.000 F300.000 
G1 X553.020 Y43.992 Z-13.000 F300.000 
G1 X553.020 Y49.202 Z-13.000 F300.000 
G1 X553.020 Y49.202 Z-16.000 F120.000 
G1 X553.020 Y53.568 Z-16.000 F300.000 
G1 X584.820 Y53.568 Z-16.000 F300.000 
G1 X584.820 Y43.992 Z-16.000 F300.000 
G1 X553.020 Y43.992 Z-16.000 F300.000 
G1 X553.020 Y49.202 Z-16.000 F300.000 
G0 Z4.000 
G0 Z4.000 
G0 X553.020 Y49.202 
G0 X606.774 Y73.126 
G0 X606.774 Y73.126 Z2.000 
G1 X606.774 Y73.126 Z-4.000 F120.000 
G2 X608.125 Y75.887 Z-4.000 I1.831 J0.815 F300.000 
G2 X609.085 Y71.995 Z-4.000 I0.480 J-1.946 F300.000 
G2 X606.774 Y73.126 Z-4.000 I-0.480 J1.946 F300.000 
G1 X606.774 Y73.126 Z-7.000 F120.000 
G2 X608.125 Y75.887 Z-7.000 I1.831 J0.815 F300.000 
G2 X609.085 Y71.995 Z-7.000 I0.480 J-1.946 F300.000 
G2 X606.774 Y73.126 Z-7.000 I-0.480 J1.946 F300.000 
G1 X606.774 Y73.126 Z-10.000 F120.000 
G2 X608.125 Y75.887 Z-10.000 I1.831 J0.815 F300.000 
G2 X609.085 Y71.995 Z-10.000 I0.480 J-1.946 F300.000 
G2 X606.774 Y73.126 Z-10.000 I-0.480 J1.946 F300.000 
G1 X606.774 Y73.126 Z-13.000 F120.000 
G2 X608.125 Y75.887 Z-13.000 I1.831 J0.815 F300.000 
G2 X609.085 Y71.995 Z-13.000 I0.480 J-1.946 F300.000 
G2 X606.774 Y73.126 Z-13.000 I-0.480 J1.946 F300.000 
G1 X606.774 Y73.126 Z-16.000 F120.000 
G2 X608.125 Y75.887 Z-16.000 I1.831 J0.815 F300.000 
G2 X609.085 Y71.995 Z-16.000 I0.480 J-1.946 F300.000 
G2 X606.774 Y73.126 Z-16.000 I-0.480 J1.946 F300.000 
G0 Z4.000 
G0 Z4.000 
G0 X606.774 Y73.126 
G0 X641.560 Y66.582 
G0 X641.560 Y66.582 Z2.000 
G1 X641.560 Y66.582 Z-4.000 F120.000 
G2 X643.050 Y68.157 Z-4.000 I1.970 J-0.371 F300.000 
G2 X644.010 Y64.265 Z-4.000 I0.480 J-1.946 F300.000 
G2 X641.560 Y66.582 Z-4.000 I-0.480 J1.946 F300.000 
G1 X641.560 Y66.582 Z-7.000 F120.000 
G2 X643.050 Y68.157 Z-7.000 I1.970 J-0.371 F300.000 
G2 X644.010 Y64.265 Z-7.000 I0.480 J-1.946 F300.000 
G2 X641.560 Y66.582 Z-7.000 I-0.480 J1.946 F300.000 
G1 X641.560 Y66.582 Z-10.000 F120.000 
G2 X643.050 Y68.157 Z-10.000 I1.970 J-0.371 F300.000 
G2 X644.010 Y64.265 Z-10.000 I0.480 J-1.946 F300.000 
G2 X641.560 Y66.582 Z-10.000 I-0.480 J1.946 F300.000 
G1 X641.560 Y66.582 Z-13.000 F120.000 
G2 X643.050 Y68.157 Z-13.000 I1.970 J-0.371 F300.000 
G2 X644.010 Y64.265 Z-13.000 I0.480 J-1.946 F300.000 
G2 X641.560 Y66.582 Z-13.000 I-0.480 J1.946 F300.000 
G1 X641.560 Y66.582 Z-16.000 F120.000 
G2 X643.050 Y68.157 Z-16.000 I1.970 J-0.371 F300.000 
G2 X644.010 Y64.265 Z-16.000 I0.480 J-1.946 F300.000 
G2 X641.560 Y66.582 Z-16.000 I-0.480 J1.946 F300.000 
G0 Z4.000 
G0 Z4.000 
G0 X641.560 Y66.582 
G0 X676.462 Y62.788 
G0 X676.462 Y62.788 Z2.000 
G1 X676.462 Y62.788 Z-4.000 F120.000 
G2 X677.975 Y64.517 Z-4.000 I1.993 J-0.217 F300.000 
G2 X678.935 Y60.625 Z-4.000 I0.480 J-1.946 F300.000 
G2 X676.462 Y62.788 Z-4.000 I-0.480 J1.946 F300.000 
G1 X676.462 Y62.788 Z-7.000 F120.000 
G2 X677.975 Y64.517 Z-7.000 I1.993 J-0.217 F300.000 
G2 X678.935 Y60.625 Z-7.000 I0.480 J-1.946 F300.000 
G2 X676.462 Y62.788 Z-7.000 I-0.480 J1.946 F300.000 
G1 X676.462 Y62.788 Z-10.000 F120.000 
G2 X677.975 Y64.517 Z-10.000 I1.993 J-0.217 F300.000 
G2 X678.935 Y60.625 Z-10.000 I0.480 J-1.946 F300.000 
G2 X676.462 Y62.788 Z-10.000 I-0.480 J1.946 F300.000 
G1 X676.462 Y62.788 Z-13.000 F120.000 
G2 X677.975 Y64.517 Z-13.000 I1.993 J-0.217 F300.000 
G2 X678.935 Y60.625 Z-13.000 I0.480 J-1.946 F300.000 
G2 X676.462 Y62.788 Z-13.000 I-0.480 J1.946 F300.000 
G1 X676.462 Y62.788 Z-16.000 F120.000 
G2 X677.975 Y64.517 Z-16.000 I1.993 J-0.217 F300.000 
G2 X678.935 Y60.625 Z-16.000 I0.480 J-1.946 F300.000 
G2 X676.462 Y62.788 Z-16.000 I-0.480 J1.946 F300.000 
G0 Z4.000 
G0 Z4.000 
G0 X676.462 Y62.788 
G0 X678.318 Y35.738 
G0 X678.318 Y35.738 Z2.000 
G1 X678.318 Y35.738 Z-4.000 F120.000 
G2 X678.935 Y31.793 Z-4.000 I0.137 J-2.000 F300.000 
G2 X677.975 Y35.685 Z-4.000 I-0.480 J1.946 F300.000 
G2 X678.318 Y35.738 Z-4.000 I0.480 J-1.946 F300.000 
G1 X678.318 Y35.738 Z-7.000 F120.000 
G2 X678.935 Y31.793 Z-7.000 I0.137 J-2.000 F300.000 
G2 X677.975 Y35.685 Z-7.000 I-0.480 J1.946 F300.000 
G2 X678.318 Y35.738 Z-7.000 I0.480 J-1.946 F300.000 
G1 X678.318 Y35.738 Z-10.000 F120.000 
G2 X678.935 Y31.793 Z-10.000 I0.137 J-2.000 F300.000 
G2 X677.975 Y35.685 Z-10.000 I-0.480 J1.946 F300.000 
G2 X678.318 Y35.738 Z-10.000 I0.480 J-1.946 F300.000 
G1 X678.318 Y35.738 Z-13.000 F120.000 
G2 X678.935 Y31.793 Z-13.000 I0.137 J-2.000 F300.000 
G2 X677.975 Y35.685 Z-13.000 I-0.480 J1.946 F300.000 
G2 X678.318 Y35.738 Z-13.000 I0.480 J-1.946 F300.000 
G1 X678.318 Y35.738 Z-16.000 F120.000 
G2 X678.935 Y31.793 Z-16.000 I0.137 J-2.000 F300.000 
G2 X677.975 Y35.685 Z-16.000 I-0.480 J1.946 F300.000 
G2 X678.318 Y35.738 Z-16.000 I0.480 J-1.946 F300.000 
G0 Z4.000 
G0 Z4.000 
G0 X678.318 Y35.738 
G0 X645.510 Y30.561 
G0 X645.510 Y30.561 Z2.000 
G1 X645.510 Y30.561 Z-4.000 F120.000 
G2 X644.010 Y28.303 Z-4.000 I-1.980 J-0.312 F300.000 
G2 X643.050 Y32.195 Z-4.000 I-0.480 J1.946 F300.000 
G2 X645.510 Y30.561 Z-4.000 I0.480 J-1.946 F300.000 
G1 X645.510 Y30.561 Z-7.000 F120.000 
G2 X644.010 Y28.303 Z-7.000 I-1.980 J-0.312 F300.000 
G2 X643.050 Y32.195 Z-7.000 I-0.480 J1.946 F300.000 
G2 X645.510 Y30.561 Z-7.000 I0.480 J-1.946 F300.000 
G1 X645.510 Y30.561 Z-10.000 F120.000 
G2 X644.010 Y28.303 Z-10.000 I-1.980 J-0.312 F300.000 
G2 X643.050 Y32.195 Z-10.000 I-0.480 J1.946 F300.000 
G2 X645.510 Y30.561 Z-10.000 I0.480 J-1.946 F300.000 
G1 X645.510 Y30.561 Z-13.000 F120.000 
G2 X644.010 Y28.303 Z-13.000 I-1.980 J-0.312 F300.000 
G2 X643.050 Y32.195 Z-13.000 I-0.480 J1.946 F300.000 
G2 X645.510 Y30.561 Z-13.000 I0.480 J-1.946 F300.000 
G1 X645.510 Y30.561 Z-16.000 F120.000 
G2 X644.010 Y28.303 Z-16.000 I-1.980 J-0.312 F300.000 
G2 X643.050 Y32.195 Z-16.000 I-0.480 J1.946 F300.000 
G2 X645.510 Y30.561 Z-16.000 I0.480 J-1.946 F300.000 
G0 Z4.000 
G0 Z4.000 
G0 X645.510 Y30.561 
G0 X610.569 Y23.439 
G0 X610.569 Y23.439 Z2.000 
G1 X610.569 Y23.439 Z-4.000 F120.000 
G2 X609.085 Y21.093 Z-4.000 I-1.964 J-0.400 F300.000 
G2 X608.125 Y24.985 Z-4.000 I-0.480 J1.946 F300.000 
G2 X610.569 Y23.439 Z-4.000 I0.480 J-1.946 F300.000 
G1 X610.569 Y23.439 Z-7.000 F120.000 
G2 X609.085 Y21.093 Z-7.000 I-1.964 J-0.400 F300.000 
G2 X608.125 Y24.985 Z-7.000 I-0.480 J1.946 F300.000 
G2 X610.569 Y23.439 Z-7.000 I0.480 J-1.946 F300.000 
G1 X610.569 Y23.439 Z-10.000 F120.000 
G2 X609.085 Y21.093 Z-10.000 I-1.964 J-0.400 F300.000 
G2 X608.125 Y24.985 Z-10.000 I-0.480 J1.946 F300.000 
G2 X610.569 Y23.439 Z-10.000 I0.480 J-1.946 F300.000 
G1 X610.569 Y23.439 Z-13.000 F120.000 
G2 X609.085 Y21.093 Z-13.000 I-1.964 J-0.400 F300.000 
G2 X608.125 Y24.985 Z-13.000 I-0.480 J1.946 F300.000 
G2 X610.569 Y23.439 Z-13.000 I0.480 J-1.946 F300.000 
G1 X610.569 Y23.439 Z-16.000 F120.000 
G2 X609.085 Y21.093 Z-16.000 I-1.964 J-0.400 F300.000 
G2 X608.125 Y24.985 Z-16.000 I-0.480 J1.946 F300.000 
G2 X610.569 Y23.439 Z-16.000 I0.480 J-1.946 F300.000 
G0 Z4.000 
G0 Z4.000 
(finish operation: internal carved spaces)
(begin postamble)
M05
G17 G54 G90 G80 G40
M2
