(Exported by FreeCAD)
(Post Processor: linuxcnc_post)
(Output Time:2024-07-19 16:00:32.066066)
(begin preamble)
G17 G54 G40 G49 G80 G90
G21
(begin operation: Fixture)
(machine units: mm/min)
G54 
(finish operation: Fixture)
(begin operation: TC: 6.3mm_Endmill002)
(machine units: mm/min)
(TC: 6.3mm_Endmill002) 
M5
M6 T10 
G43 H10 
M3 S600 
(finish operation: TC: 6.3mm_Endmill002)
(begin operation: DressupTag001)
(machine units: mm/min)
G0 Z5.000 
G0 X46.354 Y98.063 Z5.000 
G0 X46.354 Y98.063 Z3.000 
G1 X46.354 Y98.063 Z-3.000 F120.000 
G2 X47.062 Y96.277 Z-3.000 I-1.713 J-1.713 F300.000 
G1 X47.063 Y20.263 Z-3.000 F300.000 
G2 X44.568 Y17.769 Z-3.000 I-2.421 J-0.074 F300.000 
G1 X19.345 Y17.769 Z-3.000 F300.000 
G2 X16.850 Y20.263 Z-3.000 I-0.074 J2.421 F300.000 
G1 X16.850 Y96.277 Z-3.000 F300.000 
G2 X19.345 Y98.771 Z-3.000 I2.421 J0.074 F300.000 
G1 X44.568 Y98.771 Z-3.000 F300.000 
G2 X46.354 Y98.063 Z-3.000 I0.074 J-2.421 F300.000 
G1 X46.354 Y98.063 Z-6.000 F120.000 
G2 X47.062 Y96.277 Z-6.000 I-1.713 J-1.713 F300.000 
G1 X47.063 Y20.263 Z-6.000 F300.000 
G2 X44.568 Y17.769 Z-6.000 I-2.421 J-0.074 F300.000 
G1 X19.345 Y17.769 Z-6.000 F300.000 
G2 X16.850 Y20.263 Z-6.000 I-0.074 J2.421 F300.000 
G1 X16.850 Y96.277 Z-6.000 F300.000 
G2 X19.345 Y98.771 Z-6.000 I2.421 J0.074 F300.000 
G1 X44.568 Y98.771 Z-6.000 F300.000 
G2 X46.354 Y98.063 Z-6.000 I0.074 J-2.421 F300.000 
G1 X46.354 Y98.063 Z-9.000 F120.000 
G2 X47.062 Y96.277 Z-9.000 I-1.713 J-1.713 F300.000 
G1 X47.063 Y20.263 Z-9.000 F300.000 
G2 X44.568 Y17.769 Z-9.000 I-2.421 J-0.074 F300.000 
G1 X33.180 Y17.769 Z-9.000 F300.000 
G1 X31.318 Y17.769 Z-7.119 F209.430 
G1 X31.252 Y17.769 Z-7.053 F209.710 
G1 X29.320 Y17.769 Z-9.000 F209.570 
G1 X19.345 Y17.769 Z-9.000 F300.000 
G2 X16.850 Y20.263 Z-9.000 I-0.074 J2.421 F300.000 
G1 X16.850 Y58.430 Z-9.000 F300.000 
G1 X16.850 Y60.360 Z-7.051 F209.430 
G1 X16.850 Y62.290 Z-9.000 F209.430 
G1 X16.850 Y96.277 Z-9.000 F300.000 
G2 X19.345 Y98.771 Z-9.000 I2.421 J0.074 F300.000 
G1 X30.630 Y98.771 Z-9.000 F300.000 
G1 X32.568 Y98.771 Z-7.059 F209.928 
G1 X34.490 Y98.771 Z-9.000 F209.433 
G1 X44.568 Y98.771 Z-9.000 F300.000 
G2 X46.354 Y98.063 Z-9.000 I0.074 J-2.421 F300.000 
G1 X46.354 Y98.063 Z-12.000 F120.000 
G2 X47.062 Y96.277 Z-12.000 I-1.713 J-1.713 F300.000 
G1 X47.063 Y20.263 Z-12.000 F300.000 
G2 X44.568 Y17.769 Z-12.000 I-2.421 J-0.074 F300.000 
G1 X36.150 Y17.769 Z-12.000 F300.000 
G1 X31.358 Y17.769 Z-7.159 F209.430 
G1 X31.252 Y17.769 Z-7.053 F209.606 
G1 X26.350 Y17.769 Z-12.000 F209.485 
G1 X19.345 Y17.769 Z-12.000 F300.000 
G2 X16.850 Y20.263 Z-12.000 I-0.074 J2.421 F300.000 
G1 X16.850 Y55.460 Z-12.000 F300.000 
G1 X16.850 Y60.360 Z-7.051 F209.430 
G1 X16.850 Y65.260 Z-12.000 F209.430 
G1 X16.850 Y96.277 Z-12.000 F300.000 
G2 X19.345 Y98.771 Z-12.000 I2.421 J0.074 F300.000 
G1 X27.660 Y98.771 Z-12.000 F300.000 
G1 X32.600 Y98.771 Z-7.091 F210.371 
G1 X37.460 Y98.771 Z-12.000 F209.430 
G1 X44.568 Y98.771 Z-12.000 F300.000 
G2 X46.354 Y98.063 Z-12.000 I0.074 J-2.421 F300.000 
G1 X46.354 Y98.063 Z-14.000 F120.000 
G2 X47.062 Y96.277 Z-14.000 I-1.713 J-1.713 F300.000 
G1 X47.063 Y20.263 Z-14.000 F300.000 
G2 X44.568 Y17.769 Z-14.000 I-2.421 J-0.074 F300.000 
G1 X38.130 Y17.769 Z-14.000 F300.000 
G1 X31.378 Y17.769 Z-7.179 F209.430 
G1 X31.252 Y17.769 Z-7.053 F209.578 
G1 X24.370 Y17.769 Z-14.000 F209.469 
G1 X19.345 Y17.769 Z-14.000 F300.000 
G2 X16.850 Y20.263 Z-14.000 I-0.074 J2.421 F300.000 
G1 X16.850 Y53.480 Z-14.000 F300.000 
G1 X16.850 Y60.360 Z-7.051 F209.430 
G1 X16.850 Y67.240 Z-14.000 F209.430 
G1 X16.850 Y96.277 Z-14.000 F300.000 
G2 X19.345 Y98.771 Z-14.000 I2.421 J0.074 F300.000 
G1 X25.680 Y98.771 Z-14.000 F300.000 
G1 X32.631 Y98.771 Z-7.122 F210.609 
G1 X39.440 Y98.771 Z-14.000 F209.430 
G1 X44.568 Y98.771 Z-14.000 F300.000 
G2 X46.354 Y98.063 Z-14.000 I0.074 J-2.421 F300.000 
G0 X46.354 Y98.063 Z5.000 
(finish operation: DressupTag001)
(begin postamble)
M05
G17 G54 G90 G80 G40
M2
