(Exported by FreeCAD)
(Post Processor: linuxcnc_post)
(Output Time:2024-07-19 16:11:55.414022)
(begin preamble)
G17 G54 G40 G49 G80 G90
G21
(begin operation: Fixture)
(machine units: mm/min)
G54 
(finish operation: Fixture)
(begin operation: TC: 6.3mm_Endmill001)
(machine units: mm/min)
(TC: 6.3mm_Endmill001) 
M5
M6 T10 
G43 H10 
M3 S600 
(finish operation: TC: 6.3mm_Endmill001)
(begin operation: P90 wire route interior)
(machine units: mm/min)
(P90 wire route interior) 
(Compensated Tool Path. Diameter: 6.3) 
G0 Z5.000 
G0 X35.936 Y99.578 
G0 Z3.000 
G1 X35.936 Y99.578 Z-3.000 F120.000 
G2 X35.950 Y99.446 Z-3.000 I-0.085 J-0.076 F300.000 
G1 X35.950 Y25.041 Z-3.000 F300.000 
G2 X33.461 Y21.838 Z-3.000 I-3.208 J-0.076 F300.000 
G2 X29.460 Y25.036 Z-3.000 I-0.772 J3.136 F300.000 
G1 X29.460 Y77.340 Z-3.000 F300.000 
G3 X26.310 Y80.490 Z-3.000 I-3.150 J0.000 F300.000 
G1 X16.994 Y80.490 Z-3.000 F300.000 
G2 X16.864 Y80.502 Z-3.000 I-0.051 J0.163 F300.000 
G2 X16.850 Y80.634 Z-3.000 I0.085 J0.076 F300.000 
G1 X16.850 Y99.446 Z-3.000 F300.000 
G2 X16.862 Y99.576 Z-3.000 I0.163 J0.051 F300.000 
G2 X16.994 Y99.590 Z-3.000 I0.076 J-0.085 F300.000 
G1 X35.806 Y99.590 Z-3.000 F300.000 
G2 X35.936 Y99.578 Z-3.000 I0.051 J-0.163 F300.000 
G1 X35.936 Y99.578 Z-6.000 F120.000 
G2 X35.950 Y99.446 Z-6.000 I-0.085 J-0.076 F300.000 
G1 X35.950 Y25.041 Z-6.000 F300.000 
G2 X33.461 Y21.838 Z-6.000 I-3.208 J-0.076 F300.000 
G2 X29.460 Y25.036 Z-6.000 I-0.772 J3.136 F300.000 
G1 X29.460 Y77.340 Z-6.000 F300.000 
G3 X26.310 Y80.490 Z-6.000 I-3.150 J0.000 F300.000 
G1 X16.994 Y80.490 Z-6.000 F300.000 
G2 X16.864 Y80.502 Z-6.000 I-0.051 J0.163 F300.000 
G2 X16.850 Y80.634 Z-6.000 I0.085 J0.076 F300.000 
G1 X16.850 Y99.446 Z-6.000 F300.000 
G2 X16.862 Y99.576 Z-6.000 I0.163 J0.051 F300.000 
G2 X16.994 Y99.590 Z-6.000 I0.076 J-0.085 F300.000 
G1 X35.806 Y99.590 Z-6.000 F300.000 
G2 X35.936 Y99.578 Z-6.000 I0.051 J-0.163 F300.000 
G1 X35.936 Y99.578 Z-9.000 F120.000 
G2 X35.950 Y99.446 Z-9.000 I-0.085 J-0.076 F300.000 
G1 X35.950 Y25.041 Z-9.000 F300.000 
G2 X33.461 Y21.838 Z-9.000 I-3.208 J-0.076 F300.000 
G2 X29.460 Y25.036 Z-9.000 I-0.772 J3.136 F300.000 
G1 X29.460 Y77.340 Z-9.000 F300.000 
G3 X26.310 Y80.490 Z-9.000 I-3.150 J0.000 F300.000 
G1 X16.994 Y80.490 Z-9.000 F300.000 
G2 X16.864 Y80.502 Z-9.000 I-0.051 J0.163 F300.000 
G2 X16.850 Y80.634 Z-9.000 I0.085 J0.076 F300.000 
G1 X16.850 Y99.446 Z-9.000 F300.000 
G2 X16.862 Y99.576 Z-9.000 I0.163 J0.051 F300.000 
G2 X16.994 Y99.590 Z-9.000 I0.076 J-0.085 F300.000 
G1 X35.806 Y99.590 Z-9.000 F300.000 
G2 X35.936 Y99.578 Z-9.000 I0.051 J-0.163 F300.000 
G1 X35.936 Y99.578 Z-12.000 F120.000 
G2 X35.950 Y99.446 Z-12.000 I-0.085 J-0.076 F300.000 
G1 X35.950 Y25.041 Z-12.000 F300.000 
G2 X33.461 Y21.838 Z-12.000 I-3.208 J-0.076 F300.000 
G2 X29.460 Y25.036 Z-12.000 I-0.772 J3.136 F300.000 
G1 X29.460 Y77.340 Z-12.000 F300.000 
G3 X26.310 Y80.490 Z-12.000 I-3.150 J0.000 F300.000 
G1 X16.994 Y80.490 Z-12.000 F300.000 
G2 X16.864 Y80.502 Z-12.000 I-0.051 J0.163 F300.000 
G2 X16.850 Y80.634 Z-12.000 I0.085 J0.076 F300.000 
G1 X16.850 Y99.446 Z-12.000 F300.000 
G2 X16.862 Y99.576 Z-12.000 I0.163 J0.051 F300.000 
G2 X16.994 Y99.590 Z-12.000 I0.076 J-0.085 F300.000 
G1 X35.806 Y99.590 Z-12.000 F300.000 
G2 X35.936 Y99.578 Z-12.000 I0.051 J-0.163 F300.000 
G1 X35.936 Y99.578 Z-14.000 F120.000 
G2 X35.950 Y99.446 Z-14.000 I-0.085 J-0.076 F300.000 
G1 X35.950 Y25.041 Z-14.000 F300.000 
G2 X33.461 Y21.838 Z-14.000 I-3.208 J-0.076 F300.000 
G2 X29.460 Y25.036 Z-14.000 I-0.772 J3.136 F300.000 
G1 X29.460 Y77.340 Z-14.000 F300.000 
G3 X26.310 Y80.490 Z-14.000 I-3.150 J0.000 F300.000 
G1 X16.994 Y80.490 Z-14.000 F300.000 
G2 X16.864 Y80.502 Z-14.000 I-0.051 J0.163 F300.000 
G2 X16.850 Y80.634 Z-14.000 I0.085 J0.076 F300.000 
G1 X16.850 Y99.446 Z-14.000 F300.000 
G2 X16.862 Y99.576 Z-14.000 I0.163 J0.051 F300.000 
G2 X16.994 Y99.590 Z-14.000 I0.076 J-0.085 F300.000 
G1 X35.806 Y99.590 Z-14.000 F300.000 
G2 X35.936 Y99.578 Z-14.000 I0.051 J-0.163 F300.000 
G0 Z5.000 
G0 Z5.000 
(finish operation: P90 wire route interior)
(begin postamble)
M05
G17 G54 G90 G80 G40
M2
