(Exported by FreeCAD)
(Post Processor: linuxcnc_post)
(Output Time:2024-07-19 16:57:55.234524)
(begin preamble)
G17 G54 G40 G49 G80 G90
G21
(begin operation: Fixture)
(machine units: mm/min)
G54 
(finish operation: Fixture)
(begin operation: TC: 6.3mm_Endmill001)
(machine units: mm/min)
(TC: 6.3mm_Endmill001) 
M5
M6 T10 
G43 H10 
M3 S100 
(finish operation: TC: 6.3mm_Endmill001)
(begin operation: DressupTag001)
(machine units: mm/min)
G0 Z5.000 
G0 X131.696 Y66.105 Z5.000 
G0 X131.696 Y66.105 Z3.000 
G1 X131.696 Y66.105 Z-1.500 F120.000 
G2 X133.106 Y47.501 Z-1.500 I-10.122 J-10.123 F300.000 
G3 X133.078 Y29.113 Z-1.500 I12.896 J-9.214 F300.000 
G2 X111.400 Y10.534 Z-1.500 I-11.538 J-8.473 F300.000 
G3 X71.364 Y10.539 Z-1.500 I-20.021 J-20.351 F300.000 
G1 X71.364 Y10.539 Z-1.500 F300.000 
G2 X62.948 Y6.430 Z-1.500 I-10.157 J10.130 F300.000 
G2 X47.107 Y18.229 Z-1.500 I-1.729 J14.212 F300.000 
G3 X20.106 Y41.677 Z-1.500 I-28.092 J-5.079 F300.000 
G2 X9.851 Y46.423 Z-1.500 I0.405 J14.329 F300.000 
G2 X30.639 Y66.088 Z-1.500 I10.649 J9.563 F300.000 
G3 X70.675 Y66.083 Z-1.500 I20.021 J20.350 F300.000 
G1 X70.675 Y66.083 Z-1.500 F300.000 
G2 X90.570 Y66.469 Z-1.500 I10.147 J-10.110 F300.000 
G3 X111.816 Y66.457 Z-1.500 I10.630 J11.756 F300.000 
G2 X131.696 Y66.105 Z-1.500 I9.758 J-10.474 F300.000 
G1 X131.696 Y66.105 Z-3.000 F120.000 
G2 X133.106 Y47.501 Z-3.000 I-10.122 J-10.123 F300.000 
G3 X133.078 Y29.113 Z-3.000 I12.896 J-9.214 F300.000 
G2 X111.400 Y10.534 Z-3.000 I-11.538 J-8.473 F300.000 
G3 X71.364 Y10.539 Z-3.000 I-20.021 J-20.351 F300.000 
G1 X71.364 Y10.539 Z-3.000 F300.000 
G2 X62.948 Y6.430 Z-3.000 I-10.157 J10.130 F300.000 
G2 X47.107 Y18.229 Z-3.000 I-1.729 J14.212 F300.000 
G3 X20.106 Y41.677 Z-3.000 I-28.092 J-5.079 F300.000 
G2 X9.851 Y46.423 Z-3.000 I0.405 J14.329 F300.000 
G2 X30.639 Y66.088 Z-3.000 I10.649 J9.563 F300.000 
G3 X70.675 Y66.083 Z-3.000 I20.021 J20.350 F300.000 
G1 X70.675 Y66.083 Z-3.000 F300.000 
G2 X90.570 Y66.469 Z-3.000 I10.147 J-10.110 F300.000 
G3 X111.816 Y66.457 Z-3.000 I10.630 J11.756 F300.000 
G2 X131.696 Y66.105 Z-3.000 I9.758 J-10.474 F300.000 
G1 X131.696 Y66.105 Z-4.500 F120.000 
G2 X133.106 Y47.501 Z-4.500 I-10.122 J-10.123 F300.000 
G3 X133.078 Y29.113 Z-4.500 I12.896 J-9.214 F300.000 
G2 X111.400 Y10.534 Z-4.500 I-11.538 J-8.473 F300.000 
G3 X71.364 Y10.539 Z-4.500 I-20.021 J-20.351 F300.000 
G1 X71.364 Y10.539 Z-4.500 F300.000 
G2 X62.948 Y6.430 Z-4.500 I-10.157 J10.130 F300.000 
G2 X47.107 Y18.229 Z-4.500 I-1.729 J14.212 F300.000 
G3 X20.106 Y41.677 Z-4.500 I-28.092 J-5.079 F300.000 
G2 X9.851 Y46.423 Z-4.500 I0.405 J14.329 F300.000 
G2 X30.639 Y66.088 Z-4.500 I10.649 J9.563 F300.000 
G3 X70.675 Y66.083 Z-4.500 I20.021 J20.350 F300.000 
G1 X70.675 Y66.083 Z-4.500 F300.000 
G2 X90.570 Y66.469 Z-4.500 I10.147 J-10.110 F300.000 
G3 X111.816 Y66.457 Z-4.500 I10.630 J11.756 F300.000 
G2 X131.696 Y66.105 Z-4.500 I9.758 J-10.474 F300.000 
G1 X131.696 Y66.105 Z-6.000 F120.000 
G2 X133.106 Y47.501 Z-6.000 I-10.122 J-10.123 F300.000 
G3 X133.078 Y29.113 Z-6.000 I12.896 J-9.214 F300.000 
G2 X111.400 Y10.534 Z-6.000 I-11.538 J-8.473 F300.000 
G3 X71.364 Y10.539 Z-6.000 I-20.021 J-20.351 F300.000 
G1 X71.364 Y10.539 Z-6.000 F300.000 
G2 X62.948 Y6.430 Z-6.000 I-10.157 J10.130 F300.000 
G2 X47.107 Y18.229 Z-6.000 I-1.729 J14.212 F300.000 
G3 X20.106 Y41.677 Z-6.000 I-28.092 J-5.079 F300.000 
G2 X9.851 Y46.423 Z-6.000 I0.405 J14.329 F300.000 
G2 X30.639 Y66.088 Z-6.000 I10.649 J9.563 F300.000 
G3 X70.675 Y66.083 Z-6.000 I20.021 J20.350 F300.000 
G1 X70.675 Y66.083 Z-6.000 F300.000 
G2 X90.570 Y66.469 Z-6.000 I10.147 J-10.110 F300.000 
G3 X111.816 Y66.457 Z-6.000 I10.630 J11.756 F300.000 
G2 X131.696 Y66.105 Z-6.000 I9.758 J-10.474 F300.000 
G1 X131.696 Y66.105 Z-7.500 F120.000 
G2 X133.106 Y47.501 Z-7.500 I-10.122 J-10.123 F300.000 
G3 X133.078 Y29.113 Z-7.500 I12.896 J-9.214 F300.000 
G2 X111.400 Y10.534 Z-7.500 I-11.538 J-8.473 F300.000 
G3 X71.364 Y10.539 Z-7.500 I-20.021 J-20.351 F300.000 
G1 X71.364 Y10.539 Z-7.500 F300.000 
G2 X62.948 Y6.430 Z-7.500 I-10.157 J10.130 F300.000 
G2 X47.107 Y18.229 Z-7.500 I-1.729 J14.212 F300.000 
G3 X20.106 Y41.677 Z-7.500 I-28.092 J-5.079 F300.000 
G2 X9.851 Y46.423 Z-7.500 I0.405 J14.329 F300.000 
G2 X30.639 Y66.088 Z-7.500 I10.649 J9.563 F300.000 
G3 X70.675 Y66.083 Z-7.500 I20.021 J20.350 F300.000 
G1 X70.675 Y66.083 Z-7.500 F300.000 
G2 X90.570 Y66.469 Z-7.500 I10.147 J-10.110 F300.000 
G3 X111.816 Y66.457 Z-7.500 I10.630 J11.756 F300.000 
G2 X131.696 Y66.105 Z-7.500 I9.758 J-10.474 F300.000 
G1 X131.696 Y66.105 Z-9.000 F120.000 
G2 X135.816 Y57.429 Z-9.000 I-10.122 J-10.123 F300.000 
G1 X135.833 Y57.247 Z-8.815 F209.432 
G1 X135.841 Y57.154 Z-8.721 F209.430 
G1 X135.845 Y57.108 Z-8.674 F209.430 
G1 X135.847 Y57.086 Z-8.652 F209.430 
G1 X135.848 Y57.065 Z-8.631 F209.430 
G1 X135.871 Y56.699 Z-9.000 F209.430 
G2 X133.106 Y47.501 Z-9.000 I-14.298 J-0.717 F300.000 
G3 X133.078 Y29.113 Z-9.000 I12.896 J-9.214 F300.000 
G2 X111.400 Y10.534 Z-9.000 I-11.538 J-8.473 F300.000 
G3 X91.749 Y18.729 Z-9.000 I-20.021 J-20.351 F300.000 
G1 X91.565 Y18.731 Z-8.814 F209.430 
G1 X91.472 Y18.731 Z-8.721 F209.430 
G1 X91.429 Y18.731 Z-8.676 F209.430 
G1 X91.383 Y18.731 Z-8.631 F209.430 
G1 X91.017 Y18.729 Z-9.000 F209.430 
G3 X71.364 Y10.539 Z-9.000 I0.363 J-28.545 F300.000 
G1 X71.364 Y10.539 Z-9.000 F300.000 
G2 X62.948 Y6.430 Z-9.000 I-10.157 J10.130 F300.000 
G2 X47.107 Y18.229 Z-9.000 I-1.729 J14.212 F300.000 
G3 X38.008 Y34.463 Z-9.000 I-28.092 J-5.079 F300.000 
G1 X37.870 Y34.585 Z-8.814 F209.430 
G1 X37.800 Y34.646 Z-8.721 F209.430 
G1 X37.767 Y34.675 Z-8.676 F209.430 
G1 X37.733 Y34.704 Z-8.631 F209.430 
G1 X37.455 Y34.943 Z-9.000 F209.430 
G3 X20.106 Y41.677 Z-9.000 I-18.440 J-21.792 F300.000 
G2 X9.851 Y46.423 Z-9.000 I0.405 J14.329 F300.000 
G2 X30.639 Y66.088 Z-9.000 I10.649 J9.563 F300.000 
G3 X70.675 Y66.083 Z-9.000 I20.021 J20.350 F300.000 
G1 X70.675 Y66.083 Z-9.000 F300.000 
G2 X90.570 Y66.469 Z-9.000 I10.147 J-10.110 F300.000 
G3 X111.816 Y66.457 Z-9.000 I10.630 J11.756 F300.000 
G2 X131.696 Y66.105 Z-9.000 I9.758 J-10.474 F300.000 
G1 X131.696 Y66.105 Z-10.500 F120.000 
G2 X135.589 Y58.897 Z-10.500 I-10.122 J-10.123 F300.000 
G1 X135.749 Y57.982 Z-9.562 F209.490 
G1 X135.806 Y57.520 Z-9.093 F209.445 
G1 X135.830 Y57.287 Z-8.856 F209.433 
G1 X135.840 Y57.172 Z-8.740 F209.431 
G1 X135.844 Y57.117 Z-8.683 F209.430 
G1 X135.846 Y57.091 Z-8.657 F209.430 
G1 X135.848 Y57.065 Z-8.631 F209.430 
G1 X135.885 Y56.344 Z-9.359 F209.430 
G1 X135.869 Y55.214 Z-10.500 F209.477 
G2 X133.106 Y47.501 Z-10.500 I-14.295 J0.769 F300.000 
G3 X133.078 Y29.113 Z-10.500 I12.896 J-9.214 F300.000 
G2 X111.400 Y10.534 Z-10.500 I-11.538 J-8.473 F300.000 
G3 X93.233 Y18.671 Z-10.500 I-20.021 J-20.351 F300.000 
G1 X92.309 Y18.716 Z-9.566 F209.445 
G1 X91.849 Y18.728 Z-9.101 F209.434 
G1 X91.621 Y18.730 Z-8.871 F209.431 
G1 X91.507 Y18.731 Z-8.755 F209.430 
G1 X91.447 Y18.731 Z-8.696 F209.430 
G1 X91.414 Y18.731 Z-8.662 F209.430 
G1 X91.383 Y18.731 Z-8.631 F209.430 
G1 X90.458 Y18.716 Z-9.565 F209.430 
G1 X89.533 Y18.672 Z-10.500 F209.445 
G3 X71.364 Y10.539 Z-10.500 I1.847 J-28.488 F300.000 
G1 X71.364 Y10.539 Z-10.500 F300.000 
G2 X62.948 Y6.430 Z-10.500 I-10.157 J10.130 F300.000 
G2 X47.107 Y18.229 Z-10.500 I-1.729 J14.212 F300.000 
G3 X39.090 Y33.446 Z-10.500 I-28.092 J-5.079 F300.000 
G1 X38.932 Y33.602 Z-10.275 F209.456 
G1 X38.344 Y34.159 Z-9.458 F209.442 
G1 X38.045 Y34.429 Z-9.051 F209.433 
G1 X37.893 Y34.564 Z-8.845 F209.431 
G1 X37.817 Y34.632 Z-8.743 F209.430 
G1 X37.775 Y34.668 Z-8.687 F209.430 
G1 X37.753 Y34.687 Z-8.658 F209.430 
G1 X37.733 Y34.704 Z-8.631 F209.430 
G1 X37.024 Y35.300 Z-9.565 F209.430 
G1 X36.297 Y35.872 Z-10.500 F209.445 
G3 X20.106 Y41.677 Z-10.500 I-17.282 J-22.722 F300.000 
G2 X9.851 Y46.423 Z-10.500 I0.405 J14.329 F300.000 
G2 X30.639 Y66.088 Z-10.500 I10.649 J9.563 F300.000 
G3 X70.675 Y66.083 Z-10.500 I20.021 J20.350 F300.000 
G1 X70.675 Y66.083 Z-10.500 F300.000 
G2 X90.570 Y66.469 Z-10.500 I10.147 J-10.110 F300.000 
G3 X111.816 Y66.457 Z-10.500 I10.630 J11.756 F300.000 
G2 X131.696 Y66.105 Z-10.500 I9.758 J-10.474 F300.000 
G1 X131.696 Y66.105 Z-12.000 F120.000 
G2 X135.210 Y60.339 Z-12.000 I-10.122 J-10.123 F300.000 
G1 X135.442 Y59.534 Z-11.159 F209.723 
G1 X135.625 Y58.720 Z-10.318 F209.576 
G1 X135.761 Y57.897 Z-9.476 F209.479 
G1 X135.811 Y57.478 Z-9.050 F209.442 
G1 X135.831 Y57.270 Z-8.838 F209.433 
G1 X135.840 Y57.170 Z-8.737 F209.431 
G1 X135.844 Y57.117 Z-8.683 F209.430 
G1 X135.846 Y57.091 Z-8.657 F209.430 
G1 X135.848 Y57.065 Z-8.631 F209.430 
G1 X135.885 Y56.344 Z-9.359 F209.430 
G1 X135.874 Y55.323 Z-10.389 F209.474 
G1 X135.791 Y54.306 Z-11.418 F209.598 
G1 X135.754 Y54.018 Z-11.709 F209.725 
G1 X135.711 Y53.731 Z-12.000 F209.787 
G2 X133.106 Y47.501 Z-12.000 I-14.137 J2.251 F300.000 
G3 X133.078 Y29.113 Z-12.000 I12.896 J-9.214 F300.000 
G2 X111.400 Y10.534 Z-12.000 I-11.538 J-8.473 F300.000 
G3 X94.713 Y18.536 Z-12.000 I-20.021 J-20.351 F300.000 
G1 X93.886 Y18.621 Z-11.161 F209.503 
G1 X93.060 Y18.682 Z-10.325 F209.467 
G1 X92.229 Y18.719 Z-9.485 F209.442 
G1 X91.817 Y18.728 Z-9.068 F209.433 
G1 X91.611 Y18.730 Z-8.860 F209.431 
G1 X91.501 Y18.731 Z-8.750 F209.430 
G1 X91.444 Y18.731 Z-8.692 F209.430 
G1 X91.416 Y18.731 Z-8.664 F209.430 
G1 X91.383 Y18.731 Z-8.631 F209.430 
G1 X89.942 Y18.695 Z-10.087 F209.430 
G1 X88.996 Y18.632 Z-11.044 F209.460 
G1 X88.053 Y18.537 Z-12.000 F209.500 
G3 X71.364 Y10.539 Z-12.000 I3.327 J-28.353 F300.000 
G1 X71.364 Y10.539 Z-12.000 F300.000 
G2 X62.948 Y6.430 Z-12.000 I-10.157 J10.130 F300.000 
G2 X47.107 Y18.229 Z-12.000 I-1.729 J14.212 F300.000 
G3 X40.120 Y32.374 Z-12.000 I-28.092 J-5.079 F300.000 
G1 X39.533 Y32.999 Z-11.135 F209.503 
G1 X38.932 Y33.602 Z-10.275 F209.465 
G1 X38.344 Y34.159 Z-9.458 F209.442 
G1 X38.045 Y34.429 Z-9.051 F209.433 
G1 X37.893 Y34.564 Z-8.845 F209.431 
G1 X37.817 Y34.632 Z-8.743 F209.430 
G1 X37.775 Y34.668 Z-8.687 F209.430 
G1 X37.753 Y34.687 Z-8.658 F209.430 
G1 X37.733 Y34.704 Z-8.631 F209.430 
G1 X36.680 Y35.576 Z-10.011 F209.430 
G1 X35.895 Y36.172 Z-11.006 F209.458 
G1 X35.091 Y36.741 Z-12.000 F209.499 
G3 X20.106 Y41.677 Z-12.000 I-16.076 J-23.591 F300.000 
G2 X9.851 Y46.423 Z-12.000 I0.405 J14.329 F300.000 
G2 X30.639 Y66.088 Z-12.000 I10.649 J9.563 F300.000 
G3 X70.675 Y66.083 Z-12.000 I20.021 J20.350 F300.000 
G1 X70.675 Y66.083 Z-12.000 F300.000 
G2 X90.570 Y66.469 Z-12.000 I10.147 J-10.110 F300.000 
G3 X111.816 Y66.457 Z-12.000 I10.630 J11.756 F300.000 
G2 X131.696 Y66.105 Z-12.000 I9.758 J-10.474 F300.000 
G1 X131.696 Y66.105 Z-13.500 F120.000 
G2 X134.680 Y61.742 Z-13.500 I-10.122 J-10.123 F300.000 
G1 X134.911 Y61.184 Z-12.898 F210.151 
G1 X135.117 Y60.620 Z-12.296 F209.971 
G1 X135.300 Y60.047 Z-11.693 F209.817 
G1 X135.459 Y59.467 Z-11.089 F209.689 
G1 X135.593 Y58.881 Z-10.483 F209.586 
G1 X135.702 Y58.290 Z-9.877 F209.509 
G1 X135.787 Y57.694 Z-9.270 F209.457 
G1 X135.843 Y57.137 Z-8.704 F209.432 
G1 X135.846 Y57.101 Z-8.667 F209.430 
G1 X135.847 Y57.084 Z-8.650 F209.430 
G1 X135.848 Y57.065 Z-8.631 F209.430 
G1 X135.882 Y56.424 Z-9.278 F209.430 
G1 X135.878 Y55.403 Z-10.309 F209.467 
G1 X135.800 Y54.385 Z-11.337 F209.586 
G1 X135.650 Y53.375 Z-12.362 F209.778 
G1 X135.398 Y52.264 Z-13.500 F210.060 
G2 X133.106 Y47.501 Z-13.500 I-13.824 J3.718 F300.000 
G3 X133.078 Y29.113 Z-13.500 I12.896 J-9.214 F300.000 
G2 X111.400 Y10.534 Z-13.500 I-11.538 J-8.473 F300.000 
G3 X96.187 Y18.324 Z-13.500 I-20.021 J-20.351 F300.000 
G1 X94.987 Y18.503 Z-12.278 F209.583 
G1 X93.785 Y18.630 Z-11.059 F209.506 
G1 X92.575 Y18.706 Z-9.834 F209.455 
G1 X91.973 Y18.725 Z-9.226 F209.436 
G1 X91.672 Y18.730 Z-8.922 F209.431 
G1 X91.529 Y18.731 Z-8.778 F209.430 
G1 X91.454 Y18.731 Z-8.702 F209.430 
G1 X91.417 Y18.731 Z-8.664 F209.430 
G1 X91.383 Y18.731 Z-8.631 F209.430 
G1 X89.582 Y18.675 Z-10.451 F209.430 
G1 X88.146 Y18.548 Z-11.905 F209.481 
G1 X86.579 Y18.325 Z-13.500 F209.568 
G3 X71.364 Y10.539 Z-13.500 I4.801 J-28.141 F300.000 
G1 X71.364 Y10.539 Z-13.500 F300.000 
G2 X62.948 Y6.430 Z-13.500 I-10.157 J10.130 F300.000 
G2 X47.107 Y18.229 Z-13.500 I-1.729 J14.212 F300.000 
G3 X41.093 Y31.247 Z-13.500 I-28.092 J-5.079 F300.000 
G1 X40.045 Y32.456 Z-11.888 F209.567 
G1 X38.932 Y33.602 Z-10.275 F209.476 
G1 X38.344 Y34.159 Z-9.458 F209.442 
G1 X38.045 Y34.429 Z-9.051 F209.433 
G1 X37.893 Y34.564 Z-8.845 F209.431 
G1 X37.817 Y34.632 Z-8.743 F209.430 
G1 X37.775 Y34.668 Z-8.687 F209.430 
G1 X37.753 Y34.687 Z-8.658 F209.430 
G1 X37.733 Y34.704 Z-8.631 F209.430 
G1 X36.806 Y35.476 Z-9.849 F209.430 
G1 X35.656 Y36.345 Z-11.304 F209.458 
G1 X34.464 Y37.156 Z-12.757 F209.525 
G1 X34.153 Y37.353 Z-13.129 F209.590 
G1 X33.839 Y37.547 Z-13.500 F209.619 
G3 X20.106 Y41.677 Z-13.500 I-14.824 J-24.397 F300.000 
G2 X9.851 Y46.423 Z-13.500 I0.405 J14.329 F300.000 
G2 X30.639 Y66.088 Z-13.500 I10.649 J9.563 F300.000 
G3 X70.675 Y66.083 Z-13.500 I20.021 J20.350 F300.000 
G1 X70.675 Y66.083 Z-13.500 F300.000 
G2 X90.570 Y66.469 Z-13.500 I10.147 J-10.110 F300.000 
G3 X111.816 Y66.457 Z-13.500 I10.630 J11.756 F300.000 
G2 X131.696 Y66.105 Z-13.500 I9.758 J-10.474 F300.000 
G1 X131.696 Y66.105 Z-14.000 F120.000 
G2 X134.469 Y62.199 Z-14.000 I-10.122 J-10.123 F300.000 
G1 X134.746 Y61.590 Z-13.335 F210.309 
G1 X134.993 Y60.968 Z-12.667 F210.088 
G1 X135.211 Y60.336 Z-11.996 F209.899 
G1 X135.399 Y59.696 Z-11.327 F209.743 
G1 X135.558 Y59.046 Z-10.654 F209.617 
G1 X135.685 Y58.390 Z-9.979 F209.524 
G1 X135.783 Y57.728 Z-9.304 F209.461 
G1 X135.819 Y57.397 Z-8.967 F209.438 
G1 X135.835 Y57.231 Z-8.799 F209.432 
G1 X135.842 Y57.148 Z-8.715 F209.430 
G1 X135.845 Y57.107 Z-8.674 F209.430 
G1 X135.847 Y57.086 Z-8.652 F209.430 
G1 X135.848 Y57.065 Z-8.631 F209.430 
G1 X135.882 Y56.424 Z-9.278 F209.430 
G1 X135.878 Y55.403 Z-10.309 F209.467 
G1 X135.800 Y54.385 Z-11.337 F209.586 
G1 X135.650 Y53.375 Z-12.362 F209.778 
G1 X135.428 Y52.378 Z-13.383 F210.044 
G1 X135.259 Y51.781 Z-14.000 F210.318 
G2 X133.106 Y47.501 Z-14.000 I-13.685 J4.202 F300.000 
G3 X133.078 Y29.113 Z-14.000 I12.896 J-9.214 F300.000 
G2 X111.400 Y10.534 Z-14.000 I-11.538 J-8.473 F300.000 
G3 X96.676 Y18.236 Z-14.000 I-20.021 J-20.351 F300.000 
G1 X95.351 Y18.454 Z-12.648 F209.616 
G1 X94.023 Y18.609 Z-11.299 F209.522 
G1 X92.683 Y18.702 Z-9.944 F209.460 
G1 X92.015 Y18.724 Z-9.268 F209.437 
G1 X91.683 Y18.730 Z-8.933 F209.432 
G1 X91.530 Y18.731 Z-8.779 F209.430 
G1 X91.455 Y18.731 Z-8.703 F209.430 
G1 X91.417 Y18.731 Z-8.665 F209.430 
G1 X91.383 Y18.731 Z-8.631 F209.430 
G1 X89.942 Y18.695 Z-10.086 F209.430 
G1 X89.492 Y18.669 Z-10.542 F209.454 
G1 X88.056 Y18.537 Z-11.996 F209.485 
G1 X86.090 Y18.237 Z-14.000 F209.586 
G3 X71.364 Y10.539 Z-14.000 I5.290 J-28.053 F300.000 
G1 X71.364 Y10.539 Z-14.000 F300.000 
G2 X62.948 Y6.430 Z-14.000 I-10.157 J10.130 F300.000 
G2 X47.107 Y18.229 Z-14.000 I-1.729 J14.212 F300.000 
G3 X41.405 Y30.860 Z-14.000 I-28.092 J-5.079 F300.000 
G1 X40.484 Y31.966 Z-12.551 F209.612 
G1 X40.211 Y32.273 Z-12.137 F209.549 
G1 X39.582 Y32.948 Z-11.206 F209.508 
G1 X38.932 Y33.602 Z-10.275 F209.466 
G1 X38.344 Y34.159 Z-9.458 F209.442 
G1 X38.045 Y34.429 Z-9.051 F209.433 
G1 X37.893 Y34.564 Z-8.845 F209.431 
G1 X37.817 Y34.632 Z-8.743 F209.430 
G1 X37.775 Y34.668 Z-8.687 F209.430 
G1 X37.753 Y34.687 Z-8.658 F209.430 
G1 X37.733 Y34.704 Z-8.631 F209.430 
G1 X36.743 Y35.526 Z-9.930 F209.430 
G1 X35.591 Y36.392 Z-11.385 F209.461 
G1 X34.397 Y37.199 Z-12.838 F209.530 
G1 X33.907 Y37.505 Z-13.419 F209.604 
G1 X33.412 Y37.801 Z-14.000 F209.652 
G3 X20.106 Y41.677 Z-14.000 I-14.397 J-24.651 F300.000 
G2 X9.851 Y46.423 Z-14.000 I0.405 J14.329 F300.000 
G2 X30.639 Y66.088 Z-14.000 I10.649 J9.563 F300.000 
G3 X70.675 Y66.083 Z-14.000 I20.021 J20.350 F300.000 
G1 X70.675 Y66.083 Z-14.000 F300.000 
G2 X90.570 Y66.469 Z-14.000 I10.147 J-10.110 F300.000 
G3 X111.816 Y66.457 Z-14.000 I10.630 J11.756 F300.000 
G2 X131.696 Y66.105 Z-14.000 I9.758 J-10.474 F300.000 
G0 X131.696 Y66.105 Z5.000 
(finish operation: DressupTag001)
(begin postamble)
M05
G17 G54 G90 G80 G40
M2
