(Exported by FreeCAD)
(Post Processor: linuxcnc_post)
(Output Time:2024-11-19 20:42:12.336632)
(begin preamble)
G17 G54 G40 G49 G80 G90
G21
(begin operation: Fixture)
(machine units: mm/min)
G54 
(finish operation: Fixture)
(begin operation: TC: 6.3mm_Endmill001)
(machine units: mm/min)
(TC: 6.3mm_Endmill001) 
M5
M6 T10 
G43 H10 
M3 S600 
(finish operation: TC: 6.3mm_Endmill001)
(begin operation: external neck with tags)
(machine units: mm/min)
G0 Z4.000 
G0 X717.635 Y80.860 Z4.000 
G0 X717.635 Y80.860 Z2.000 
G1 X717.635 Y80.860 Z-4.000 F120.000 
G2 X720.554 Y72.426 Z-4.000 I-4.411 J-6.248 F300.000 
G3 X728.557 Y26.871 Z-4.000 I44.145 J-15.725 F300.000 
G2 X721.730 Y13.847 Z-4.000 I-5.166 J-5.593 F300.000 
G3 X665.581 Y14.420 Z-4.000 I-31.833 J-368.098 F300.000 
G3 X633.228 Y10.603 Z-4.000 I17.698 J-288.988 F300.000 
G3 X607.803 Y4.423 Z-4.000 I31.295 J-184.155 F300.000 
G3 X592.577 Y-1.818 Z-4.000 I30.338 J-95.700 F300.000 
G1 X592.062 Y-2.021 Z-4.000 F300.000 
G2 X588.326 Y-0.353 Z-4.000 I-0.892 J3.021 F300.000 
G3 X551.623 Y24.183 Z-4.000 I-37.937 J-17.029 F300.000 
G3 X545.129 Y24.199 Z-4.000 I-4.133 J-362.213 F300.000 
G1 X85.574 Y17.055 Z-4.000 F300.000 
G1 X18.855 Y17.055 Z-4.000 F300.000 
G2 X12.540 Y23.133 Z-4.000 I0.009 J6.329 F300.000 
G1 X12.530 Y74.180 Z-4.000 F300.000 
G2 X18.608 Y80.495 Z-4.000 I6.329 J-0.009 F300.000 
G1 X85.525 Y80.505 Z-4.000 F300.000 
G1 X545.145 Y73.361 Z-4.000 F300.000 
G3 X550.002 Y73.364 Z-4.000 I2.339 J159.040 F300.000 
G3 X587.812 Y97.995 Z-4.000 I-0.126 J41.528 F300.000 
G2 X591.934 Y99.531 Z-4.000 I2.848 J-1.345 F300.000 
G3 X605.870 Y94.132 Z-4.000 I52.957 J116.015 F300.000 
G3 X628.142 Y88.421 Z-4.000 I66.468 J212.916 F300.000 
G3 X661.021 Y83.703 Z-4.000 I63.215 J323.659 F300.000 
G3 X713.274 Y82.259 Z-4.000 I37.543 J412.380 F300.000 
G2 X717.635 Y80.860 Z-4.000 I-0.050 J-7.648 F300.000 
G1 X717.635 Y80.860 Z-7.000 F120.000 
G2 X720.554 Y72.426 Z-7.000 I-4.411 J-6.248 F300.000 
G3 X728.557 Y26.871 Z-7.000 I44.145 J-15.725 F300.000 
G2 X721.730 Y13.847 Z-7.000 I-5.166 J-5.593 F300.000 
G3 X665.581 Y14.420 Z-7.000 I-31.833 J-368.098 F300.000 
G3 X633.228 Y10.603 Z-7.000 I17.698 J-288.988 F300.000 
G3 X607.803 Y4.423 Z-7.000 I31.295 J-184.155 F300.000 
G3 X592.577 Y-1.818 Z-7.000 I30.338 J-95.700 F300.000 
G1 X592.062 Y-2.021 Z-7.000 F300.000 
G2 X588.326 Y-0.353 Z-7.000 I-0.892 J3.021 F300.000 
G3 X551.623 Y24.183 Z-7.000 I-37.937 J-17.029 F300.000 
G3 X545.129 Y24.199 Z-7.000 I-4.133 J-362.213 F300.000 
G1 X85.574 Y17.055 Z-7.000 F300.000 
G1 X18.855 Y17.055 Z-7.000 F300.000 
G2 X12.540 Y23.133 Z-7.000 I0.009 J6.329 F300.000 
G1 X12.530 Y74.180 Z-7.000 F300.000 
G2 X18.608 Y80.495 Z-7.000 I6.329 J-0.009 F300.000 
G1 X85.525 Y80.505 Z-7.000 F300.000 
G1 X545.145 Y73.361 Z-7.000 F300.000 
G3 X550.002 Y73.364 Z-7.000 I2.339 J159.040 F300.000 
G3 X587.812 Y97.995 Z-7.000 I-0.126 J41.528 F300.000 
G2 X591.934 Y99.531 Z-7.000 I2.848 J-1.345 F300.000 
G3 X605.870 Y94.132 Z-7.000 I52.957 J116.015 F300.000 
G3 X628.142 Y88.421 Z-7.000 I66.468 J212.916 F300.000 
G3 X661.021 Y83.703 Z-7.000 I63.215 J323.659 F300.000 
G3 X713.274 Y82.259 Z-7.000 I37.543 J412.380 F300.000 
G2 X717.635 Y80.860 Z-7.000 I-0.050 J-7.648 F300.000 
G1 X717.635 Y80.860 Z-10.000 F120.000 
G2 X720.554 Y72.426 Z-10.000 I-4.411 J-6.248 F300.000 
G3 X728.557 Y26.871 Z-10.000 I44.145 J-15.725 F300.000 
G2 X721.730 Y13.847 Z-10.000 I-5.166 J-5.593 F300.000 
G3 X665.581 Y14.420 Z-10.000 I-31.833 J-368.098 F300.000 
G3 X633.228 Y10.603 Z-10.000 I17.698 J-288.988 F300.000 
G3 X607.803 Y4.423 Z-10.000 I31.295 J-184.155 F300.000 
G3 X592.577 Y-1.818 Z-10.000 I30.338 J-95.700 F300.000 
G1 X592.062 Y-2.021 Z-10.000 F300.000 
G2 X588.326 Y-0.353 Z-10.000 I-0.892 J3.021 F300.000 
G3 X551.623 Y24.183 Z-10.000 I-37.937 J-17.029 F300.000 
G3 X545.129 Y24.199 Z-10.000 I-4.133 J-362.213 F300.000 
G1 X85.574 Y17.055 Z-10.000 F300.000 
G1 X18.855 Y17.055 Z-10.000 F300.000 
G2 X12.540 Y23.133 Z-10.000 I0.009 J6.329 F300.000 
G1 X12.530 Y74.180 Z-10.000 F300.000 
G2 X18.608 Y80.495 Z-10.000 I6.329 J-0.009 F300.000 
G1 X85.525 Y80.505 Z-10.000 F300.000 
G1 X545.145 Y73.361 Z-10.000 F300.000 
G3 X550.002 Y73.364 Z-10.000 I2.339 J159.040 F300.000 
G3 X587.812 Y97.995 Z-10.000 I-0.126 J41.528 F300.000 
G2 X591.934 Y99.531 Z-10.000 I2.848 J-1.345 F300.000 
G3 X605.870 Y94.132 Z-10.000 I52.957 J116.015 F300.000 
G3 X628.142 Y88.421 Z-10.000 I66.468 J212.916 F300.000 
G3 X661.021 Y83.703 Z-10.000 I63.215 J323.659 F300.000 
G3 X713.274 Y82.259 Z-10.000 I37.543 J412.380 F300.000 
G2 X717.635 Y80.860 Z-10.000 I-0.050 J-7.648 F300.000 
G1 X717.635 Y80.860 Z-13.000 F120.000 
G2 X720.554 Y72.426 Z-13.000 I-4.411 J-6.248 F300.000 
G3 X728.557 Y26.871 Z-13.000 I44.145 J-15.725 F300.000 
G2 X721.730 Y13.847 Z-13.000 I-5.166 J-5.593 F300.000 
G3 X665.581 Y14.420 Z-13.000 I-31.833 J-368.098 F300.000 
G3 X633.228 Y10.603 Z-13.000 I17.698 J-288.988 F300.000 
G3 X607.803 Y4.423 Z-13.000 I31.295 J-184.155 F300.000 
G3 X592.577 Y-1.818 Z-13.000 I30.338 J-95.700 F300.000 
G1 X592.062 Y-2.021 Z-13.000 F300.000 
G2 X588.326 Y-0.353 Z-13.000 I-0.892 J3.021 F300.000 
G3 X551.623 Y24.183 Z-13.000 I-37.937 J-17.029 F300.000 
G3 X545.129 Y24.199 Z-13.000 I-4.133 J-362.213 F300.000 
G1 X453.333 Y22.772 Z-13.000 F300.000 
G1 X452.333 Y22.756 Z-12.000 F210.000 
G1 X408.148 Y22.070 Z-12.000 F300.000 
G1 X407.148 Y22.054 Z-13.000 F210.000 
G1 X223.555 Y19.200 Z-13.000 F300.000 
G1 X222.555 Y19.185 Z-12.000 F210.000 
G1 X178.371 Y18.498 Z-12.000 F300.000 
G1 X177.371 Y18.482 Z-13.000 F210.000 
G1 X85.574 Y17.055 Z-13.000 F300.000 
G1 X18.855 Y17.055 Z-13.000 F300.000 
G2 X12.540 Y23.133 Z-13.000 I0.009 J6.329 F300.000 
G1 X12.530 Y74.180 Z-13.000 F300.000 
G2 X18.608 Y80.495 Z-13.000 I6.329 J-0.009 F300.000 
G1 X85.525 Y80.505 Z-13.000 F300.000 
G1 X177.338 Y79.078 Z-13.000 F300.000 
G1 X178.338 Y79.062 Z-12.000 F210.000 
G1 X222.522 Y78.376 Z-12.000 F300.000 
G1 X223.522 Y78.360 Z-13.000 F210.000 
G1 X407.147 Y75.506 Z-13.000 F300.000 
G1 X408.147 Y75.490 Z-12.000 F210.000 
G1 X452.332 Y74.804 Z-12.000 F300.000 
G1 X453.332 Y74.788 Z-13.000 F210.000 
G1 X545.145 Y73.361 Z-13.000 F300.000 
G3 X550.002 Y73.364 Z-13.000 I2.339 J159.040 F300.000 
G3 X587.812 Y97.995 Z-13.000 I-0.126 J41.528 F300.000 
G2 X591.934 Y99.531 Z-13.000 I2.848 J-1.345 F300.000 
G3 X605.870 Y94.132 Z-13.000 I52.957 J116.015 F300.000 
G3 X628.142 Y88.421 Z-13.000 I66.468 J212.916 F300.000 
G3 X661.021 Y83.703 Z-13.000 I63.215 J323.659 F300.000 
G3 X713.274 Y82.259 Z-13.000 I37.543 J412.380 F300.000 
G2 X717.635 Y80.860 Z-13.000 I-0.050 J-7.648 F300.000 
G1 X717.635 Y80.860 Z-16.000 F120.000 
G2 X720.554 Y72.426 Z-16.000 I-4.411 J-6.248 F300.000 
G3 X728.557 Y26.871 Z-16.000 I44.145 J-15.725 F300.000 
G2 X721.730 Y13.847 Z-16.000 I-5.166 J-5.593 F300.000 
G3 X665.581 Y14.420 Z-16.000 I-31.833 J-368.098 F300.000 
G3 X633.228 Y10.603 Z-16.000 I17.698 J-288.988 F300.000 
G3 X607.803 Y4.423 Z-16.000 I31.295 J-184.155 F300.000 
G3 X592.577 Y-1.818 Z-16.000 I30.338 J-95.700 F300.000 
G1 X592.062 Y-2.021 Z-16.000 F300.000 
G2 X588.326 Y-0.353 Z-16.000 I-0.892 J3.021 F300.000 
G3 X551.623 Y24.183 Z-16.000 I-37.937 J-17.029 F300.000 
G3 X545.129 Y24.199 Z-16.000 I-4.133 J-362.213 F300.000 
G1 X456.332 Y22.818 Z-16.000 F300.000 
G1 X452.333 Y22.756 Z-12.000 F210.000 
G1 X408.148 Y22.070 Z-12.000 F300.000 
G1 X404.149 Y22.007 Z-16.000 F210.000 
G1 X226.555 Y19.247 Z-16.000 F300.000 
G1 X222.555 Y19.185 Z-12.000 F210.000 
G1 X178.371 Y18.498 Z-12.000 F300.000 
G1 X174.371 Y18.436 Z-16.000 F210.000 
G1 X85.574 Y17.055 Z-16.000 F300.000 
G1 X18.855 Y17.055 Z-16.000 F300.000 
G2 X12.540 Y23.133 Z-16.000 I0.009 J6.329 F300.000 
G1 X12.530 Y74.180 Z-16.000 F300.000 
G2 X18.608 Y80.495 Z-16.000 I6.329 J-0.009 F300.000 
G1 X85.525 Y80.505 Z-16.000 F300.000 
G1 X174.338 Y79.125 Z-16.000 F300.000 
G1 X178.338 Y79.062 Z-12.000 F210.000 
G1 X222.522 Y78.376 Z-12.000 F300.000 
G1 X226.522 Y78.313 Z-16.000 F210.000 
G1 X404.148 Y75.553 Z-16.000 F300.000 
G1 X408.147 Y75.490 Z-12.000 F210.000 
G1 X452.332 Y74.804 Z-12.000 F300.000 
G1 X456.332 Y74.741 Z-16.000 F210.000 
G1 X545.145 Y73.361 Z-16.000 F300.000 
G3 X550.002 Y73.364 Z-16.000 I2.339 J159.040 F300.000 
G3 X587.812 Y97.995 Z-16.000 I-0.126 J41.528 F300.000 
G2 X591.934 Y99.531 Z-16.000 I2.848 J-1.345 F300.000 
G3 X605.870 Y94.132 Z-16.000 I52.957 J116.015 F300.000 
G3 X628.142 Y88.421 Z-16.000 I66.468 J212.916 F300.000 
G3 X661.021 Y83.703 Z-16.000 I63.215 J323.659 F300.000 
G3 X713.274 Y82.259 Z-16.000 I37.543 J412.380 F300.000 
G2 X717.635 Y80.860 Z-16.000 I-0.050 J-7.648 F300.000 
G0 X717.635 Y80.860 Z4.000 
(finish operation: external neck with tags)
(begin postamble)
M05
G17 G54 G90 G80 G40
M2
