(Exported by FreeCAD)
(Post Processor: linuxcnc_post)
(Output Time:2024-07-19 15:02:22.622443)
(begin preamble)
G17 G54 G40 G49 G80 G90
G21
(begin operation: Fixture)
(machine units: mm/min)
G54 
(finish operation: Fixture)
(begin operation: TC: 6.3mm_Endmill001)
(machine units: mm/min)
(TC: 6.3mm_Endmill001) 
M5
M6 T10 
G43 H10 
M3 S600 
(finish operation: TC: 6.3mm_Endmill001)
(begin operation: DressupTag)
(machine units: mm/min)
G0 Z5.000 
G0 X411.985 Y283.158 Z5.000 
G0 X411.985 Y283.158 Z3.000 
G1 X411.985 Y283.158 Z-3.000 F120.000 
G2 X426.407 Y272.428 Z-3.000 I-11.885 J-31.030 F300.000 
G2 X430.486 Y264.909 Z-3.000 I-19.319 J-15.348 F300.000 
G2 X431.411 Y259.060 Z-3.000 I-15.050 J-5.377 F300.000 
G2 X427.126 Y250.074 Z-3.000 I-12.001 J0.208 F300.000 
G2 X421.970 Y247.159 Z-3.000 I-11.464 J14.260 F300.000 
G2 X416.841 Y245.807 Z-3.000 I-11.367 J32.717 F300.000 
G3 X412.036 Y244.864 Z-3.000 I12.060 J-74.160 F300.000 
G3 X402.003 Y241.178 Z-3.000 I11.899 J-47.885 F300.000 
G3 X393.484 Y235.532 Z-3.000 I15.769 J-33.042 F300.000 
G3 X385.757 Y226.375 Z-3.000 I32.173 J-34.986 F300.000 
G3 X381.081 Y215.401 Z-3.000 I26.555 J-17.798 F300.000 
G3 X379.764 Y206.291 Z-3.000 I89.285 J-17.562 F300.000 
G3 X379.240 Y199.460 Z-3.000 I365.076 J-31.443 F300.000 
G1 X379.240 Y133.075 Z-3.000 F300.000 
G3 X378.956 Y121.998 Z-3.000 I83.089 J-7.673 F300.000 
G3 X382.336 Y105.283 Z-3.000 I51.911 J1.799 F300.000 
G3 X391.476 Y90.972 Z-3.000 I36.947 J13.524 F300.000 
G3 X397.900 Y85.725 Z-3.000 I31.034 J31.435 F300.000 
G3 X404.412 Y81.592 Z-3.000 I76.226 J112.900 F300.000 
G2 X410.159 Y77.415 Z-3.000 I-16.545 J-28.806 F300.000 
G2 X413.675 Y71.821 Z-3.000 I-8.653 J-9.339 F300.000 
G2 X413.485 Y63.807 Z-3.000 I-12.884 J-3.705 F300.000 
G2 X410.289 Y57.995 Z-3.000 I-19.587 J6.986 F300.000 
G2 X402.048 Y50.881 Z-3.000 I-24.210 J19.714 F300.000 
G2 X372.629 Y46.013 Z-3.000 I-21.050 J35.886 F300.000 
G2 X361.618 Y49.429 Z-3.000 I14.627 J66.595 F300.000 
G2 X351.806 Y53.914 Z-3.000 I60.147 J144.589 F300.000 
G2 X342.979 Y58.475 Z-3.000 I197.448 J392.889 F300.000 
G3 X331.627 Y64.097 Z-3.000 I-116.623 J-221.209 F300.000 
G3 X321.077 Y68.084 Z-3.000 I-32.490 J-70.017 F300.000 
G3 X312.992 Y69.582 Z-3.000 I-11.512 J-39.569 F300.000 
G3 X300.344 Y67.767 Z-3.000 I-2.295 J-28.984 F300.000 
G3 X291.619 Y63.375 Z-3.000 I21.157 J-52.880 F300.000 
G3 X282.874 Y57.383 Z-3.000 I74.462 J-118.058 F300.000 
G3 X269.906 Y47.167 Z-3.000 I258.412 J-341.375 F300.000 
G2 X249.286 Y30.937 Z-3.000 I-360.030 J436.205 F300.000 
G2 X232.543 Y19.518 Z-3.000 I-139.530 J186.597 F300.000 
G2 X214.166 Y9.551 Z-3.000 I-86.180 J136.977 F300.000 
G2 X157.908 Y-3.141 Z-3.000 I-57.580 J124.201 F300.000 
G2 X107.409 Y5.503 Z-3.000 I-2.080 J139.694 F300.000 
G2 X54.319 Y42.244 Z-3.000 I43.979 J120.274 F300.000 
G2 X37.508 Y66.692 Z-3.000 I111.470 J94.656 F300.000 
G2 X23.023 Y102.855 Z-3.000 I149.391 J80.818 F300.000 
G2 X16.672 Y138.090 Z-3.000 I205.497 J55.228 F300.000 
G2 X15.541 Y157.066 Z-3.000 I299.615 J27.383 F300.000 
G2 X15.942 Y189.940 Z-3.000 I472.019 J10.687 F300.000 
G2 X17.741 Y210.644 Z-3.000 I241.962 J-10.595 F300.000 
G2 X22.559 Y234.559 Z-3.000 I158.902 J-19.569 F300.000 
G2 X41.425 Y274.692 Z-3.000 I128.434 J-35.874 F300.000 
G2 X59.542 Y295.939 Z-3.000 I110.241 J-75.657 F300.000 
G2 X93.252 Y319.145 Z-3.000 I91.801 J-97.261 F300.000 
G2 X169.994 Y333.425 Z-3.000 I64.890 J-135.377 F300.000 
G2 X197.697 Y328.244 Z-3.000 I-9.752 J-128.783 F300.000 
G2 X219.966 Y318.821 Z-3.000 I-31.507 J-105.489 F300.000 
G2 X239.530 Y306.170 Z-3.000 I-101.286 J-178.089 F300.000 
G2 X252.813 Y295.880 Z-3.000 I-225.727 J-305.070 F300.000 
G2 X265.719 Y285.249 Z-3.000 I-7661.150 J-9314.430 F300.000 
G3 X281.552 Y272.914 Z-3.000 I176.718 J210.495 F300.000 
G3 X292.691 Y265.944 Z-3.000 I58.158 J80.559 F300.000 
G3 X301.404 Y262.172 Z-3.000 I25.582 J47.145 F300.000 
G3 X311.969 Y260.297 Z-3.000 I11.018 J31.375 F300.000 
G3 X321.713 Y261.592 Z-3.000 I-0.093 J37.997 F300.000 
G3 X332.864 Y265.640 Z-3.000 I-20.835 J74.784 F300.000 
G3 X348.284 Y273.309 Z-3.000 I-164.192 J349.492 F300.000 
G2 X362.939 Y280.090 Z-3.000 I78.734 J-150.925 F300.000 
G2 X382.147 Y285.064 Z-3.000 I29.253 J-73.386 F300.000 
G2 X400.272 Y285.536 Z-3.000 I11.727 J-102.056 F300.000 
G2 X407.342 Y284.558 Z-3.000 I-1.882 J-39.634 F300.000 
G2 X411.985 Y283.158 Z-3.000 I-7.242 J-32.430 F300.000 
G1 X411.985 Y283.158 Z-6.000 F120.000 
G2 X426.407 Y272.428 Z-6.000 I-11.885 J-31.030 F300.000 
G2 X430.486 Y264.909 Z-6.000 I-19.319 J-15.348 F300.000 
G2 X431.411 Y259.060 Z-6.000 I-15.050 J-5.377 F300.000 
G2 X427.126 Y250.074 Z-6.000 I-12.001 J0.208 F300.000 
G2 X421.970 Y247.159 Z-6.000 I-11.464 J14.260 F300.000 
G2 X416.841 Y245.807 Z-6.000 I-11.367 J32.717 F300.000 
G3 X412.036 Y244.864 Z-6.000 I12.060 J-74.160 F300.000 
G3 X402.003 Y241.178 Z-6.000 I11.899 J-47.885 F300.000 
G3 X393.484 Y235.532 Z-6.000 I15.769 J-33.042 F300.000 
G3 X385.757 Y226.375 Z-6.000 I32.173 J-34.986 F300.000 
G3 X381.081 Y215.401 Z-6.000 I26.555 J-17.798 F300.000 
G3 X379.764 Y206.291 Z-6.000 I89.285 J-17.562 F300.000 
G3 X379.240 Y199.460 Z-6.000 I365.076 J-31.443 F300.000 
G1 X379.240 Y133.075 Z-6.000 F300.000 
G3 X378.956 Y121.998 Z-6.000 I83.089 J-7.673 F300.000 
G3 X382.336 Y105.283 Z-6.000 I51.911 J1.799 F300.000 
G3 X391.476 Y90.972 Z-6.000 I36.947 J13.524 F300.000 
G3 X397.900 Y85.725 Z-6.000 I31.034 J31.435 F300.000 
G3 X404.412 Y81.592 Z-6.000 I76.226 J112.900 F300.000 
G2 X410.159 Y77.415 Z-6.000 I-16.545 J-28.806 F300.000 
G2 X413.675 Y71.821 Z-6.000 I-8.653 J-9.339 F300.000 
G2 X413.485 Y63.807 Z-6.000 I-12.884 J-3.705 F300.000 
G2 X410.289 Y57.995 Z-6.000 I-19.587 J6.986 F300.000 
G2 X402.048 Y50.881 Z-6.000 I-24.210 J19.714 F300.000 
G2 X372.629 Y46.013 Z-6.000 I-21.050 J35.886 F300.000 
G2 X361.618 Y49.429 Z-6.000 I14.627 J66.595 F300.000 
G2 X351.806 Y53.914 Z-6.000 I60.147 J144.589 F300.000 
G2 X342.979 Y58.475 Z-6.000 I197.448 J392.889 F300.000 
G3 X331.627 Y64.097 Z-6.000 I-116.623 J-221.209 F300.000 
G3 X321.077 Y68.084 Z-6.000 I-32.490 J-70.017 F300.000 
G3 X312.992 Y69.582 Z-6.000 I-11.512 J-39.569 F300.000 
G3 X300.344 Y67.767 Z-6.000 I-2.295 J-28.984 F300.000 
G3 X291.619 Y63.375 Z-6.000 I21.157 J-52.880 F300.000 
G3 X282.874 Y57.383 Z-6.000 I74.462 J-118.058 F300.000 
G3 X269.906 Y47.167 Z-6.000 I258.412 J-341.375 F300.000 
G2 X249.286 Y30.937 Z-6.000 I-360.030 J436.205 F300.000 
G2 X232.543 Y19.518 Z-6.000 I-139.530 J186.597 F300.000 
G2 X214.166 Y9.551 Z-6.000 I-86.180 J136.977 F300.000 
G2 X157.908 Y-3.141 Z-6.000 I-57.580 J124.201 F300.000 
G2 X107.409 Y5.503 Z-6.000 I-2.080 J139.694 F300.000 
G2 X54.319 Y42.244 Z-6.000 I43.979 J120.274 F300.000 
G2 X37.508 Y66.692 Z-6.000 I111.470 J94.656 F300.000 
G2 X23.023 Y102.855 Z-6.000 I149.391 J80.818 F300.000 
G2 X16.672 Y138.090 Z-6.000 I205.497 J55.228 F300.000 
G2 X15.541 Y157.066 Z-6.000 I299.615 J27.383 F300.000 
G2 X15.942 Y189.940 Z-6.000 I472.019 J10.687 F300.000 
G2 X17.741 Y210.644 Z-6.000 I241.962 J-10.595 F300.000 
G2 X22.559 Y234.559 Z-6.000 I158.902 J-19.569 F300.000 
G2 X41.425 Y274.692 Z-6.000 I128.434 J-35.874 F300.000 
G2 X59.542 Y295.939 Z-6.000 I110.241 J-75.657 F300.000 
G2 X93.252 Y319.145 Z-6.000 I91.801 J-97.261 F300.000 
G2 X169.994 Y333.425 Z-6.000 I64.890 J-135.377 F300.000 
G2 X197.697 Y328.244 Z-6.000 I-9.752 J-128.783 F300.000 
G2 X219.966 Y318.821 Z-6.000 I-31.507 J-105.489 F300.000 
G2 X239.530 Y306.170 Z-6.000 I-101.286 J-178.089 F300.000 
G2 X252.813 Y295.880 Z-6.000 I-225.727 J-305.070 F300.000 
G2 X265.719 Y285.249 Z-6.000 I-7661.150 J-9314.430 F300.000 
G3 X281.552 Y272.914 Z-6.000 I176.718 J210.495 F300.000 
G3 X292.691 Y265.944 Z-6.000 I58.158 J80.559 F300.000 
G3 X301.404 Y262.172 Z-6.000 I25.582 J47.145 F300.000 
G3 X311.969 Y260.297 Z-6.000 I11.018 J31.375 F300.000 
G3 X321.713 Y261.592 Z-6.000 I-0.093 J37.997 F300.000 
G3 X332.864 Y265.640 Z-6.000 I-20.835 J74.784 F300.000 
G3 X348.284 Y273.309 Z-6.000 I-164.192 J349.492 F300.000 
G2 X362.939 Y280.090 Z-6.000 I78.734 J-150.925 F300.000 
G2 X382.147 Y285.064 Z-6.000 I29.253 J-73.386 F300.000 
G2 X400.272 Y285.536 Z-6.000 I11.727 J-102.056 F300.000 
G2 X407.342 Y284.558 Z-6.000 I-1.882 J-39.634 F300.000 
G2 X411.985 Y283.158 Z-6.000 I-7.242 J-32.430 F300.000 
G1 X411.985 Y283.158 Z-9.000 F120.000 
G2 X426.407 Y272.428 Z-9.000 I-11.885 J-31.030 F300.000 
G2 X430.486 Y264.909 Z-9.000 I-19.319 J-15.348 F300.000 
G2 X431.411 Y259.060 Z-9.000 I-15.050 J-5.377 F300.000 
G2 X427.126 Y250.074 Z-9.000 I-12.001 J0.208 F300.000 
G2 X421.970 Y247.159 Z-9.000 I-11.464 J14.260 F300.000 
G2 X416.841 Y245.807 Z-9.000 I-11.367 J32.717 F300.000 
G3 X412.036 Y244.864 Z-9.000 I12.060 J-74.160 F300.000 
G3 X402.003 Y241.178 Z-9.000 I11.899 J-47.885 F300.000 
G3 X393.484 Y235.532 Z-9.000 I15.769 J-33.042 F300.000 
G3 X385.757 Y226.375 Z-9.000 I32.173 J-34.986 F300.000 
G3 X381.081 Y215.401 Z-9.000 I26.555 J-17.798 F300.000 
G3 X379.764 Y206.291 Z-9.000 I89.285 J-17.562 F300.000 
G3 X379.240 Y199.460 Z-9.000 I365.076 J-31.443 F300.000 
G1 X379.240 Y168.298 Z-9.000 F300.000 
G1 X379.240 Y166.298 Z-7.000 F210.000 
G1 X379.240 Y166.238 Z-7.000 F300.000 
G1 X379.240 Y164.238 Z-9.000 F210.000 
G1 X379.240 Y133.075 Z-9.000 F300.000 
G3 X378.956 Y121.998 Z-9.000 I83.089 J-7.673 F300.000 
G3 X382.336 Y105.283 Z-9.000 I51.911 J1.799 F300.000 
G3 X391.476 Y90.972 Z-9.000 I36.947 J13.524 F300.000 
G3 X397.900 Y85.725 Z-9.000 I31.034 J31.435 F300.000 
G3 X404.412 Y81.592 Z-9.000 I76.226 J112.900 F300.000 
G2 X410.159 Y77.415 Z-9.000 I-16.545 J-28.806 F300.000 
G2 X413.675 Y71.821 Z-9.000 I-8.653 J-9.339 F300.000 
G2 X413.485 Y63.807 Z-9.000 I-12.884 J-3.705 F300.000 
G2 X410.289 Y57.995 Z-9.000 I-19.587 J6.986 F300.000 
G2 X402.048 Y50.881 Z-9.000 I-24.210 J19.714 F300.000 
G2 X372.629 Y46.013 Z-9.000 I-21.050 J35.886 F300.000 
G2 X361.618 Y49.429 Z-9.000 I14.627 J66.595 F300.000 
G2 X351.806 Y53.914 Z-9.000 I60.147 J144.589 F300.000 
G2 X342.979 Y58.475 Z-9.000 I197.448 J392.889 F300.000 
G3 X331.627 Y64.097 Z-9.000 I-116.623 J-221.209 F300.000 
G3 X321.077 Y68.084 Z-9.000 I-32.490 J-70.017 F300.000 
G3 X312.992 Y69.582 Z-9.000 I-11.512 J-39.569 F300.000 
G3 X300.344 Y67.767 Z-9.000 I-2.295 J-28.984 F300.000 
G3 X291.619 Y63.375 Z-9.000 I21.157 J-52.880 F300.000 
G3 X282.874 Y57.383 Z-9.000 I74.462 J-118.058 F300.000 
G3 X277.939 Y53.590 Z-9.000 I258.412 J-341.375 F300.000 
G1 X276.365 Y52.356 Z-7.000 F210.000 
G3 X276.318 Y52.319 Z-7.000 I264.922 J-336.348 F300.000 
G1 X274.749 Y51.078 Z-9.000 F210.000 
G3 X269.906 Y47.167 Z-9.000 I266.537 J-335.070 F300.000 
G2 X249.286 Y30.937 Z-9.000 I-360.030 J436.205 F300.000 
G2 X232.543 Y19.518 Z-9.000 I-139.530 J186.597 F300.000 
G2 X214.166 Y9.551 Z-9.000 I-86.180 J136.977 F300.000 
G2 X157.908 Y-3.141 Z-9.000 I-57.580 J124.201 F300.000 
G2 X107.409 Y5.503 Z-9.000 I-2.080 J139.694 F300.000 
G2 X54.319 Y42.244 Z-9.000 I43.979 J120.274 F300.000 
G2 X46.454 Y52.376 Z-9.000 I111.470 J94.656 F300.000 
G1 X45.309 Y54.016 Z-7.000 F210.000 
G2 X45.275 Y54.065 Z-7.000 I120.481 J82.884 F300.000 
G1 X44.153 Y55.721 Z-9.000 F210.000 
G2 X37.508 Y66.692 Z-9.000 I121.636 J81.179 F300.000 
G2 X23.023 Y102.855 Z-9.000 I149.391 J80.818 F300.000 
G2 X16.672 Y138.090 Z-9.000 I205.497 J55.228 F300.000 
G2 X15.541 Y157.066 Z-9.000 I299.615 J27.383 F300.000 
G2 X15.942 Y189.940 Z-9.000 I472.019 J10.687 F300.000 
G2 X17.741 Y210.644 Z-9.000 I241.962 J-10.595 F300.000 
G2 X22.559 Y234.559 Z-9.000 I158.902 J-19.569 F300.000 
G2 X41.425 Y274.692 Z-9.000 I128.434 J-35.874 F300.000 
G2 X59.542 Y295.939 Z-9.000 I110.241 J-75.657 F300.000 
G2 X93.252 Y319.145 Z-9.000 I91.801 J-97.261 F300.000 
G2 X128.685 Y330.976 Z-9.000 I64.890 J-135.377 F300.000 
G1 X130.649 Y331.355 Z-7.000 F210.000 
G2 X130.708 Y331.366 Z-7.000 I27.493 J-147.586 F300.000 
G1 X132.677 Y331.718 Z-9.000 F210.000 
G2 X169.994 Y333.425 Z-9.000 I25.465 J-147.950 F300.000 
G2 X197.697 Y328.244 Z-9.000 I-9.752 J-128.783 F300.000 
G2 X219.966 Y318.821 Z-9.000 I-31.507 J-105.489 F300.000 
G2 X239.530 Y306.170 Z-9.000 I-101.286 J-178.089 F300.000 
G2 X252.813 Y295.880 Z-9.000 I-225.727 J-305.070 F300.000 
G2 X265.719 Y285.249 Z-9.000 I-7661.150 J-9314.430 F300.000 
G3 X281.552 Y272.914 Z-9.000 I176.718 J210.495 F300.000 
G3 X292.691 Y265.944 Z-9.000 I58.158 J80.559 F300.000 
G3 X301.404 Y262.172 Z-9.000 I25.582 J47.145 F300.000 
G3 X311.969 Y260.297 Z-9.000 I11.018 J31.375 F300.000 
G3 X321.713 Y261.592 Z-9.000 I-0.093 J37.997 F300.000 
G3 X332.864 Y265.640 Z-9.000 I-20.835 J74.784 F300.000 
G3 X348.284 Y273.309 Z-9.000 I-164.192 J349.492 F300.000 
G2 X362.939 Y280.090 Z-9.000 I78.734 J-150.925 F300.000 
G2 X382.147 Y285.064 Z-9.000 I29.253 J-73.386 F300.000 
G2 X400.272 Y285.536 Z-9.000 I11.727 J-102.056 F300.000 
G2 X407.342 Y284.558 Z-9.000 I-1.882 J-39.634 F300.000 
G2 X411.985 Y283.158 Z-9.000 I-7.242 J-32.430 F300.000 
G1 X411.985 Y283.158 Z-12.000 F120.000 
G2 X426.407 Y272.428 Z-12.000 I-11.885 J-31.030 F300.000 
G2 X430.486 Y264.909 Z-12.000 I-19.319 J-15.348 F300.000 
G2 X431.411 Y259.060 Z-12.000 I-15.050 J-5.377 F300.000 
G2 X427.126 Y250.074 Z-12.000 I-12.001 J0.208 F300.000 
G2 X421.970 Y247.159 Z-12.000 I-11.464 J14.260 F300.000 
G2 X416.841 Y245.807 Z-12.000 I-11.367 J32.717 F300.000 
G3 X412.036 Y244.864 Z-12.000 I12.060 J-74.160 F300.000 
G3 X402.003 Y241.178 Z-12.000 I11.899 J-47.885 F300.000 
G3 X393.484 Y235.532 Z-12.000 I15.769 J-33.042 F300.000 
G3 X385.757 Y226.375 Z-12.000 I32.173 J-34.986 F300.000 
G3 X381.081 Y215.401 Z-12.000 I26.555 J-17.798 F300.000 
G3 X379.764 Y206.291 Z-12.000 I89.285 J-17.562 F300.000 
G3 X379.240 Y199.460 Z-12.000 I365.076 J-31.443 F300.000 
G1 X379.240 Y171.298 Z-12.000 F300.000 
G1 X379.240 Y166.298 Z-7.000 F210.000 
G1 X379.240 Y166.238 Z-7.000 F300.000 
G1 X379.240 Y161.238 Z-12.000 F210.000 
G1 X379.240 Y133.075 Z-12.000 F300.000 
G3 X378.956 Y121.998 Z-12.000 I83.089 J-7.673 F300.000 
G3 X382.336 Y105.283 Z-12.000 I51.911 J1.799 F300.000 
G3 X391.476 Y90.972 Z-12.000 I36.947 J13.524 F300.000 
G3 X397.900 Y85.725 Z-12.000 I31.034 J31.435 F300.000 
G3 X404.412 Y81.592 Z-12.000 I76.226 J112.900 F300.000 
G2 X410.159 Y77.415 Z-12.000 I-16.545 J-28.806 F300.000 
G2 X413.675 Y71.821 Z-12.000 I-8.653 J-9.339 F300.000 
G2 X413.485 Y63.807 Z-12.000 I-12.884 J-3.705 F300.000 
G2 X410.289 Y57.995 Z-12.000 I-19.587 J6.986 F300.000 
G2 X402.048 Y50.881 Z-12.000 I-24.210 J19.714 F300.000 
G2 X372.629 Y46.013 Z-12.000 I-21.050 J35.886 F300.000 
G2 X361.618 Y49.429 Z-12.000 I14.627 J66.595 F300.000 
G2 X351.806 Y53.914 Z-12.000 I60.147 J144.589 F300.000 
G2 X342.979 Y58.475 Z-12.000 I197.448 J392.889 F300.000 
G3 X331.627 Y64.097 Z-12.000 I-116.623 J-221.209 F300.000 
G3 X321.077 Y68.084 Z-12.000 I-32.490 J-70.017 F300.000 
G3 X312.992 Y69.582 Z-12.000 I-11.512 J-39.569 F300.000 
G3 X300.344 Y67.767 Z-12.000 I-2.295 J-28.984 F300.000 
G3 X291.619 Y63.375 Z-12.000 I21.157 J-52.880 F300.000 
G3 X282.874 Y57.383 Z-12.000 I74.462 J-118.058 F300.000 
G3 X280.311 Y55.427 Z-12.000 I258.412 J-341.375 F300.000 
G1 X276.365 Y52.356 Z-7.000 F210.000 
G3 X276.318 Y52.319 Z-7.000 I264.922 J-336.348 F300.000 
G1 X272.408 Y49.202 Z-12.000 F210.000 
G3 X269.906 Y47.167 Z-12.000 I268.878 J-333.194 F300.000 
G2 X249.286 Y30.937 Z-12.000 I-360.030 J436.205 F300.000 
G2 X232.543 Y19.518 Z-12.000 I-139.530 J186.597 F300.000 
G2 X214.166 Y9.551 Z-12.000 I-86.180 J136.977 F300.000 
G2 X157.908 Y-3.141 Z-12.000 I-57.580 J124.201 F300.000 
G2 X107.409 Y5.503 Z-12.000 I-2.080 J139.694 F300.000 
G2 X54.319 Y42.244 Z-12.000 I43.979 J120.274 F300.000 
G2 X48.213 Y49.945 Z-12.000 I111.470 J94.656 F300.000 
G1 X46.741 Y51.971 Z-9.496 F210.004 
G1 X45.309 Y54.016 Z-7.000 F210.000 
G2 X45.275 Y54.065 Z-7.000 I120.481 J82.884 F300.000 
G1 X43.458 Y56.773 Z-10.261 F210.000 
G1 X42.513 Y58.234 Z-12.000 F210.006 
G2 X37.508 Y66.692 Z-12.000 I123.276 J78.666 F300.000 
G2 X23.023 Y102.855 Z-12.000 I149.391 J80.818 F300.000 
G2 X16.672 Y138.090 Z-12.000 I205.497 J55.228 F300.000 
G2 X15.541 Y157.066 Z-12.000 I299.615 J27.383 F300.000 
G2 X15.942 Y189.940 Z-12.000 I472.019 J10.687 F300.000 
G2 X17.741 Y210.644 Z-12.000 I241.962 J-10.595 F300.000 
G2 X22.559 Y234.559 Z-12.000 I158.902 J-19.569 F300.000 
G2 X41.425 Y274.692 Z-12.000 I128.434 J-35.874 F300.000 
G2 X59.542 Y295.939 Z-12.000 I110.241 J-75.657 F300.000 
G2 X93.252 Y319.145 Z-12.000 I91.801 J-97.261 F300.000 
G2 X125.749 Y330.358 Z-12.000 I64.890 J-135.377 F300.000 
G1 X128.954 Y331.029 Z-8.726 F210.003 
G1 X130.649 Y331.355 Z-7.000 F210.000 
G2 X130.708 Y331.366 Z-7.000 I27.493 J-147.586 F300.000 
G1 X133.472 Y331.853 Z-9.807 F210.000 
G1 X135.638 Y332.198 Z-12.000 F210.005 
G2 X169.994 Y333.425 Z-12.000 I22.504 J-148.429 F300.000 
G2 X197.697 Y328.244 Z-12.000 I-9.752 J-128.783 F300.000 
G2 X219.966 Y318.821 Z-12.000 I-31.507 J-105.489 F300.000 
G2 X239.530 Y306.170 Z-12.000 I-101.286 J-178.089 F300.000 
G2 X252.813 Y295.880 Z-12.000 I-225.727 J-305.070 F300.000 
G2 X265.719 Y285.249 Z-12.000 I-7661.150 J-9314.430 F300.000 
G3 X281.552 Y272.914 Z-12.000 I176.718 J210.495 F300.000 
G3 X292.691 Y265.944 Z-12.000 I58.158 J80.559 F300.000 
G3 X301.404 Y262.172 Z-12.000 I25.582 J47.145 F300.000 
G3 X311.969 Y260.297 Z-12.000 I11.018 J31.375 F300.000 
G3 X321.713 Y261.592 Z-12.000 I-0.093 J37.997 F300.000 
G3 X332.864 Y265.640 Z-12.000 I-20.835 J74.784 F300.000 
G3 X348.284 Y273.309 Z-12.000 I-164.192 J349.492 F300.000 
G2 X362.939 Y280.090 Z-12.000 I78.734 J-150.925 F300.000 
G2 X382.147 Y285.064 Z-12.000 I29.253 J-73.386 F300.000 
G2 X400.272 Y285.536 Z-12.000 I11.727 J-102.056 F300.000 
G2 X407.342 Y284.558 Z-12.000 I-1.882 J-39.634 F300.000 
G2 X411.985 Y283.158 Z-12.000 I-7.242 J-32.430 F300.000 
G1 X411.985 Y283.158 Z-14.000 F120.000 
G2 X426.407 Y272.428 Z-14.000 I-11.885 J-31.030 F300.000 
G2 X430.486 Y264.909 Z-14.000 I-19.319 J-15.348 F300.000 
G2 X431.411 Y259.060 Z-14.000 I-15.050 J-5.377 F300.000 
G2 X427.126 Y250.074 Z-14.000 I-12.001 J0.208 F300.000 
G2 X421.970 Y247.159 Z-14.000 I-11.464 J14.260 F300.000 
G2 X416.841 Y245.807 Z-14.000 I-11.367 J32.717 F300.000 
G3 X412.036 Y244.864 Z-14.000 I12.060 J-74.160 F300.000 
G3 X402.003 Y241.178 Z-14.000 I11.899 J-47.885 F300.000 
G3 X393.484 Y235.532 Z-14.000 I15.769 J-33.042 F300.000 
G3 X385.757 Y226.375 Z-14.000 I32.173 J-34.986 F300.000 
G3 X381.081 Y215.401 Z-14.000 I26.555 J-17.798 F300.000 
G3 X379.764 Y206.291 Z-14.000 I89.285 J-17.562 F300.000 
G3 X379.240 Y199.460 Z-14.000 I365.076 J-31.443 F300.000 
G1 X379.240 Y173.298 Z-14.000 F300.000 
G1 X379.240 Y166.298 Z-7.000 F210.000 
G1 X379.240 Y166.238 Z-7.000 F300.000 
G1 X379.240 Y159.238 Z-14.000 F210.000 
G1 X379.240 Y133.075 Z-14.000 F300.000 
G3 X378.956 Y121.998 Z-14.000 I83.089 J-7.673 F300.000 
G3 X382.336 Y105.283 Z-14.000 I51.911 J1.799 F300.000 
G3 X391.476 Y90.972 Z-14.000 I36.947 J13.524 F300.000 
G3 X397.900 Y85.725 Z-14.000 I31.034 J31.435 F300.000 
G3 X404.412 Y81.592 Z-14.000 I76.226 J112.900 F300.000 
G2 X410.159 Y77.415 Z-14.000 I-16.545 J-28.806 F300.000 
G2 X413.675 Y71.821 Z-14.000 I-8.653 J-9.339 F300.000 
G2 X413.485 Y63.807 Z-14.000 I-12.884 J-3.705 F300.000 
G2 X410.289 Y57.995 Z-14.000 I-19.587 J6.986 F300.000 
G2 X402.048 Y50.881 Z-14.000 I-24.210 J19.714 F300.000 
G2 X372.629 Y46.013 Z-14.000 I-21.050 J35.886 F300.000 
G2 X361.618 Y49.429 Z-14.000 I14.627 J66.595 F300.000 
G2 X351.806 Y53.914 Z-14.000 I60.147 J144.589 F300.000 
G2 X342.979 Y58.475 Z-14.000 I197.448 J392.889 F300.000 
G3 X331.627 Y64.097 Z-14.000 I-116.623 J-221.209 F300.000 
G3 X321.077 Y68.084 Z-14.000 I-32.490 J-70.017 F300.000 
G3 X312.992 Y69.582 Z-14.000 I-11.512 J-39.569 F300.000 
G3 X300.344 Y67.767 Z-14.000 I-2.295 J-28.984 F300.000 
G3 X291.619 Y63.375 Z-14.000 I21.157 J-52.880 F300.000 
G3 X282.874 Y57.383 Z-14.000 I74.462 J-118.058 F300.000 
G3 X281.899 Y56.642 Z-14.000 I258.412 J-341.375 F300.000 
G1 X279.126 Y54.513 Z-10.504 F210.001 
G1 X276.365 Y52.356 Z-7.000 F210.000 
G3 X276.318 Y52.319 Z-7.000 I264.922 J-336.348 F300.000 
G1 X270.855 Y47.942 Z-14.000 F210.000 
G3 X269.906 Y47.167 Z-14.000 I270.432 J-331.935 F300.000 
G2 X249.286 Y30.937 Z-14.000 I-360.030 J436.205 F300.000 
G2 X232.543 Y19.518 Z-14.000 I-139.530 J186.597 F300.000 
G2 X214.166 Y9.551 Z-14.000 I-86.180 J136.977 F300.000 
G2 X157.908 Y-3.141 Z-14.000 I-57.580 J124.201 F300.000 
G2 X107.409 Y5.503 Z-14.000 I-2.080 J139.694 F300.000 
G2 X54.319 Y42.244 Z-14.000 I43.979 J120.274 F300.000 
G2 X49.413 Y48.345 Z-14.000 I111.470 J94.656 F300.000 
G1 X47.335 Y51.144 Z-10.515 F210.008 
G1 X45.309 Y54.016 Z-7.000 F210.000 
G2 X45.275 Y54.065 Z-7.000 I120.481 J82.884 F300.000 
G1 X43.458 Y56.773 Z-10.261 F210.000 
G1 X41.449 Y59.927 Z-14.000 F210.008 
G2 X37.508 Y66.692 Z-14.000 I124.341 J76.973 F300.000 
G2 X23.023 Y102.855 Z-14.000 I149.391 J80.818 F300.000 
G2 X16.672 Y138.090 Z-14.000 I205.497 J55.228 F300.000 
G2 X15.541 Y157.066 Z-14.000 I299.615 J27.383 F300.000 
G2 X15.942 Y189.940 Z-14.000 I472.019 J10.687 F300.000 
G2 X17.741 Y210.644 Z-14.000 I241.962 J-10.595 F300.000 
G2 X22.559 Y234.559 Z-14.000 I158.902 J-19.569 F300.000 
G2 X41.425 Y274.692 Z-14.000 I128.434 J-35.874 F300.000 
G2 X59.542 Y295.939 Z-14.000 I110.241 J-75.657 F300.000 
G2 X93.252 Y319.145 Z-14.000 I91.801 J-97.261 F300.000 
G2 X123.799 Y329.913 Z-14.000 I64.890 J-135.377 F300.000 
G1 X127.240 Y330.679 Z-10.475 F210.008 
G1 X130.649 Y331.355 Z-7.000 F210.000 
G2 X130.708 Y331.366 Z-7.000 I27.493 J-147.586 F300.000 
G1 X133.963 Y331.934 Z-10.304 F210.000 
G1 X137.618 Y332.484 Z-14.000 F210.007 
G2 X169.994 Y333.425 Z-14.000 I20.524 J-148.716 F300.000 
G2 X197.697 Y328.244 Z-14.000 I-9.752 J-128.783 F300.000 
G2 X219.966 Y318.821 Z-14.000 I-31.507 J-105.489 F300.000 
G2 X239.530 Y306.170 Z-14.000 I-101.286 J-178.089 F300.000 
G2 X252.813 Y295.880 Z-14.000 I-225.727 J-305.070 F300.000 
G2 X265.719 Y285.249 Z-14.000 I-7661.150 J-9314.430 F300.000 
G3 X281.552 Y272.914 Z-14.000 I176.718 J210.495 F300.000 
G3 X292.691 Y265.944 Z-14.000 I58.158 J80.559 F300.000 
G3 X301.404 Y262.172 Z-14.000 I25.582 J47.145 F300.000 
G3 X311.969 Y260.297 Z-14.000 I11.018 J31.375 F300.000 
G3 X321.713 Y261.592 Z-14.000 I-0.093 J37.997 F300.000 
G3 X332.864 Y265.640 Z-14.000 I-20.835 J74.784 F300.000 
G3 X348.284 Y273.309 Z-14.000 I-164.192 J349.492 F300.000 
G2 X362.939 Y280.090 Z-14.000 I78.734 J-150.925 F300.000 
G2 X382.147 Y285.064 Z-14.000 I29.253 J-73.386 F300.000 
G2 X400.272 Y285.536 Z-14.000 I11.727 J-102.056 F300.000 
G2 X407.342 Y284.558 Z-14.000 I-1.882 J-39.634 F300.000 
G2 X411.985 Y283.158 Z-14.000 I-7.242 J-32.430 F300.000 
G0 X411.985 Y283.158 Z5.000 
(finish operation: DressupTag)
(begin postamble)
M05
G17 G54 G90 G80 G40
M2
