(Exported by FreeCAD)
(Post Processor: linuxcnc_post)
(Output Time:2024-07-19 13:56:31.032051)
(begin preamble)
G17 G54 G40 G49 G80 G90
G21
(begin operation: Fixture)
(machine units: mm/min)
G54 
(finish operation: Fixture)
(begin operation: TC: 6.3mm_Endmill001)
(machine units: mm/min)
(TC: 6.3mm_Endmill001) 
M5
M6 T10 
G43 H10 
M3 S600 
(finish operation: TC: 6.3mm_Endmill001)
(begin operation: body profile)
(machine units: mm/min)
(body profile) 
(Compensated Tool Path. Diameter: 6.3) 
G0 Z5.000 
G0 X402.653 Y283.163 
G0 Z3.000 
G1 X402.653 Y283.163 Z-6.300 F120.000 
G2 X409.717 Y279.447 Z-6.300 I-12.256 J-31.875 F300.000 
G2 X419.328 Y269.108 Z-6.300 I-17.367 J-25.779 F300.000 
G2 X422.064 Y261.098 Z-6.300 I-17.527 J-10.459 F300.000 
G2 X422.035 Y257.666 Z-6.300 I-13.536 J-1.602 F300.000 
G2 X416.730 Y249.206 Z-6.300 I-12.103 J1.695 F300.000 
G2 X412.217 Y246.983 Z-6.300 I-11.474 J17.605 F300.000 
G2 X406.651 Y245.632 Z-6.300 I-10.895 J32.757 F300.000 
G3 X390.705 Y240.082 Z-6.300 I7.930 J-48.462 F300.000 
G3 X384.235 Y235.555 Z-6.300 I15.375 J-28.857 F300.000 
G3 X375.795 Y225.259 Z-6.300 I32.465 J-35.221 F300.000 
G3 X372.422 Y217.759 Z-6.300 I25.932 J-16.172 F300.000 
G3 X371.182 Y211.866 Z-6.300 I43.729 J-12.280 F300.000 
G3 X369.970 Y199.457 Z-6.300 I158.528 J-21.743 F300.000 
G1 X369.970 Y193.597 Z-6.300 F300.000 
G2 X366.820 Y190.447 Z-6.300 I-3.150 J-0.000 F300.000 
G1 X303.408 Y190.447 Z-6.300 F300.000 
G3 X300.120 Y187.159 Z-6.300 I-0.074 J-3.214 F300.000 
G1 X300.120 Y142.886 Z-6.300 F300.000 
G3 X303.408 Y139.597 Z-6.300 I3.214 J-0.074 F300.000 
G1 X366.820 Y139.597 Z-6.300 F300.000 
G2 X369.970 Y136.447 Z-6.300 I0.000 J-3.150 F300.000 
G1 X369.970 Y133.065 Z-6.300 F300.000 
G3 X369.666 Y122.536 Z-6.300 I85.524 J-7.734 F300.000 
G3 X372.851 Y105.823 Z-6.300 I52.932 J1.426 F300.000 
G3 X384.999 Y88.432 Z-6.300 I37.230 J13.067 F300.000 
G3 X393.468 Y82.615 Z-6.300 I44.552 J55.791 F300.000 
G2 X398.714 Y79.222 Z-6.300 I-31.320 J-54.173 F300.000 
G2 X401.733 Y76.517 Z-6.300 I-9.820 J-14.003 F300.000 
G2 X404.921 Y67.417 Z-6.300 I-9.167 J-8.319 F300.000 
G2 X402.736 Y60.529 Z-6.300 I-16.209 J1.353 F300.000 
G2 X397.057 Y53.921 Z-6.300 I-23.163 J14.159 F300.000 
G2 X386.805 Y47.970 Z-6.300 I-23.745 J29.100 F300.000 
G2 X361.808 Y46.343 Z-6.300 I-15.102 J39.189 F300.000 
G2 X351.026 Y49.966 Z-6.300 I18.572 J73.136 F300.000 
G2 X339.491 Y55.450 Z-6.300 I70.378 J162.881 F300.000 
G3 X324.106 Y63.277 Z-6.300 I-241.882 J-456.421 F300.000 
G3 X316.337 Y66.578 Z-6.300 I-38.926 J-80.840 F300.000 
G3 X307.312 Y69.115 Z-6.300 I-17.752 J-45.827 F300.000 
G3 X297.060 Y69.337 Z-6.300 I-5.774 J-29.811 F300.000 
G3 X288.484 Y66.675 Z-6.300 I5.308 J-32.248 F300.000 
G3 X279.223 Y61.366 Z-6.300 I31.436 J-65.570 F300.000 
G3 X267.908 Y53.007 Z-6.300 I120.580 J-175.042 F300.000 
G2 X250.583 Y39.088 Z-6.300 I-1520.952 J1875.427 F300.000 
G2 X234.090 Y26.663 Z-6.300 I-194.586 J241.142 F300.000 
G2 X213.680 Y13.949 Z-6.300 I-114.417 J160.942 F300.000 
G2 X189.187 Y3.385 Z-6.300 I-68.070 J124.137 F300.000 
G2 X119.408 Y-0.498 Z-6.300 I-42.479 J134.476 F300.000 
G2 X86.113 Y10.616 Z-6.300 I25.609 J132.151 F300.000 
G2 X40.606 Y47.670 Z-6.300 I55.863 J115.079 F300.000 
G2 X19.426 Y85.628 Z-6.300 I124.333 J94.261 F300.000 
G2 X9.692 Y121.034 Z-6.300 I178.767 J68.193 F300.000 
G2 X6.360 Y154.049 Z-6.300 I248.438 J41.747 F300.000 
G2 X7.072 Y196.626 Z-6.300 I446.847 J13.825 F300.000 
G2 X9.365 Y216.732 Z-6.300 I210.756 J-13.862 F300.000 
G2 X13.997 Y236.993 Z-6.300 I148.410 J-23.265 F300.000 
G2 X35.932 Y279.879 Z-6.300 I128.223 J-38.528 F300.000 
G2 X70.834 Y311.869 Z-6.300 I104.075 J-78.515 F300.000 
G2 X119.638 Y331.011 Z-6.300 I76.936 J-124.370 F300.000 
G2 X162.471 Y333.258 Z-6.300 I29.128 J-145.850 F300.000 
G2 X189.809 Y327.805 Z-6.300 I-11.112 J-126.944 F300.000 
G2 X211.479 Y318.370 Z-6.300 I-32.980 J-105.354 F300.000 
G2 X230.190 Y306.209 Z-6.300 I-107.717 J-186.213 F300.000 
G2 X246.049 Y293.824 Z-6.300 I-214.303 J-290.760 F300.000 
G3 X258.654 Y283.429 Z-6.300 I1325.276 J1594.168 F300.000 
G3 X271.952 Y273.147 Z-6.300 I149.934 J180.172 F300.000 
G3 X283.617 Y265.829 Z-6.300 I58.945 J81.011 F300.000 
G3 X292.531 Y262.034 Z-6.300 I25.005 J46.356 F300.000 
G3 X304.619 Y260.324 Z-6.300 I10.518 J30.771 F300.000 
G3 X314.499 Y262.157 Z-6.300 I-2.878 J43.062 F300.000 
G3 X325.570 Y266.535 Z-6.300 I-28.892 J89.233 F300.000 
G3 X338.381 Y272.961 Z-6.300 I-351.778 J717.309 F300.000 
G2 X351.778 Y279.299 Z-6.300 I76.617 J-144.638 F300.000 
G2 X366.361 Y283.949 Z-6.300 I31.853 J-74.702 F300.000 
G2 X381.750 Y285.690 Z-6.300 I17.125 J-82.490 F300.000 
G2 X394.373 Y285.206 Z-6.300 I2.793 J-92.023 F300.000 
G2 X402.653 Y283.163 Z-6.300 I-3.976 J-33.918 F300.000 
G1 X402.653 Y283.163 Z-12.600 F120.000 
G2 X409.717 Y279.447 Z-12.600 I-12.256 J-31.875 F300.000 
G2 X419.328 Y269.108 Z-12.600 I-17.367 J-25.779 F300.000 
G2 X422.064 Y261.098 Z-12.600 I-17.527 J-10.459 F300.000 
G2 X422.035 Y257.666 Z-12.600 I-13.536 J-1.602 F300.000 
G2 X416.730 Y249.206 Z-12.600 I-12.103 J1.695 F300.000 
G2 X412.217 Y246.983 Z-12.600 I-11.474 J17.605 F300.000 
G2 X406.651 Y245.632 Z-12.600 I-10.895 J32.757 F300.000 
G3 X390.705 Y240.082 Z-12.600 I7.930 J-48.462 F300.000 
G3 X384.235 Y235.555 Z-12.600 I15.375 J-28.857 F300.000 
G3 X375.795 Y225.259 Z-12.600 I32.465 J-35.221 F300.000 
G3 X372.422 Y217.759 Z-12.600 I25.932 J-16.172 F300.000 
G3 X371.182 Y211.866 Z-12.600 I43.729 J-12.280 F300.000 
G3 X369.970 Y199.457 Z-12.600 I158.528 J-21.743 F300.000 
G1 X369.970 Y193.597 Z-12.600 F300.000 
G2 X366.820 Y190.447 Z-12.600 I-3.150 J-0.000 F300.000 
G1 X303.408 Y190.447 Z-12.600 F300.000 
G3 X300.120 Y187.159 Z-12.600 I-0.074 J-3.214 F300.000 
G1 X300.120 Y142.886 Z-12.600 F300.000 
G3 X303.408 Y139.597 Z-12.600 I3.214 J-0.074 F300.000 
G1 X366.820 Y139.597 Z-12.600 F300.000 
G2 X369.970 Y136.447 Z-12.600 I0.000 J-3.150 F300.000 
G1 X369.970 Y133.065 Z-12.600 F300.000 
G3 X369.666 Y122.536 Z-12.600 I85.524 J-7.734 F300.000 
G3 X372.851 Y105.823 Z-12.600 I52.932 J1.426 F300.000 
G3 X384.999 Y88.432 Z-12.600 I37.230 J13.067 F300.000 
G3 X393.468 Y82.615 Z-12.600 I44.552 J55.791 F300.000 
G2 X398.714 Y79.222 Z-12.600 I-31.320 J-54.173 F300.000 
G2 X401.733 Y76.517 Z-12.600 I-9.820 J-14.003 F300.000 
G2 X404.921 Y67.417 Z-12.600 I-9.167 J-8.319 F300.000 
G2 X402.736 Y60.529 Z-12.600 I-16.209 J1.353 F300.000 
G2 X397.057 Y53.921 Z-12.600 I-23.163 J14.159 F300.000 
G2 X386.805 Y47.970 Z-12.600 I-23.745 J29.100 F300.000 
G2 X361.808 Y46.343 Z-12.600 I-15.102 J39.189 F300.000 
G2 X351.026 Y49.966 Z-12.600 I18.572 J73.136 F300.000 
G2 X339.491 Y55.450 Z-12.600 I70.378 J162.881 F300.000 
G3 X324.106 Y63.277 Z-12.600 I-241.882 J-456.421 F300.000 
G3 X316.337 Y66.578 Z-12.600 I-38.926 J-80.840 F300.000 
G3 X307.312 Y69.115 Z-12.600 I-17.752 J-45.827 F300.000 
G3 X297.060 Y69.337 Z-12.600 I-5.774 J-29.811 F300.000 
G3 X288.484 Y66.675 Z-12.600 I5.308 J-32.248 F300.000 
G3 X279.223 Y61.366 Z-12.600 I31.436 J-65.570 F300.000 
G3 X267.908 Y53.007 Z-12.600 I120.580 J-175.042 F300.000 
G2 X250.583 Y39.088 Z-12.600 I-1520.952 J1875.427 F300.000 
G2 X234.090 Y26.663 Z-12.600 I-194.586 J241.142 F300.000 
G2 X213.680 Y13.949 Z-12.600 I-114.417 J160.942 F300.000 
G2 X189.187 Y3.385 Z-12.600 I-68.070 J124.137 F300.000 
G2 X119.408 Y-0.498 Z-12.600 I-42.479 J134.476 F300.000 
G2 X86.113 Y10.616 Z-12.600 I25.609 J132.151 F300.000 
G2 X40.606 Y47.670 Z-12.600 I55.863 J115.079 F300.000 
G2 X19.426 Y85.628 Z-12.600 I124.333 J94.261 F300.000 
G2 X9.692 Y121.034 Z-12.600 I178.767 J68.193 F300.000 
G2 X6.360 Y154.049 Z-12.600 I248.438 J41.747 F300.000 
G2 X7.072 Y196.626 Z-12.600 I446.847 J13.825 F300.000 
G2 X9.365 Y216.732 Z-12.600 I210.756 J-13.862 F300.000 
G2 X13.997 Y236.993 Z-12.600 I148.410 J-23.265 F300.000 
G2 X35.932 Y279.879 Z-12.600 I128.223 J-38.528 F300.000 
G2 X70.834 Y311.869 Z-12.600 I104.075 J-78.515 F300.000 
G2 X119.638 Y331.011 Z-12.600 I76.936 J-124.370 F300.000 
G2 X162.471 Y333.258 Z-12.600 I29.128 J-145.850 F300.000 
G2 X189.809 Y327.805 Z-12.600 I-11.112 J-126.944 F300.000 
G2 X211.479 Y318.370 Z-12.600 I-32.980 J-105.354 F300.000 
G2 X230.190 Y306.209 Z-12.600 I-107.717 J-186.213 F300.000 
G2 X246.049 Y293.824 Z-12.600 I-214.303 J-290.760 F300.000 
G3 X258.654 Y283.429 Z-12.600 I1325.276 J1594.168 F300.000 
G3 X271.952 Y273.147 Z-12.600 I149.934 J180.172 F300.000 
G3 X283.617 Y265.829 Z-12.600 I58.945 J81.011 F300.000 
G3 X292.531 Y262.034 Z-12.600 I25.005 J46.356 F300.000 
G3 X304.619 Y260.324 Z-12.600 I10.518 J30.771 F300.000 
G3 X314.499 Y262.157 Z-12.600 I-2.878 J43.062 F300.000 
G3 X325.570 Y266.535 Z-12.600 I-28.892 J89.233 F300.000 
G3 X338.381 Y272.961 Z-12.600 I-351.778 J717.309 F300.000 
G2 X351.778 Y279.299 Z-12.600 I76.617 J-144.638 F300.000 
G2 X366.361 Y283.949 Z-12.600 I31.853 J-74.702 F300.000 
G2 X381.750 Y285.690 Z-12.600 I17.125 J-82.490 F300.000 
G2 X394.373 Y285.206 Z-12.600 I2.793 J-92.023 F300.000 
G2 X402.653 Y283.163 Z-12.600 I-3.976 J-33.918 F300.000 
G1 X402.653 Y283.163 Z-14.000 F120.000 
G2 X409.717 Y279.447 Z-14.000 I-12.256 J-31.875 F300.000 
G2 X419.328 Y269.108 Z-14.000 I-17.367 J-25.779 F300.000 
G2 X422.064 Y261.098 Z-14.000 I-17.527 J-10.459 F300.000 
G2 X422.035 Y257.666 Z-14.000 I-13.536 J-1.602 F300.000 
G2 X416.730 Y249.206 Z-14.000 I-12.103 J1.695 F300.000 
G2 X412.217 Y246.983 Z-14.000 I-11.474 J17.605 F300.000 
G2 X406.651 Y245.632 Z-14.000 I-10.895 J32.757 F300.000 
G3 X390.705 Y240.082 Z-14.000 I7.930 J-48.462 F300.000 
G3 X384.235 Y235.555 Z-14.000 I15.375 J-28.857 F300.000 
G3 X375.795 Y225.259 Z-14.000 I32.465 J-35.221 F300.000 
G3 X372.422 Y217.759 Z-14.000 I25.932 J-16.172 F300.000 
G3 X371.182 Y211.866 Z-14.000 I43.729 J-12.280 F300.000 
G3 X369.970 Y199.457 Z-14.000 I158.528 J-21.743 F300.000 
G1 X369.970 Y193.597 Z-14.000 F300.000 
G2 X366.820 Y190.447 Z-14.000 I-3.150 J-0.000 F300.000 
G1 X303.408 Y190.447 Z-14.000 F300.000 
G3 X300.120 Y187.159 Z-14.000 I-0.074 J-3.214 F300.000 
G1 X300.120 Y142.886 Z-14.000 F300.000 
G3 X303.408 Y139.597 Z-14.000 I3.214 J-0.074 F300.000 
G1 X366.820 Y139.597 Z-14.000 F300.000 
G2 X369.970 Y136.447 Z-14.000 I0.000 J-3.150 F300.000 
G1 X369.970 Y133.065 Z-14.000 F300.000 
G3 X369.666 Y122.536 Z-14.000 I85.524 J-7.734 F300.000 
G3 X372.851 Y105.823 Z-14.000 I52.932 J1.426 F300.000 
G3 X384.999 Y88.432 Z-14.000 I37.230 J13.067 F300.000 
G3 X393.468 Y82.615 Z-14.000 I44.552 J55.791 F300.000 
G2 X398.714 Y79.222 Z-14.000 I-31.320 J-54.173 F300.000 
G2 X401.733 Y76.517 Z-14.000 I-9.820 J-14.003 F300.000 
G2 X404.921 Y67.417 Z-14.000 I-9.167 J-8.319 F300.000 
G2 X402.736 Y60.529 Z-14.000 I-16.209 J1.353 F300.000 
G2 X397.057 Y53.921 Z-14.000 I-23.163 J14.159 F300.000 
G2 X386.805 Y47.970 Z-14.000 I-23.745 J29.100 F300.000 
G2 X361.808 Y46.343 Z-14.000 I-15.102 J39.189 F300.000 
G2 X351.026 Y49.966 Z-14.000 I18.572 J73.136 F300.000 
G2 X339.491 Y55.450 Z-14.000 I70.378 J162.881 F300.000 
G3 X324.106 Y63.277 Z-14.000 I-241.882 J-456.421 F300.000 
G3 X316.337 Y66.578 Z-14.000 I-38.926 J-80.840 F300.000 
G3 X307.312 Y69.115 Z-14.000 I-17.752 J-45.827 F300.000 
G3 X297.060 Y69.337 Z-14.000 I-5.774 J-29.811 F300.000 
G3 X288.484 Y66.675 Z-14.000 I5.308 J-32.248 F300.000 
G3 X279.223 Y61.366 Z-14.000 I31.436 J-65.570 F300.000 
G3 X267.908 Y53.007 Z-14.000 I120.580 J-175.042 F300.000 
G2 X250.583 Y39.088 Z-14.000 I-1520.952 J1875.427 F300.000 
G2 X234.090 Y26.663 Z-14.000 I-194.586 J241.142 F300.000 
G2 X213.680 Y13.949 Z-14.000 I-114.417 J160.942 F300.000 
G2 X189.187 Y3.385 Z-14.000 I-68.070 J124.137 F300.000 
G2 X119.408 Y-0.498 Z-14.000 I-42.479 J134.476 F300.000 
G2 X86.113 Y10.616 Z-14.000 I25.609 J132.151 F300.000 
G2 X40.606 Y47.670 Z-14.000 I55.863 J115.079 F300.000 
G2 X19.426 Y85.628 Z-14.000 I124.333 J94.261 F300.000 
G2 X9.692 Y121.034 Z-14.000 I178.767 J68.193 F300.000 
G2 X6.360 Y154.049 Z-14.000 I248.438 J41.747 F300.000 
G2 X7.072 Y196.626 Z-14.000 I446.847 J13.825 F300.000 
G2 X9.365 Y216.732 Z-14.000 I210.756 J-13.862 F300.000 
G2 X13.997 Y236.993 Z-14.000 I148.410 J-23.265 F300.000 
G2 X35.932 Y279.879 Z-14.000 I128.223 J-38.528 F300.000 
G2 X70.834 Y311.869 Z-14.000 I104.075 J-78.515 F300.000 
G2 X119.638 Y331.011 Z-14.000 I76.936 J-124.370 F300.000 
G2 X162.471 Y333.258 Z-14.000 I29.128 J-145.850 F300.000 
G2 X189.809 Y327.805 Z-14.000 I-11.112 J-126.944 F300.000 
G2 X211.479 Y318.370 Z-14.000 I-32.980 J-105.354 F300.000 
G2 X230.190 Y306.209 Z-14.000 I-107.717 J-186.213 F300.000 
G2 X246.049 Y293.824 Z-14.000 I-214.303 J-290.760 F300.000 
G3 X258.654 Y283.429 Z-14.000 I1325.276 J1594.168 F300.000 
G3 X271.952 Y273.147 Z-14.000 I149.934 J180.172 F300.000 
G3 X283.617 Y265.829 Z-14.000 I58.945 J81.011 F300.000 
G3 X292.531 Y262.034 Z-14.000 I25.005 J46.356 F300.000 
G3 X304.619 Y260.324 Z-14.000 I10.518 J30.771 F300.000 
G3 X314.499 Y262.157 Z-14.000 I-2.878 J43.062 F300.000 
G3 X325.570 Y266.535 Z-14.000 I-28.892 J89.233 F300.000 
G3 X338.381 Y272.961 Z-14.000 I-351.778 J717.309 F300.000 
G2 X351.778 Y279.299 Z-14.000 I76.617 J-144.638 F300.000 
G2 X366.361 Y283.949 Z-14.000 I31.853 J-74.702 F300.000 
G2 X381.750 Y285.690 Z-14.000 I17.125 J-82.490 F300.000 
G2 X394.373 Y285.206 Z-14.000 I2.793 J-92.023 F300.000 
G2 X402.653 Y283.163 Z-14.000 I-3.976 J-33.918 F300.000 
G0 Z5.000 
G0 Z5.000 
(finish operation: body profile)
(begin postamble)
M05
G17 G54 G90 G80 G40
M2
