(Exported by FreeCAD)
(Post Processor: linuxcnc_post)
(Output Time:2024-07-19 13:58:15.946327)
(begin preamble)
G17 G54 G40 G49 G80 G90
G21
(begin operation: Fixture)
(machine units: mm/min)
G54 
(finish operation: Fixture)
(begin operation: TC: 6.3mm_Endmill001)
(machine units: mm/min)
(TC: 6.3mm_Endmill001) 
M5
M6 T10 
G43 H10 
M3 S600 
(finish operation: TC: 6.3mm_Endmill001)
(begin operation: cavity profile)
(machine units: mm/min)
(cavity profile) 
(Compensated Tool Path. Diameter: 6.3) 
G0 Z5.000 
G0 X194.683 Y91.950 
G0 Z3.000 
G1 X194.683 Y91.950 Z-6.300 F120.000 
G2 X199.817 Y79.511 Z-6.300 I-12.396 J-12.396 F300.000 
G1 X199.817 Y44.254 Z-6.300 F300.000 
G2 X182.243 Y26.680 Z-6.300 I-17.531 J-0.043 F300.000 
G1 X121.977 Y26.680 Z-6.300 F300.000 
G2 X110.409 Y31.003 Z-6.300 I-0.034 J17.548 F300.000 
G1 X69.765 Y66.291 Z-6.300 F300.000 
G2 X81.268 Y97.085 Z-6.300 I11.457 J13.266 F300.000 
G1 X182.243 Y97.085 Z-6.300 F300.000 
G2 X194.683 Y91.950 Z-6.300 I0.043 J-17.531 F300.000 
G1 X194.683 Y91.950 Z-12.600 F120.000 
G2 X199.817 Y79.511 Z-12.600 I-12.396 J-12.396 F300.000 
G1 X199.817 Y44.254 Z-12.600 F300.000 
G2 X182.243 Y26.680 Z-12.600 I-17.531 J-0.043 F300.000 
G1 X121.977 Y26.680 Z-12.600 F300.000 
G2 X110.409 Y31.003 Z-12.600 I-0.034 J17.548 F300.000 
G1 X69.765 Y66.291 Z-12.600 F300.000 
G2 X81.268 Y97.085 Z-12.600 I11.457 J13.266 F300.000 
G1 X182.243 Y97.085 Z-12.600 F300.000 
G2 X194.683 Y91.950 Z-12.600 I0.043 J-17.531 F300.000 
G1 X194.683 Y91.950 Z-14.000 F120.000 
G2 X199.817 Y79.511 Z-14.000 I-12.396 J-12.396 F300.000 
G1 X199.817 Y44.254 Z-14.000 F300.000 
G2 X182.243 Y26.680 Z-14.000 I-17.531 J-0.043 F300.000 
G1 X121.977 Y26.680 Z-14.000 F300.000 
G2 X110.409 Y31.003 Z-14.000 I-0.034 J17.548 F300.000 
G1 X69.765 Y66.291 Z-14.000 F300.000 
G2 X81.268 Y97.085 Z-14.000 I11.457 J13.266 F300.000 
G1 X182.243 Y97.085 Z-14.000 F300.000 
G2 X194.683 Y91.950 Z-14.000 I0.043 J-17.531 F300.000 
G0 Z5.000 
G0 Z5.000 
(finish operation: cavity profile)
(begin postamble)
M05
G17 G54 G90 G80 G40
M2
