(Exported by FreeCAD)
(Post Processor: linuxcnc_post)
(Output Time:2024-07-19 15:10:24.775353)
(begin preamble)
G17 G54 G40 G49 G80 G90
G21
(begin operation: Fixture)
(machine units: mm/min)
G54 
(finish operation: Fixture)
(begin operation: TC: 6.3mm_Endmill001)
(machine units: mm/min)
(TC: 6.3mm_Endmill001) 
M5
M6 T10 
G43 H10 
M3 S600 
(finish operation: TC: 6.3mm_Endmill001)
(begin operation: pickup holes)
(machine units: mm/min)
(pickup holes) 
(Compensated Tool Path. Diameter: 6.3) 
G0 Z5.000 
G0 X281.528 Y219.045 
G0 Z3.000 
G1 X281.528 Y219.045 Z-3.500 F120.000 
G2 X281.550 Y218.893 Z-3.500 I-0.084 J-0.090 F300.000 
G1 X281.550 Y110.948 Z-3.500 F300.000 
G2 X281.536 Y110.805 Z-3.500 I-0.305 J-0.041 F300.000 
G2 X281.373 Y110.770 Z-3.500 I-0.100 J0.072 F300.000 
G1 X221.448 Y110.770 Z-3.500 F300.000 
G2 X221.305 Y110.785 Z-3.500 I-0.041 J0.305 F300.000 
G2 X221.270 Y110.948 Z-3.500 I0.072 J0.100 F300.000 
G1 X221.270 Y218.893 Z-3.500 F300.000 
G2 X221.285 Y219.036 Z-3.500 I0.305 J0.041 F300.000 
G2 X221.448 Y219.070 Z-3.500 I0.100 J-0.072 F300.000 
G1 X281.373 Y219.070 Z-3.500 F300.000 
G2 X281.516 Y219.056 Z-3.500 I0.041 J-0.305 F300.000 
G2 X281.528 Y219.045 Z-3.500 I-0.072 J-0.100 F300.000 
G1 X281.528 Y219.045 Z-7.000 F120.000 
G2 X281.550 Y218.893 Z-7.000 I-0.084 J-0.090 F300.000 
G1 X281.550 Y110.948 Z-7.000 F300.000 
G2 X281.536 Y110.805 Z-7.000 I-0.305 J-0.041 F300.000 
G2 X281.373 Y110.770 Z-7.000 I-0.100 J0.072 F300.000 
G1 X221.448 Y110.770 Z-7.000 F300.000 
G2 X221.305 Y110.785 Z-7.000 I-0.041 J0.305 F300.000 
G2 X221.270 Y110.948 Z-7.000 I0.072 J0.100 F300.000 
G1 X221.270 Y218.893 Z-7.000 F300.000 
G2 X221.285 Y219.036 Z-7.000 I0.305 J0.041 F300.000 
G2 X221.448 Y219.070 Z-7.000 I0.100 J-0.072 F300.000 
G1 X281.373 Y219.070 Z-7.000 F300.000 
G2 X281.516 Y219.056 Z-7.000 I0.041 J-0.305 F300.000 
G2 X281.528 Y219.045 Z-7.000 I-0.072 J-0.100 F300.000 
G1 X281.528 Y219.045 Z-10.500 F120.000 
G2 X281.550 Y218.893 Z-10.500 I-0.084 J-0.090 F300.000 
G1 X281.550 Y110.948 Z-10.500 F300.000 
G2 X281.536 Y110.805 Z-10.500 I-0.305 J-0.041 F300.000 
G2 X281.373 Y110.770 Z-10.500 I-0.100 J0.072 F300.000 
G1 X221.448 Y110.770 Z-10.500 F300.000 
G2 X221.305 Y110.785 Z-10.500 I-0.041 J0.305 F300.000 
G2 X221.270 Y110.948 Z-10.500 I0.072 J0.100 F300.000 
G1 X221.270 Y218.893 Z-10.500 F300.000 
G2 X221.285 Y219.036 Z-10.500 I0.305 J0.041 F300.000 
G2 X221.448 Y219.070 Z-10.500 I0.100 J-0.072 F300.000 
G1 X281.373 Y219.070 Z-10.500 F300.000 
G2 X281.516 Y219.056 Z-10.500 I0.041 J-0.305 F300.000 
G2 X281.528 Y219.045 Z-10.500 I-0.072 J-0.100 F300.000 
G1 X281.528 Y219.045 Z-14.000 F120.000 
G2 X281.550 Y218.893 Z-14.000 I-0.084 J-0.090 F300.000 
G1 X281.550 Y110.948 Z-14.000 F300.000 
G2 X281.536 Y110.805 Z-14.000 I-0.305 J-0.041 F300.000 
G2 X281.373 Y110.770 Z-14.000 I-0.100 J0.072 F300.000 
G1 X221.448 Y110.770 Z-14.000 F300.000 
G2 X221.305 Y110.785 Z-14.000 I-0.041 J0.305 F300.000 
G2 X221.270 Y110.948 Z-14.000 I0.072 J0.100 F300.000 
G1 X221.270 Y218.893 Z-14.000 F300.000 
G2 X221.285 Y219.036 Z-14.000 I0.305 J0.041 F300.000 
G2 X221.448 Y219.070 Z-14.000 I0.100 J-0.072 F300.000 
G1 X281.373 Y219.070 Z-14.000 F300.000 
G2 X281.516 Y219.056 Z-14.000 I0.041 J-0.305 F300.000 
G2 X281.528 Y219.045 Z-14.000 I-0.072 J-0.100 F300.000 
G0 Z5.000 
G0 Z5.000 
G0 X281.528 Y219.045 
G0 X306.308 Y218.935 
G0 X306.308 Y218.935 Z3.000 
G1 X306.308 Y218.935 Z-3.500 F120.000 
G2 X306.325 Y219.036 Z-3.500 I0.308 J-0.001 F300.000 
G2 X306.488 Y219.070 Z-3.500 I0.100 J-0.072 F300.000 
G1 X366.413 Y219.070 Z-3.500 F300.000 
G2 X366.556 Y219.056 Z-3.500 I0.041 J-0.305 F300.000 
G2 X366.590 Y218.893 Z-3.500 I-0.072 J-0.100 F300.000 
G1 X366.590 Y110.948 Z-3.500 F300.000 
G2 X366.576 Y110.805 Z-3.500 I-0.305 J-0.041 F300.000 
G2 X366.413 Y110.770 Z-3.500 I-0.100 J0.072 F300.000 
G1 X306.488 Y110.770 Z-3.500 F300.000 
G2 X306.345 Y110.785 Z-3.500 I-0.041 J0.305 F300.000 
G2 X306.310 Y110.948 Z-3.500 I0.072 J0.100 F300.000 
G1 X306.310 Y218.893 Z-3.500 F300.000 
G2 X306.308 Y218.935 Z-3.500 I0.305 J0.041 F300.000 
G1 X306.308 Y218.935 Z-7.000 F120.000 
G2 X306.325 Y219.036 Z-7.000 I0.308 J-0.001 F300.000 
G2 X306.488 Y219.070 Z-7.000 I0.100 J-0.072 F300.000 
G1 X366.413 Y219.070 Z-7.000 F300.000 
G2 X366.556 Y219.056 Z-7.000 I0.041 J-0.305 F300.000 
G2 X366.590 Y218.893 Z-7.000 I-0.072 J-0.100 F300.000 
G1 X366.590 Y110.948 Z-7.000 F300.000 
G2 X366.576 Y110.805 Z-7.000 I-0.305 J-0.041 F300.000 
G2 X366.413 Y110.770 Z-7.000 I-0.100 J0.072 F300.000 
G1 X306.488 Y110.770 Z-7.000 F300.000 
G2 X306.345 Y110.785 Z-7.000 I-0.041 J0.305 F300.000 
G2 X306.310 Y110.948 Z-7.000 I0.072 J0.100 F300.000 
G1 X306.310 Y218.893 Z-7.000 F300.000 
G2 X306.308 Y218.935 Z-7.000 I0.305 J0.041 F300.000 
G1 X306.308 Y218.935 Z-10.500 F120.000 
G2 X306.325 Y219.036 Z-10.500 I0.308 J-0.001 F300.000 
G2 X306.488 Y219.070 Z-10.500 I0.100 J-0.072 F300.000 
G1 X366.413 Y219.070 Z-10.500 F300.000 
G2 X366.556 Y219.056 Z-10.500 I0.041 J-0.305 F300.000 
G2 X366.590 Y218.893 Z-10.500 I-0.072 J-0.100 F300.000 
G1 X366.590 Y110.948 Z-10.500 F300.000 
G2 X366.576 Y110.805 Z-10.500 I-0.305 J-0.041 F300.000 
G2 X366.413 Y110.770 Z-10.500 I-0.100 J0.072 F300.000 
G1 X306.488 Y110.770 Z-10.500 F300.000 
G2 X306.345 Y110.785 Z-10.500 I-0.041 J0.305 F300.000 
G2 X306.310 Y110.948 Z-10.500 I0.072 J0.100 F300.000 
G1 X306.310 Y218.893 Z-10.500 F300.000 
G2 X306.308 Y218.935 Z-10.500 I0.305 J0.041 F300.000 
G1 X306.308 Y218.935 Z-14.000 F120.000 
G2 X306.325 Y219.036 Z-14.000 I0.308 J-0.001 F300.000 
G2 X306.488 Y219.070 Z-14.000 I0.100 J-0.072 F300.000 
G1 X366.413 Y219.070 Z-14.000 F300.000 
G2 X366.556 Y219.056 Z-14.000 I0.041 J-0.305 F300.000 
G2 X366.590 Y218.893 Z-14.000 I-0.072 J-0.100 F300.000 
G1 X366.590 Y110.948 Z-14.000 F300.000 
G2 X366.576 Y110.805 Z-14.000 I-0.305 J-0.041 F300.000 
G2 X366.413 Y110.770 Z-14.000 I-0.100 J0.072 F300.000 
G1 X306.488 Y110.770 Z-14.000 F300.000 
G2 X306.345 Y110.785 Z-14.000 I-0.041 J0.305 F300.000 
G2 X306.310 Y110.948 Z-14.000 I0.072 J0.100 F300.000 
G1 X306.310 Y218.893 Z-14.000 F300.000 
G2 X306.308 Y218.935 Z-14.000 I0.305 J0.041 F300.000 
G0 Z5.000 
G0 Z5.000 
(finish operation: pickup holes)
(begin postamble)
M05
G17 G54 G90 G80 G40
M2
