(Exported by FreeCAD)
(Post Processor: linuxcnc_post)
(Output Time:2024-07-19 14:01:15.010266)
(begin preamble)
G17 G54 G40 G49 G80 G90
G21
(begin operation: Fixture)
(machine units: mm/min)
G54 
(finish operation: Fixture)
(begin operation: TC: 3.1mm_Ball_End)
(machine units: mm/min)
(TC: 3.1mm_Ball_End) 
M5
M6 T11 
G43 H11 
M3 S600 
(finish operation: TC: 3.1mm_Ball_End)
(begin operation: Profile002)
(machine units: mm/min)
(Profile002) 
(Compensated Tool Path. Diameter: 3.1) 
G0 Z5.000 
G0 X161.510 Y124.135 
G0 Z3.000 
G1 X161.510 Y124.135 Z-3.000 F120.000 
G2 X161.502 Y124.090 Z-3.000 I-0.020 J-0.020 F300.000 
G2 X161.478 Y124.140 Z-3.000 I-0.012 J0.025 F300.000 
G2 X161.510 Y124.135 Z-3.000 I0.012 J-0.025 F300.000 
G1 X161.510 Y124.135 Z-6.000 F120.000 
G2 X161.502 Y124.090 Z-6.000 I-0.020 J-0.020 F300.000 
G2 X161.478 Y124.140 Z-6.000 I-0.012 J0.025 F300.000 
G2 X161.510 Y124.135 Z-6.000 I0.012 J-0.025 F300.000 
G1 X161.510 Y124.135 Z-9.000 F120.000 
G2 X161.502 Y124.090 Z-9.000 I-0.020 J-0.020 F300.000 
G2 X161.478 Y124.140 Z-9.000 I-0.012 J0.025 F300.000 
G2 X161.510 Y124.135 Z-9.000 I0.012 J-0.025 F300.000 
G1 X161.510 Y124.135 Z-12.000 F120.000 
G2 X161.502 Y124.090 Z-12.000 I-0.020 J-0.020 F300.000 
G2 X161.478 Y124.140 Z-12.000 I-0.012 J0.025 F300.000 
G2 X161.510 Y124.135 Z-12.000 I0.012 J-0.025 F300.000 
G1 X161.510 Y124.135 Z-14.000 F120.000 
G2 X161.502 Y124.090 Z-14.000 I-0.020 J-0.020 F300.000 
G2 X161.478 Y124.140 Z-14.000 I-0.012 J0.025 F300.000 
G2 X161.510 Y124.135 Z-14.000 I0.012 J-0.025 F300.000 
G0 Z5.000 
G0 Z5.000 
G0 X161.510 Y124.135 
G0 X202.742 Y128.322 
G0 X202.742 Y128.322 Z3.000 
G1 X202.742 Y128.322 Z-3.000 F120.000 
G2 X202.758 Y128.350 Z-3.000 I0.028 J0.003 F300.000 
G2 X202.795 Y128.337 Z-3.000 I0.012 J-0.025 F300.000 
G2 X202.782 Y128.300 Z-3.000 I-0.025 J-0.012 F300.000 
G2 X202.742 Y128.322 Z-3.000 I-0.012 J0.025 F300.000 
G1 X202.742 Y128.322 Z-6.000 F120.000 
G2 X202.758 Y128.350 Z-6.000 I0.028 J0.003 F300.000 
G2 X202.795 Y128.337 Z-6.000 I0.012 J-0.025 F300.000 
G2 X202.782 Y128.300 Z-6.000 I-0.025 J-0.012 F300.000 
G2 X202.742 Y128.322 Z-6.000 I-0.012 J0.025 F300.000 
G1 X202.742 Y128.322 Z-9.000 F120.000 
G2 X202.758 Y128.350 Z-9.000 I0.028 J0.003 F300.000 
G2 X202.795 Y128.337 Z-9.000 I0.012 J-0.025 F300.000 
G2 X202.782 Y128.300 Z-9.000 I-0.025 J-0.012 F300.000 
G2 X202.742 Y128.322 Z-9.000 I-0.012 J0.025 F300.000 
G1 X202.742 Y128.322 Z-12.000 F120.000 
G2 X202.758 Y128.350 Z-12.000 I0.028 J0.003 F300.000 
G2 X202.795 Y128.337 Z-12.000 I0.012 J-0.025 F300.000 
G2 X202.782 Y128.300 Z-12.000 I-0.025 J-0.012 F300.000 
G2 X202.742 Y128.322 Z-12.000 I-0.012 J0.025 F300.000 
G1 X202.742 Y128.322 Z-14.000 F120.000 
G2 X202.758 Y128.350 Z-14.000 I0.028 J0.003 F300.000 
G2 X202.795 Y128.337 Z-14.000 I0.012 J-0.025 F300.000 
G2 X202.782 Y128.300 Z-14.000 I-0.025 J-0.012 F300.000 
G2 X202.742 Y128.322 Z-14.000 I-0.012 J0.025 F300.000 
G0 Z5.000 
G0 Z5.000 
G0 X202.742 Y128.322 
G0 X200.341 Y202.077 
G0 X200.341 Y202.077 Z3.000 
G1 X200.341 Y202.077 Z-3.000 F120.000 
G2 X200.328 Y202.130 Z-3.000 I-0.001 J0.028 F300.000 
G2 X200.352 Y202.080 Z-3.000 I0.012 J-0.025 F300.000 
G2 X200.341 Y202.077 Z-3.000 I-0.012 J0.025 F300.000 
G1 X200.341 Y202.077 Z-6.000 F120.000 
G2 X200.328 Y202.130 Z-6.000 I-0.001 J0.028 F300.000 
G2 X200.352 Y202.080 Z-6.000 I0.012 J-0.025 F300.000 
G2 X200.341 Y202.077 Z-6.000 I-0.012 J0.025 F300.000 
G1 X200.341 Y202.077 Z-9.000 F120.000 
G2 X200.328 Y202.130 Z-9.000 I-0.001 J0.028 F300.000 
G2 X200.352 Y202.080 Z-9.000 I0.012 J-0.025 F300.000 
G2 X200.341 Y202.077 Z-9.000 I-0.012 J0.025 F300.000 
G1 X200.341 Y202.077 Z-12.000 F120.000 
G2 X200.328 Y202.130 Z-12.000 I-0.001 J0.028 F300.000 
G2 X200.352 Y202.080 Z-12.000 I0.012 J-0.025 F300.000 
G2 X200.341 Y202.077 Z-12.000 I-0.012 J0.025 F300.000 
G1 X200.341 Y202.077 Z-14.000 F120.000 
G2 X200.328 Y202.130 Z-14.000 I-0.001 J0.028 F300.000 
G2 X200.352 Y202.080 Z-14.000 I0.012 J-0.025 F300.000 
G2 X200.341 Y202.077 Z-14.000 I-0.012 J0.025 F300.000 
G0 Z5.000 
G0 Z5.000 
G0 X200.341 Y202.077 
G0 X161.518 Y206.332 
G0 X161.518 Y206.332 Z3.000 
G1 X161.518 Y206.332 Z-3.000 F120.000 
G2 X161.502 Y206.310 Z-3.000 I-0.028 J0.003 F300.000 
G2 X161.465 Y206.323 Z-3.000 I-0.012 J0.025 F300.000 
G2 X161.478 Y206.360 Z-3.000 I0.025 J0.012 F300.000 
G2 X161.518 Y206.332 Z-3.000 I0.012 J-0.025 F300.000 
G1 X161.518 Y206.332 Z-6.000 F120.000 
G2 X161.502 Y206.310 Z-6.000 I-0.028 J0.003 F300.000 
G2 X161.465 Y206.323 Z-6.000 I-0.012 J0.025 F300.000 
G2 X161.478 Y206.360 Z-6.000 I0.025 J0.012 F300.000 
G2 X161.518 Y206.332 Z-6.000 I0.012 J-0.025 F300.000 
G1 X161.518 Y206.332 Z-9.000 F120.000 
G2 X161.502 Y206.310 Z-9.000 I-0.028 J0.003 F300.000 
G2 X161.465 Y206.323 Z-9.000 I-0.012 J0.025 F300.000 
G2 X161.478 Y206.360 Z-9.000 I0.025 J0.012 F300.000 
G2 X161.518 Y206.332 Z-9.000 I0.012 J-0.025 F300.000 
G1 X161.518 Y206.332 Z-12.000 F120.000 
G2 X161.502 Y206.310 Z-12.000 I-0.028 J0.003 F300.000 
G2 X161.465 Y206.323 Z-12.000 I-0.012 J0.025 F300.000 
G2 X161.478 Y206.360 Z-12.000 I0.025 J0.012 F300.000 
G2 X161.518 Y206.332 Z-12.000 I0.012 J-0.025 F300.000 
G1 X161.518 Y206.332 Z-14.000 F120.000 
G2 X161.502 Y206.310 Z-14.000 I-0.028 J0.003 F300.000 
G2 X161.465 Y206.323 Z-14.000 I-0.012 J0.025 F300.000 
G2 X161.478 Y206.360 Z-14.000 I0.025 J0.012 F300.000 
G2 X161.518 Y206.332 Z-14.000 I0.012 J-0.025 F300.000 
G0 Z5.000 
G0 Z5.000 
(finish operation: Profile002)
(begin postamble)
M05
G17 G54 G90 G80 G40
M2
