(Exported by FreeCAD)
(Post Processor: linuxcnc_post)
(Output Time:2024-07-19 14:37:56.538354)
(begin preamble)
G17 G54 G40 G49 G80 G90
G21
(begin operation: Fixture)
(machine units: mm/min)
G54 
(finish operation: Fixture)
(begin operation: TC: 3.1mm_Ball_End)
(machine units: mm/min)
(TC: 3.1mm_Ball_End) 
M5
M6 T11 
G43 H11 
M3 S600 
(finish operation: TC: 3.1mm_Ball_End)
(begin operation: drilled holes)
(machine units: mm/min)
(drilled holes) 
(Compensated Tool Path. Diameter: 3.1) 
G0 Z5.000 
G0 X171.062 Y124.427 
G0 Z3.000 
G1 X171.062 Y124.427 Z-3.100 F120.000 
G2 X170.924 Y123.730 Z-3.100 I-0.302 J-0.302 F300.000 
G2 X170.596 Y124.520 Z-3.100 I-0.164 J0.395 F300.000 
G2 X171.062 Y124.427 Z-3.100 I0.164 J-0.395 F300.000 
G1 X171.062 Y124.427 Z-6.200 F120.000 
G2 X170.924 Y123.730 Z-6.200 I-0.302 J-0.302 F300.000 
G2 X170.596 Y124.520 Z-6.200 I-0.164 J0.395 F300.000 
G2 X171.062 Y124.427 Z-6.200 I0.164 J-0.395 F300.000 
G1 X171.062 Y124.427 Z-9.300 F120.000 
G2 X170.924 Y123.730 Z-9.300 I-0.302 J-0.302 F300.000 
G2 X170.596 Y124.520 Z-9.300 I-0.164 J0.395 F300.000 
G2 X171.062 Y124.427 Z-9.300 I0.164 J-0.395 F300.000 
G1 X171.062 Y124.427 Z-12.400 F120.000 
G2 X170.924 Y123.730 Z-12.400 I-0.302 J-0.302 F300.000 
G2 X170.596 Y124.520 Z-12.400 I-0.164 J0.395 F300.000 
G2 X171.062 Y124.427 Z-12.400 I0.164 J-0.395 F300.000 
G1 X171.062 Y124.427 Z-14.000 F120.000 
G2 X170.924 Y123.730 Z-14.000 I-0.302 J-0.302 F300.000 
G2 X170.596 Y124.520 Z-14.000 I-0.164 J0.395 F300.000 
G2 X171.062 Y124.427 Z-14.000 I0.164 J-0.395 F300.000 
G0 Z5.000 
G0 Z5.000 
G0 X171.062 Y124.427 
G0 X211.614 Y128.295 
G0 X211.614 Y128.295 Z3.000 
G1 X211.614 Y128.295 Z-3.100 F120.000 
G2 X211.876 Y128.730 Z-3.100 I0.426 J0.041 F300.000 
G2 X212.204 Y127.940 Z-3.100 I0.164 J-0.395 F300.000 
G2 X211.614 Y128.295 Z-3.100 I-0.164 J0.395 F300.000 
G1 X211.614 Y128.295 Z-6.200 F120.000 
G2 X211.876 Y128.730 Z-6.200 I0.426 J0.041 F300.000 
G2 X212.204 Y127.940 Z-6.200 I0.164 J-0.395 F300.000 
G2 X211.614 Y128.295 Z-6.200 I-0.164 J0.395 F300.000 
G1 X211.614 Y128.295 Z-9.300 F120.000 
G2 X211.876 Y128.730 Z-9.300 I0.426 J0.041 F300.000 
G2 X212.204 Y127.940 Z-9.300 I0.164 J-0.395 F300.000 
G2 X211.614 Y128.295 Z-9.300 I-0.164 J0.395 F300.000 
G1 X211.614 Y128.295 Z-12.400 F120.000 
G2 X211.876 Y128.730 Z-12.400 I0.426 J0.041 F300.000 
G2 X212.204 Y127.940 Z-12.400 I0.164 J-0.395 F300.000 
G2 X211.614 Y128.295 Z-12.400 I-0.164 J0.395 F300.000 
G1 X211.614 Y128.295 Z-14.000 F120.000 
G2 X211.876 Y128.730 Z-14.000 I0.426 J0.041 F300.000 
G2 X212.204 Y127.940 Z-14.000 I0.164 J-0.395 F300.000 
G2 X211.614 Y128.295 Z-14.000 I-0.164 J0.395 F300.000 
G0 Z5.000 
G0 Z5.000 
G0 X211.614 Y128.295 
G0 X209.622 Y201.688 
G0 X209.622 Y201.688 Z3.000 
G1 X209.622 Y201.688 Z-3.100 F120.000 
G2 X209.447 Y202.510 Z-3.100 I-0.012 J0.427 F300.000 
G2 X209.774 Y201.720 Z-3.100 I0.164 J-0.395 F300.000 
G2 X209.622 Y201.688 Z-3.100 I-0.164 J0.395 F300.000 
G1 X209.622 Y201.688 Z-6.200 F120.000 
G2 X209.447 Y202.510 Z-6.200 I-0.012 J0.427 F300.000 
G2 X209.774 Y201.720 Z-6.200 I0.164 J-0.395 F300.000 
G2 X209.622 Y201.688 Z-6.200 I-0.164 J0.395 F300.000 
G1 X209.622 Y201.688 Z-9.300 F120.000 
G2 X209.447 Y202.510 Z-9.300 I-0.012 J0.427 F300.000 
G2 X209.774 Y201.720 Z-9.300 I0.164 J-0.395 F300.000 
G2 X209.622 Y201.688 Z-9.300 I-0.164 J0.395 F300.000 
G1 X209.622 Y201.688 Z-12.400 F120.000 
G2 X209.447 Y202.510 Z-12.400 I-0.012 J0.427 F300.000 
G2 X209.774 Y201.720 Z-12.400 I0.164 J-0.395 F300.000 
G2 X209.622 Y201.688 Z-12.400 I-0.164 J0.395 F300.000 
G1 X209.622 Y201.688 Z-14.000 F120.000 
G2 X209.447 Y202.510 Z-14.000 I-0.012 J0.427 F300.000 
G2 X209.774 Y201.720 Z-14.000 I0.164 J-0.395 F300.000 
G2 X209.622 Y201.688 Z-14.000 I-0.164 J0.395 F300.000 
G0 Z5.000 
G0 Z5.000 
G0 X209.622 Y201.688 
G0 X171.184 Y206.294 
G0 X171.184 Y206.294 Z3.000 
G1 X171.184 Y206.294 Z-3.100 F120.000 
G2 X170.924 Y205.950 Z-3.100 I-0.424 J0.051 F300.000 
G2 X170.596 Y206.740 Z-3.100 I-0.164 J0.395 F300.000 
G2 X171.184 Y206.294 Z-3.100 I0.164 J-0.395 F300.000 
G1 X171.184 Y206.294 Z-6.200 F120.000 
G2 X170.924 Y205.950 Z-6.200 I-0.424 J0.051 F300.000 
G2 X170.596 Y206.740 Z-6.200 I-0.164 J0.395 F300.000 
G2 X171.184 Y206.294 Z-6.200 I0.164 J-0.395 F300.000 
G1 X171.184 Y206.294 Z-9.300 F120.000 
G2 X170.924 Y205.950 Z-9.300 I-0.424 J0.051 F300.000 
G2 X170.596 Y206.740 Z-9.300 I-0.164 J0.395 F300.000 
G2 X171.184 Y206.294 Z-9.300 I0.164 J-0.395 F300.000 
G1 X171.184 Y206.294 Z-12.400 F120.000 
G2 X170.924 Y205.950 Z-12.400 I-0.424 J0.051 F300.000 
G2 X170.596 Y206.740 Z-12.400 I-0.164 J0.395 F300.000 
G2 X171.184 Y206.294 Z-12.400 I0.164 J-0.395 F300.000 
G1 X171.184 Y206.294 Z-14.000 F120.000 
G2 X170.924 Y205.950 Z-14.000 I-0.424 J0.051 F300.000 
G2 X170.596 Y206.740 Z-14.000 I-0.164 J0.395 F300.000 
G2 X171.184 Y206.294 Z-14.000 I0.164 J-0.395 F300.000 
G0 Z5.000 
G0 Z5.000 
(finish operation: drilled holes)
(begin operation: TC: 60 Deg. V-Bit)
(machine units: mm/min)
(TC: 60 Deg. V-Bit) 
M5
M6 T5 
G43 H5 
M3 S600 
(finish operation: TC: 60 Deg. V-Bit)
(begin operation: Engrave)
(machine units: mm/min)
(Engrave) 
G0 Z5.000 
G0 Z5.000 
G0 X0.000 Y165.050 
G0 Z3.000 
G1 X0.000 Y165.050 Z-1.000 F120.000 
G1 X419.220 Y165.050 Z-1.000 F300.000 
G0 Z5.000 
(finish operation: Engrave)
(begin postamble)
M05
G17 G54 G90 G80 G40
M2
