(Exported by FreeCAD)
(Post Processor: linuxcnc_post)
(Output Time:2025-04-27 20:43:47.089580)
(begin preamble)
G17 G54 G40 G49 G80 G90
G21
(begin operation: Fixture)
(machine units: mm/min)
G54 
(finish operation: Fixture)
(begin operation: TC: 60 Deg. V-Bit)
(machine units: mm/min)
(TC: 60 Deg. V-Bit) 
M5
M6 T5 
G43 H5 
M3 S600 
(finish operation: TC: 60 Deg. V-Bit)
(begin operation: fret and center line engraving)
(machine units: mm/min)
(fret and center line engraving) 
G0 Z4.000 
G0 Z4.000 
G0 X754.810 Y48.780 
G0 Z2.000 
G1 X754.810 Y48.780 Z-2.000 F120.000 
G1 X1.000 Y48.780 Z-2.000 F300.000 
G0 Z4.000 
G0 Z4.000 
G0 X545.105 Y78.780 
G0 Z2.000 
G1 X545.105 Y78.780 Z-2.000 F120.000 
G1 X545.105 Y18.780 Z-2.000 F300.000 
G0 Z4.000 
G0 Z4.000 
G0 X510.000 Y77.755 
G0 Z2.000 
G1 X510.000 Y77.755 Z-2.000 F120.000 
G1 X510.000 Y19.805 Z-2.000 F300.000 
G0 Z4.000 
G0 Z4.000 
G0 X476.865 Y77.270 
G0 Z2.000 
G1 X476.865 Y77.270 Z-2.000 F120.000 
G1 X476.865 Y20.290 Z-2.000 F300.000 
G0 Z4.000 
G0 Z4.000 
G0 X445.590 Y75.765 
G0 Z2.000 
G1 X445.590 Y75.765 Z-2.000 F120.000 
G1 X445.590 Y21.795 Z-2.000 F300.000 
G0 Z4.000 
G0 Z4.000 
G0 X416.070 Y76.235 
G0 Z2.000 
G1 X416.070 Y76.235 Z-2.000 F120.000 
G1 X416.070 Y21.325 Z-2.000 F300.000 
G0 Z4.000 
G0 Z4.000 
G0 X388.210 Y76.350 
G0 Z2.000 
G1 X388.210 Y76.350 Z-2.000 F120.000 
G1 X388.210 Y21.210 Z-2.000 F300.000 
G0 Z4.000 
G0 Z4.000 
G0 X361.910 Y78.410 
G0 Z2.000 
G1 X361.910 Y78.410 Z-2.000 F120.000 
G1 X361.910 Y19.150 Z-2.000 F300.000 
G0 Z4.000 
G0 Z4.000 
G0 X337.087 Y79.340 
G0 Z2.000 
G1 X337.087 Y79.340 Z-2.000 F120.000 
G1 X337.087 Y18.220 Z-2.000 F300.000 
G0 Z4.000 
G0 Z4.000 
G0 X313.657 Y83.130 
G0 Z2.000 
G1 X313.657 Y83.130 Z-2.000 F120.000 
G1 X313.657 Y14.430 Z-2.000 F300.000 
G0 Z4.000 
G0 Z4.000 
G0 X291.542 Y83.130 
G0 Z2.000 
G1 X291.542 Y83.130 Z-2.000 F120.000 
G1 X291.542 Y14.430 Z-2.000 F300.000 
G0 Z4.000 
G0 Z4.000 
G0 X270.668 Y83.130 
G0 Z2.000 
G1 X270.668 Y83.130 Z-2.000 F120.000 
G1 X270.668 Y14.430 Z-2.000 F300.000 
G0 Z4.000 
G0 Z4.000 
G0 X250.966 Y83.130 
G0 Z2.000 
G1 X250.966 Y83.130 Z-2.000 F120.000 
G1 X250.966 Y14.430 Z-2.000 F300.000 
G0 Z4.000 
G0 Z4.000 
G0 X232.370 Y83.130 
G0 Z2.000 
G1 X232.370 Y83.130 Z-2.000 F120.000 
G1 X232.370 Y14.430 Z-2.000 F300.000 
G0 Z4.000 
G0 Z4.000 
G0 X214.817 Y83.130 
G0 Z2.000 
G1 X214.817 Y83.130 Z-2.000 F120.000 
G1 X214.817 Y14.430 Z-2.000 F300.000 
G0 Z4.000 
G0 Z4.000 
G0 X198.250 Y83.130 
G0 Z2.000 
G1 X198.250 Y83.130 Z-2.000 F120.000 
G1 X198.250 Y14.430 Z-2.000 F300.000 
G0 Z4.000 
G0 Z4.000 
G0 X182.612 Y83.130 
G0 Z2.000 
G1 X182.612 Y83.130 Z-2.000 F120.000 
G1 X182.612 Y14.430 Z-2.000 F300.000 
G0 Z4.000 
G0 Z4.000 
G0 X167.852 Y83.130 
G0 Z2.000 
G1 X167.852 Y83.130 Z-2.000 F120.000 
G1 X167.852 Y14.430 Z-2.000 F300.000 
G0 Z4.000 
G0 Z4.000 
G0 X153.920 Y83.130 
G0 Z2.000 
G1 X153.920 Y83.130 Z-2.000 F120.000 
G1 X153.920 Y14.430 Z-2.000 F300.000 
G0 Z4.000 
G0 Z4.000 
G0 X140.770 Y83.130 
G0 Z2.000 
G1 X140.770 Y83.130 Z-2.000 F120.000 
G1 X140.770 Y14.430 Z-2.000 F300.000 
G0 Z4.000 
G0 Z4.000 
G0 X128.358 Y83.130 
G0 Z2.000 
G1 X128.358 Y83.130 Z-2.000 F120.000 
G1 X128.358 Y14.430 Z-2.000 F300.000 
G0 Z4.000 
G0 Z4.000 
G0 X116.643 Y83.130 
G0 Z2.000 
G1 X116.643 Y83.130 Z-2.000 F120.000 
G1 X116.643 Y14.430 Z-2.000 F300.000 
G0 Z4.000 
G0 Z4.000 
G0 X105.586 Y83.130 
G0 Z2.000 
G1 X105.586 Y83.130 Z-2.000 F120.000 
G1 X105.586 Y14.430 Z-2.000 F300.000 
G0 Z4.000 
G0 Z4.000 
G0 X95.149 Y83.130 
G0 Z2.000 
G1 X95.149 Y83.130 Z-2.000 F120.000 
G1 X95.149 Y14.430 Z-2.000 F300.000 
G0 Z4.000 
G0 Z4.000 
G0 X85.298 Y83.130 
G0 Z2.000 
G1 X85.298 Y83.130 Z-2.000 F120.000 
G1 X85.298 Y14.430 Z-2.000 F300.000 
G0 Z4.000 
G0 Z4.000 
G0 X76.000 Y83.130 
G0 Z2.000 
G1 X76.000 Y83.130 Z-2.000 F120.000 
G1 X76.000 Y14.430 Z-2.000 F300.000 
G0 Z4.000 
(finish operation: fret and center line engraving)
(begin postamble)
M05
G17 G54 G90 G80 G40
M2
