(Exported by FreeCAD)
(Post Processor: linuxcnc_post)
(Output Time:2025-04-27 20:45:37.108076)
(begin preamble)
G17 G54 G40 G49 G80 G90
G21
(begin operation: Fixture)
(machine units: mm/min)
G54 
(finish operation: Fixture)
(begin operation: TC: 6.3mm_Endmill001)
(machine units: mm/min)
(TC: 6.3mm_Endmill001) 
M5
M6 T10 
G43 H10 
M3 S600 
(finish operation: TC: 6.3mm_Endmill001)
(begin operation: neck profile tagged)
(machine units: mm/min)
G0 Z4.000 
G0 X717.698 Y80.938 Z4.000 
G0 X717.698 Y80.938 Z2.000 
G1 X717.698 Y80.938 Z-4.000 F120.000 
G2 X720.649 Y72.394 Z-4.000 I-4.473 J-6.327 F300.000 
G3 X728.631 Y26.939 Z-4.000 I44.050 J-15.693 F300.000 
G2 X721.715 Y13.748 Z-4.000 I-5.240 J-5.661 F300.000 
G3 X665.587 Y14.320 Z-4.000 I-31.819 J-367.992 F300.000 
G3 X633.245 Y10.504 Z-4.000 I17.692 J-288.889 F300.000 
G3 X607.833 Y4.328 Z-4.000 I31.278 J-184.058 F300.000 
G3 X592.622 Y-1.908 Z-4.000 I30.308 J-95.607 F300.000 
G1 X591.982 Y-2.147 Z-4.000 F300.000 
G2 X588.235 Y-0.396 Z-4.000 I-0.812 J3.147 F300.000 
G3 X551.620 Y24.083 Z-4.000 I-37.847 J-16.987 F300.000 
G3 X545.130 Y24.099 Z-4.000 I-4.130 J-362.004 F300.000 
G1 X85.576 Y16.955 Z-4.000 F300.000 
G1 X18.855 Y16.955 Z-4.000 F300.000 
G2 X12.430 Y23.380 Z-4.000 I0.012 J6.437 F300.000 
G1 X12.430 Y74.180 Z-4.000 F300.000 
G2 X18.855 Y80.605 Z-4.000 I6.437 J-0.012 F300.000 
G1 X85.525 Y80.605 Z-4.000 F300.000 
G1 X545.146 Y73.461 Z-4.000 F300.000 
G3 X550.000 Y73.464 Z-4.000 I2.338 J158.948 F300.000 
G3 X587.721 Y98.038 Z-4.000 I-0.124 J41.429 F300.000 
G2 X591.974 Y99.622 Z-4.000 I2.939 J-1.388 F300.000 
G3 X605.901 Y94.227 Z-4.000 I52.919 J115.928 F300.000 
G3 X628.161 Y88.519 Z-4.000 I66.438 J212.821 F300.000 
G3 X661.030 Y83.803 Z-4.000 I63.195 J323.561 F300.000 
G3 X713.272 Y82.359 Z-4.000 I37.534 J412.282 F300.000 
G2 X717.698 Y80.938 Z-4.000 I-0.047 J-7.748 F300.000 
G1 X717.698 Y80.938 Z-7.000 F120.000 
G2 X720.649 Y72.394 Z-7.000 I-4.473 J-6.327 F300.000 
G3 X728.631 Y26.939 Z-7.000 I44.050 J-15.693 F300.000 
G2 X721.715 Y13.748 Z-7.000 I-5.240 J-5.661 F300.000 
G3 X665.587 Y14.320 Z-7.000 I-31.819 J-367.992 F300.000 
G3 X633.245 Y10.504 Z-7.000 I17.692 J-288.889 F300.000 
G3 X607.833 Y4.328 Z-7.000 I31.278 J-184.058 F300.000 
G3 X592.622 Y-1.908 Z-7.000 I30.308 J-95.607 F300.000 
G1 X591.982 Y-2.147 Z-7.000 F300.000 
G2 X588.235 Y-0.396 Z-7.000 I-0.812 J3.147 F300.000 
G3 X551.620 Y24.083 Z-7.000 I-37.847 J-16.987 F300.000 
G3 X545.130 Y24.099 Z-7.000 I-4.130 J-362.004 F300.000 
G1 X85.576 Y16.955 Z-7.000 F300.000 
G1 X18.855 Y16.955 Z-7.000 F300.000 
G2 X12.430 Y23.380 Z-7.000 I0.012 J6.437 F300.000 
G1 X12.430 Y74.180 Z-7.000 F300.000 
G2 X18.855 Y80.605 Z-7.000 I6.437 J-0.012 F300.000 
G1 X85.525 Y80.605 Z-7.000 F300.000 
G1 X545.146 Y73.461 Z-7.000 F300.000 
G3 X550.000 Y73.464 Z-7.000 I2.338 J158.948 F300.000 
G3 X587.721 Y98.038 Z-7.000 I-0.124 J41.429 F300.000 
G2 X591.974 Y99.622 Z-7.000 I2.939 J-1.388 F300.000 
G3 X605.901 Y94.227 Z-7.000 I52.919 J115.928 F300.000 
G3 X628.161 Y88.519 Z-7.000 I66.438 J212.821 F300.000 
G3 X661.030 Y83.803 Z-7.000 I63.195 J323.561 F300.000 
G3 X713.272 Y82.359 Z-7.000 I37.534 J412.282 F300.000 
G2 X717.698 Y80.938 Z-7.000 I-0.047 J-7.748 F300.000 
G1 X717.698 Y80.938 Z-10.000 F120.000 
G2 X720.649 Y72.394 Z-10.000 I-4.473 J-6.327 F300.000 
G3 X728.631 Y26.939 Z-10.000 I44.050 J-15.693 F300.000 
G2 X721.715 Y13.748 Z-10.000 I-5.240 J-5.661 F300.000 
G3 X665.587 Y14.320 Z-10.000 I-31.819 J-367.992 F300.000 
G3 X633.245 Y10.504 Z-10.000 I17.692 J-288.889 F300.000 
G3 X607.833 Y4.328 Z-10.000 I31.278 J-184.058 F300.000 
G3 X592.622 Y-1.908 Z-10.000 I30.308 J-95.607 F300.000 
G1 X591.982 Y-2.147 Z-10.000 F300.000 
G2 X588.235 Y-0.396 Z-10.000 I-0.812 J3.147 F300.000 
G3 X551.620 Y24.083 Z-10.000 I-37.847 J-16.987 F300.000 
G3 X545.130 Y24.099 Z-10.000 I-4.130 J-362.004 F300.000 
G1 X85.576 Y16.955 Z-10.000 F300.000 
G1 X18.855 Y16.955 Z-10.000 F300.000 
G2 X12.430 Y23.380 Z-10.000 I0.012 J6.437 F300.000 
G1 X12.430 Y74.180 Z-10.000 F300.000 
G2 X18.855 Y80.605 Z-10.000 I6.437 J-0.012 F300.000 
G1 X85.525 Y80.605 Z-10.000 F300.000 
G1 X545.146 Y73.461 Z-10.000 F300.000 
G3 X550.000 Y73.464 Z-10.000 I2.338 J158.948 F300.000 
G3 X587.721 Y98.038 Z-10.000 I-0.124 J41.429 F300.000 
G2 X591.974 Y99.622 Z-10.000 I2.939 J-1.388 F300.000 
G3 X605.901 Y94.227 Z-10.000 I52.919 J115.928 F300.000 
G3 X628.161 Y88.519 Z-10.000 I66.438 J212.821 F300.000 
G3 X661.030 Y83.803 Z-10.000 I63.195 J323.561 F300.000 
G3 X713.272 Y82.359 Z-10.000 I37.534 J412.282 F300.000 
G2 X717.698 Y80.938 Z-10.000 I-0.047 J-7.748 F300.000 
G1 X717.698 Y80.938 Z-13.000 F120.000 
G2 X720.649 Y72.394 Z-13.000 I-4.473 J-6.327 F300.000 
G3 X728.631 Y26.939 Z-13.000 I44.050 J-15.693 F300.000 
G2 X721.715 Y13.748 Z-13.000 I-5.240 J-5.661 F300.000 
G3 X665.587 Y14.320 Z-13.000 I-31.819 J-367.992 F300.000 
G3 X633.245 Y10.504 Z-13.000 I17.692 J-288.889 F300.000 
G3 X607.833 Y4.328 Z-13.000 I31.278 J-184.058 F300.000 
G3 X592.622 Y-1.908 Z-13.000 I30.308 J-95.607 F300.000 
G1 X591.982 Y-2.147 Z-13.000 F300.000 
G2 X588.235 Y-0.396 Z-13.000 I-0.812 J3.147 F300.000 
G3 X551.620 Y24.083 Z-13.000 I-37.847 J-16.987 F300.000 
G3 X545.130 Y24.099 Z-13.000 I-4.130 J-362.004 F300.000 
G1 X453.334 Y22.672 Z-13.000 F300.000 
G1 X452.334 Y22.656 Z-12.000 F210.001 
G1 X408.150 Y21.970 Z-12.000 F300.000 
G1 X407.150 Y21.954 Z-13.000 F210.001 
G1 X223.556 Y19.100 Z-13.000 F300.000 
G1 X222.556 Y19.085 Z-12.000 F210.001 
G1 X178.372 Y18.398 Z-12.000 F300.000 
G1 X177.372 Y18.382 Z-13.000 F210.001 
G1 X85.576 Y16.955 Z-13.000 F300.000 
G1 X18.855 Y16.955 Z-13.000 F300.000 
G2 X12.430 Y23.380 Z-13.000 I0.012 J6.437 F300.000 
G1 X12.430 Y74.180 Z-13.000 F300.000 
G2 X18.855 Y80.605 Z-13.000 I6.437 J-0.012 F300.000 
G1 X85.525 Y80.605 Z-13.000 F300.000 
G1 X177.339 Y79.178 Z-13.000 F300.000 
G1 X178.339 Y79.162 Z-12.000 F210.001 
G1 X222.524 Y78.476 Z-12.000 F300.000 
G1 X223.523 Y78.460 Z-13.000 F210.001 
G1 X407.149 Y75.606 Z-13.000 F300.000 
G1 X408.149 Y75.590 Z-12.000 F210.001 
G1 X452.333 Y74.904 Z-12.000 F300.000 
G1 X453.333 Y74.888 Z-13.000 F210.001 
G1 X545.146 Y73.461 Z-13.000 F300.000 
G3 X550.000 Y73.464 Z-13.000 I2.338 J158.948 F300.000 
G3 X587.721 Y98.038 Z-13.000 I-0.124 J41.429 F300.000 
G2 X591.974 Y99.622 Z-13.000 I2.939 J-1.388 F300.000 
G3 X605.901 Y94.227 Z-13.000 I52.919 J115.928 F300.000 
G3 X628.161 Y88.519 Z-13.000 I66.438 J212.821 F300.000 
G3 X661.030 Y83.803 Z-13.000 I63.195 J323.561 F300.000 
G3 X713.272 Y82.359 Z-13.000 I37.534 J412.282 F300.000 
G2 X717.698 Y80.938 Z-13.000 I-0.047 J-7.748 F300.000 
G1 X717.698 Y80.938 Z-16.000 F120.000 
G2 X720.649 Y72.394 Z-16.000 I-4.473 J-6.327 F300.000 
G3 X728.631 Y26.939 Z-16.000 I44.050 J-15.693 F300.000 
G2 X721.715 Y13.748 Z-16.000 I-5.240 J-5.661 F300.000 
G3 X665.587 Y14.320 Z-16.000 I-31.819 J-367.992 F300.000 
G3 X633.245 Y10.504 Z-16.000 I17.692 J-288.889 F300.000 
G3 X607.833 Y4.328 Z-16.000 I31.278 J-184.058 F300.000 
G3 X592.622 Y-1.908 Z-16.000 I30.308 J-95.607 F300.000 
G1 X591.982 Y-2.147 Z-16.000 F300.000 
G2 X588.235 Y-0.396 Z-16.000 I-0.812 J3.147 F300.000 
G3 X551.620 Y24.083 Z-16.000 I-37.847 J-16.987 F300.000 
G3 X545.130 Y24.099 Z-16.000 I-4.130 J-362.004 F300.000 
G1 X456.334 Y22.718 Z-16.000 F300.000 
G1 X452.334 Y22.656 Z-12.000 F210.000 
G1 X408.150 Y21.970 Z-12.000 F300.000 
G1 X404.150 Y21.907 Z-16.000 F210.000 
G1 X226.556 Y19.147 Z-16.000 F300.000 
G1 X222.556 Y19.085 Z-12.000 F210.000 
G1 X178.372 Y18.398 Z-12.000 F300.000 
G1 X174.373 Y18.336 Z-16.000 F210.000 
G1 X85.576 Y16.955 Z-16.000 F300.000 
G1 X18.855 Y16.955 Z-16.000 F300.000 
G2 X12.430 Y23.380 Z-16.000 I0.012 J6.437 F300.000 
G1 X12.430 Y74.180 Z-16.000 F300.000 
G2 X18.855 Y80.605 Z-16.000 I6.437 J-0.012 F300.000 
G1 X85.525 Y80.605 Z-16.000 F300.000 
G1 X174.340 Y79.225 Z-16.000 F300.000 
G1 X178.339 Y79.162 Z-12.000 F210.000 
G1 X222.524 Y78.476 Z-12.000 F300.000 
G1 X226.523 Y78.413 Z-16.000 F210.000 
G1 X404.150 Y75.653 Z-16.000 F300.000 
G1 X408.149 Y75.590 Z-12.000 F210.000 
G1 X452.333 Y74.904 Z-12.000 F300.000 
G1 X456.333 Y74.841 Z-16.000 F210.000 
G1 X545.146 Y73.461 Z-16.000 F300.000 
G3 X550.000 Y73.464 Z-16.000 I2.338 J158.948 F300.000 
G3 X587.721 Y98.038 Z-16.000 I-0.124 J41.429 F300.000 
G2 X591.974 Y99.622 Z-16.000 I2.939 J-1.388 F300.000 
G3 X605.901 Y94.227 Z-16.000 I52.919 J115.928 F300.000 
G3 X628.161 Y88.519 Z-16.000 I66.438 J212.821 F300.000 
G3 X661.030 Y83.803 Z-16.000 I63.195 J323.561 F300.000 
G3 X713.272 Y82.359 Z-16.000 I37.534 J412.282 F300.000 
G2 X717.698 Y80.938 Z-16.000 I-0.047 J-7.748 F300.000 
G0 X717.698 Y80.938 Z4.000 
(finish operation: neck profile tagged)
(begin postamble)
M05
G17 G54 G90 G80 G40
M2
