(Exported by FreeCAD)
(Post Processor: linuxcnc_post)
(Output Time:2024-12-03 20:52:55.578981)
(begin preamble)
G17 G54 G40 G49 G80 G90
G21
(begin operation: Fixture)
(machine units: mm/min)
G54 
(finish operation: Fixture)
(begin operation: 6.3mm_Endmill002)
(machine units: mm/min)
(6.3mm_Endmill002) 
M5
M6 T2 
G43 H2 
M3 S600 
(finish operation: 6.3mm_Endmill002)
(begin operation: Profile)
(machine units: mm/min)
(Profile) 
(Compensated Tool Path. Diameter: 6.3) 
G0 Z5.000 
G0 X327.343 Y178.768 
G0 Z3.000 
G1 X327.343 Y178.768 Z-3.000 F120.000 
G2 X327.350 Y178.674 Z-3.000 I-0.051 J-0.051 F300.000 
G1 X327.350 Y128.126 Z-3.000 F300.000 
G2 X327.249 Y128.025 Z-3.000 I-0.058 J-0.042 F300.000 
G1 X227.501 Y128.025 Z-3.000 F300.000 
G2 X227.400 Y128.126 Z-3.000 I-0.042 J0.058 F300.000 
G1 X227.400 Y178.674 Z-3.000 F300.000 
G2 X227.501 Y178.775 Z-3.000 I0.058 J0.042 F300.000 
G1 X327.249 Y178.775 Z-3.000 F300.000 
G2 X327.343 Y178.768 Z-3.000 I0.042 J-0.058 F300.000 
G1 X327.343 Y178.768 Z-6.000 F120.000 
G2 X327.350 Y178.674 Z-6.000 I-0.051 J-0.051 F300.000 
G1 X327.350 Y128.126 Z-6.000 F300.000 
G2 X327.249 Y128.025 Z-6.000 I-0.058 J-0.042 F300.000 
G1 X227.501 Y128.025 Z-6.000 F300.000 
G2 X227.400 Y128.126 Z-6.000 I-0.042 J0.058 F300.000 
G1 X227.400 Y178.674 Z-6.000 F300.000 
G2 X227.501 Y178.775 Z-6.000 I0.058 J0.042 F300.000 
G1 X327.249 Y178.775 Z-6.000 F300.000 
G2 X327.343 Y178.768 Z-6.000 I0.042 J-0.058 F300.000 
G1 X327.343 Y178.768 Z-9.000 F120.000 
G2 X327.350 Y178.674 Z-9.000 I-0.051 J-0.051 F300.000 
G1 X327.350 Y128.126 Z-9.000 F300.000 
G2 X327.249 Y128.025 Z-9.000 I-0.058 J-0.042 F300.000 
G1 X227.501 Y128.025 Z-9.000 F300.000 
G2 X227.400 Y128.126 Z-9.000 I-0.042 J0.058 F300.000 
G1 X227.400 Y178.674 Z-9.000 F300.000 
G2 X227.501 Y178.775 Z-9.000 I0.058 J0.042 F300.000 
G1 X327.249 Y178.775 Z-9.000 F300.000 
G2 X327.343 Y178.768 Z-9.000 I0.042 J-0.058 F300.000 
G1 X327.343 Y178.768 Z-12.000 F120.000 
G2 X327.350 Y178.674 Z-12.000 I-0.051 J-0.051 F300.000 
G1 X327.350 Y128.126 Z-12.000 F300.000 
G2 X327.249 Y128.025 Z-12.000 I-0.058 J-0.042 F300.000 
G1 X227.501 Y128.025 Z-12.000 F300.000 
G2 X227.400 Y128.126 Z-12.000 I-0.042 J0.058 F300.000 
G1 X227.400 Y178.674 Z-12.000 F300.000 
G2 X227.501 Y178.775 Z-12.000 I0.058 J0.042 F300.000 
G1 X327.249 Y178.775 Z-12.000 F300.000 
G2 X327.343 Y178.768 Z-12.000 I0.042 J-0.058 F300.000 
G1 X327.343 Y178.768 Z-15.000 F120.000 
G2 X327.350 Y178.674 Z-15.000 I-0.051 J-0.051 F300.000 
G1 X327.350 Y128.126 Z-15.000 F300.000 
G2 X327.249 Y128.025 Z-15.000 I-0.058 J-0.042 F300.000 
G1 X227.501 Y128.025 Z-15.000 F300.000 
G2 X227.400 Y128.126 Z-15.000 I-0.042 J0.058 F300.000 
G1 X227.400 Y178.674 Z-15.000 F300.000 
G2 X227.501 Y178.775 Z-15.000 I0.058 J0.042 F300.000 
G1 X327.249 Y178.775 Z-15.000 F300.000 
G2 X327.343 Y178.768 Z-15.000 I0.042 J-0.058 F300.000 
G1 X327.343 Y178.768 Z-18.000 F120.000 
G2 X327.350 Y178.674 Z-18.000 I-0.051 J-0.051 F300.000 
G1 X327.350 Y128.126 Z-18.000 F300.000 
G2 X327.249 Y128.025 Z-18.000 I-0.058 J-0.042 F300.000 
G1 X227.501 Y128.025 Z-18.000 F300.000 
G2 X227.400 Y128.126 Z-18.000 I-0.042 J0.058 F300.000 
G1 X227.400 Y178.674 Z-18.000 F300.000 
G2 X227.501 Y178.775 Z-18.000 I0.058 J0.042 F300.000 
G1 X327.249 Y178.775 Z-18.000 F300.000 
G2 X327.343 Y178.768 Z-18.000 I0.042 J-0.058 F300.000 
G1 X327.343 Y178.768 Z-21.000 F120.000 
G2 X327.350 Y178.674 Z-21.000 I-0.051 J-0.051 F300.000 
G1 X327.350 Y128.126 Z-21.000 F300.000 
G2 X327.249 Y128.025 Z-21.000 I-0.058 J-0.042 F300.000 
G1 X227.501 Y128.025 Z-21.000 F300.000 
G2 X227.400 Y128.126 Z-21.000 I-0.042 J0.058 F300.000 
G1 X227.400 Y178.674 Z-21.000 F300.000 
G2 X227.501 Y178.775 Z-21.000 I0.058 J0.042 F300.000 
G1 X327.249 Y178.775 Z-21.000 F300.000 
G2 X327.343 Y178.768 Z-21.000 I0.042 J-0.058 F300.000 
G1 X327.343 Y178.768 Z-24.000 F120.000 
G2 X327.350 Y178.674 Z-24.000 I-0.051 J-0.051 F300.000 
G1 X327.350 Y128.126 Z-24.000 F300.000 
G2 X327.249 Y128.025 Z-24.000 I-0.058 J-0.042 F300.000 
G1 X227.501 Y128.025 Z-24.000 F300.000 
G2 X227.400 Y128.126 Z-24.000 I-0.042 J0.058 F300.000 
G1 X227.400 Y178.674 Z-24.000 F300.000 
G2 X227.501 Y178.775 Z-24.000 I0.058 J0.042 F300.000 
G1 X327.249 Y178.775 Z-24.000 F300.000 
G2 X327.343 Y178.768 Z-24.000 I0.042 J-0.058 F300.000 
G1 X327.343 Y178.768 Z-27.000 F120.000 
G2 X327.350 Y178.674 Z-27.000 I-0.051 J-0.051 F300.000 
G1 X327.350 Y128.126 Z-27.000 F300.000 
G2 X327.249 Y128.025 Z-27.000 I-0.058 J-0.042 F300.000 
G1 X227.501 Y128.025 Z-27.000 F300.000 
G2 X227.400 Y128.126 Z-27.000 I-0.042 J0.058 F300.000 
G1 X227.400 Y178.674 Z-27.000 F300.000 
G2 X227.501 Y178.775 Z-27.000 I0.058 J0.042 F300.000 
G1 X327.249 Y178.775 Z-27.000 F300.000 
G2 X327.343 Y178.768 Z-27.000 I0.042 J-0.058 F300.000 
G1 X327.343 Y178.768 Z-30.000 F120.000 
G2 X327.350 Y178.674 Z-30.000 I-0.051 J-0.051 F300.000 
G1 X327.350 Y128.126 Z-30.000 F300.000 
G2 X327.249 Y128.025 Z-30.000 I-0.058 J-0.042 F300.000 
G1 X227.501 Y128.025 Z-30.000 F300.000 
G2 X227.400 Y128.126 Z-30.000 I-0.042 J0.058 F300.000 
G1 X227.400 Y178.674 Z-30.000 F300.000 
G2 X227.501 Y178.775 Z-30.000 I0.058 J0.042 F300.000 
G1 X327.249 Y178.775 Z-30.000 F300.000 
G2 X327.343 Y178.768 Z-30.000 I0.042 J-0.058 F300.000 
G1 X327.343 Y178.768 Z-33.000 F120.000 
G2 X327.350 Y178.674 Z-33.000 I-0.051 J-0.051 F300.000 
G1 X327.350 Y128.126 Z-33.000 F300.000 
G2 X327.249 Y128.025 Z-33.000 I-0.058 J-0.042 F300.000 
G1 X227.501 Y128.025 Z-33.000 F300.000 
G2 X227.400 Y128.126 Z-33.000 I-0.042 J0.058 F300.000 
G1 X227.400 Y178.674 Z-33.000 F300.000 
G2 X227.501 Y178.775 Z-33.000 I0.058 J0.042 F300.000 
G1 X327.249 Y178.775 Z-33.000 F300.000 
G2 X327.343 Y178.768 Z-33.000 I0.042 J-0.058 F300.000 
G1 X327.343 Y178.768 Z-33.500 F120.000 
G2 X327.350 Y178.674 Z-33.500 I-0.051 J-0.051 F300.000 
G1 X327.350 Y128.126 Z-33.500 F300.000 
G2 X327.249 Y128.025 Z-33.500 I-0.058 J-0.042 F300.000 
G1 X227.501 Y128.025 Z-33.500 F300.000 
G2 X227.400 Y128.126 Z-33.500 I-0.042 J0.058 F300.000 
G1 X227.400 Y178.674 Z-33.500 F300.000 
G2 X227.501 Y178.775 Z-33.500 I0.058 J0.042 F300.000 
G1 X327.249 Y178.775 Z-33.500 F300.000 
G2 X327.343 Y178.768 Z-33.500 I0.042 J-0.058 F300.000 
G0 Z5.000 
G0 Z5.000 
(finish operation: Profile)
(begin postamble)
M05
G17 G54 G90 G80 G40
M2
