(Exported by FreeCAD)
(Post Processor: linuxcnc_post)
(Output Time:2024-12-03 21:40:39.305708)
(begin preamble)
G17 G54 G40 G49 G80 G90
G21
(begin operation: Fixture)
(machine units: mm/min)
G54 
(finish operation: Fixture)
(begin operation: 6.3mm_Endmill002)
(machine units: mm/min)
(6.3mm_Endmill002) 
M5
M6 T2 
G43 H2 
M3 S600 
(finish operation: 6.3mm_Endmill002)
(begin operation: Profile001)
(machine units: mm/min)
(Profile001) 
(Compensated Tool Path. Diameter: 6.3) 
G0 Z5.000 
G0 X409.627 Y308.027 
G0 Z3.000 
G1 X409.627 Y308.027 Z-3.000 F120.000 
G2 X410.550 Y305.800 Z-3.000 I-2.227 J-2.227 F300.000 
G1 X410.550 Y1.000 Z-3.000 F300.000 
G2 X407.400 Y-2.150 Z-3.000 I-3.150 J-0.000 F300.000 
G1 X1.000 Y-2.150 Z-3.000 F300.000 
G2 X-2.150 Y1.000 Z-3.000 I-0.000 J3.150 F300.000 
G1 X-2.150 Y305.800 Z-3.000 F300.000 
G2 X1.000 Y308.950 Z-3.000 I3.150 J0.000 F300.000 
G1 X407.400 Y308.950 Z-3.000 F300.000 
G2 X409.627 Y308.027 Z-3.000 I0.000 J-3.150 F300.000 
G1 X409.627 Y308.027 Z-6.000 F120.000 
G2 X410.550 Y305.800 Z-6.000 I-2.227 J-2.227 F300.000 
G1 X410.550 Y1.000 Z-6.000 F300.000 
G2 X407.400 Y-2.150 Z-6.000 I-3.150 J-0.000 F300.000 
G1 X1.000 Y-2.150 Z-6.000 F300.000 
G2 X-2.150 Y1.000 Z-6.000 I-0.000 J3.150 F300.000 
G1 X-2.150 Y305.800 Z-6.000 F300.000 
G2 X1.000 Y308.950 Z-6.000 I3.150 J0.000 F300.000 
G1 X407.400 Y308.950 Z-6.000 F300.000 
G2 X409.627 Y308.027 Z-6.000 I0.000 J-3.150 F300.000 
G1 X409.627 Y308.027 Z-9.000 F120.000 
G2 X410.550 Y305.800 Z-9.000 I-2.227 J-2.227 F300.000 
G1 X410.550 Y1.000 Z-9.000 F300.000 
G2 X407.400 Y-2.150 Z-9.000 I-3.150 J-0.000 F300.000 
G1 X1.000 Y-2.150 Z-9.000 F300.000 
G2 X-2.150 Y1.000 Z-9.000 I-0.000 J3.150 F300.000 
G1 X-2.150 Y305.800 Z-9.000 F300.000 
G2 X1.000 Y308.950 Z-9.000 I3.150 J0.000 F300.000 
G1 X407.400 Y308.950 Z-9.000 F300.000 
G2 X409.627 Y308.027 Z-9.000 I0.000 J-3.150 F300.000 
G1 X409.627 Y308.027 Z-12.000 F120.000 
G2 X410.550 Y305.800 Z-12.000 I-2.227 J-2.227 F300.000 
G1 X410.550 Y1.000 Z-12.000 F300.000 
G2 X407.400 Y-2.150 Z-12.000 I-3.150 J-0.000 F300.000 
G1 X1.000 Y-2.150 Z-12.000 F300.000 
G2 X-2.150 Y1.000 Z-12.000 I-0.000 J3.150 F300.000 
G1 X-2.150 Y305.800 Z-12.000 F300.000 
G2 X1.000 Y308.950 Z-12.000 I3.150 J0.000 F300.000 
G1 X407.400 Y308.950 Z-12.000 F300.000 
G2 X409.627 Y308.027 Z-12.000 I0.000 J-3.150 F300.000 
G1 X409.627 Y308.027 Z-15.000 F120.000 
G2 X410.550 Y305.800 Z-15.000 I-2.227 J-2.227 F300.000 
G1 X410.550 Y1.000 Z-15.000 F300.000 
G2 X407.400 Y-2.150 Z-15.000 I-3.150 J-0.000 F300.000 
G1 X1.000 Y-2.150 Z-15.000 F300.000 
G2 X-2.150 Y1.000 Z-15.000 I-0.000 J3.150 F300.000 
G1 X-2.150 Y305.800 Z-15.000 F300.000 
G2 X1.000 Y308.950 Z-15.000 I3.150 J0.000 F300.000 
G1 X407.400 Y308.950 Z-15.000 F300.000 
G2 X409.627 Y308.027 Z-15.000 I0.000 J-3.150 F300.000 
G1 X409.627 Y308.027 Z-18.000 F120.000 
G2 X410.550 Y305.800 Z-18.000 I-2.227 J-2.227 F300.000 
G1 X410.550 Y1.000 Z-18.000 F300.000 
G2 X407.400 Y-2.150 Z-18.000 I-3.150 J-0.000 F300.000 
G1 X1.000 Y-2.150 Z-18.000 F300.000 
G2 X-2.150 Y1.000 Z-18.000 I-0.000 J3.150 F300.000 
G1 X-2.150 Y305.800 Z-18.000 F300.000 
G2 X1.000 Y308.950 Z-18.000 I3.150 J0.000 F300.000 
G1 X407.400 Y308.950 Z-18.000 F300.000 
G2 X409.627 Y308.027 Z-18.000 I0.000 J-3.150 F300.000 
G1 X409.627 Y308.027 Z-21.000 F120.000 
G2 X410.550 Y305.800 Z-21.000 I-2.227 J-2.227 F300.000 
G1 X410.550 Y1.000 Z-21.000 F300.000 
G2 X407.400 Y-2.150 Z-21.000 I-3.150 J-0.000 F300.000 
G1 X1.000 Y-2.150 Z-21.000 F300.000 
G2 X-2.150 Y1.000 Z-21.000 I-0.000 J3.150 F300.000 
G1 X-2.150 Y305.800 Z-21.000 F300.000 
G2 X1.000 Y308.950 Z-21.000 I3.150 J0.000 F300.000 
G1 X407.400 Y308.950 Z-21.000 F300.000 
G2 X409.627 Y308.027 Z-21.000 I0.000 J-3.150 F300.000 
G1 X409.627 Y308.027 Z-24.000 F120.000 
G2 X410.550 Y305.800 Z-24.000 I-2.227 J-2.227 F300.000 
G1 X410.550 Y1.000 Z-24.000 F300.000 
G2 X407.400 Y-2.150 Z-24.000 I-3.150 J-0.000 F300.000 
G1 X1.000 Y-2.150 Z-24.000 F300.000 
G2 X-2.150 Y1.000 Z-24.000 I-0.000 J3.150 F300.000 
G1 X-2.150 Y305.800 Z-24.000 F300.000 
G2 X1.000 Y308.950 Z-24.000 I3.150 J0.000 F300.000 
G1 X407.400 Y308.950 Z-24.000 F300.000 
G2 X409.627 Y308.027 Z-24.000 I0.000 J-3.150 F300.000 
G1 X409.627 Y308.027 Z-27.000 F120.000 
G2 X410.550 Y305.800 Z-27.000 I-2.227 J-2.227 F300.000 
G1 X410.550 Y1.000 Z-27.000 F300.000 
G2 X407.400 Y-2.150 Z-27.000 I-3.150 J-0.000 F300.000 
G1 X1.000 Y-2.150 Z-27.000 F300.000 
G2 X-2.150 Y1.000 Z-27.000 I-0.000 J3.150 F300.000 
G1 X-2.150 Y305.800 Z-27.000 F300.000 
G2 X1.000 Y308.950 Z-27.000 I3.150 J0.000 F300.000 
G1 X407.400 Y308.950 Z-27.000 F300.000 
G2 X409.627 Y308.027 Z-27.000 I0.000 J-3.150 F300.000 
G1 X409.627 Y308.027 Z-30.000 F120.000 
G2 X410.550 Y305.800 Z-30.000 I-2.227 J-2.227 F300.000 
G1 X410.550 Y1.000 Z-30.000 F300.000 
G2 X407.400 Y-2.150 Z-30.000 I-3.150 J-0.000 F300.000 
G1 X1.000 Y-2.150 Z-30.000 F300.000 
G2 X-2.150 Y1.000 Z-30.000 I-0.000 J3.150 F300.000 
G1 X-2.150 Y305.800 Z-30.000 F300.000 
G2 X1.000 Y308.950 Z-30.000 I3.150 J0.000 F300.000 
G1 X407.400 Y308.950 Z-30.000 F300.000 
G2 X409.627 Y308.027 Z-30.000 I0.000 J-3.150 F300.000 
G1 X409.627 Y308.027 Z-33.000 F120.000 
G2 X410.550 Y305.800 Z-33.000 I-2.227 J-2.227 F300.000 
G1 X410.550 Y1.000 Z-33.000 F300.000 
G2 X407.400 Y-2.150 Z-33.000 I-3.150 J-0.000 F300.000 
G1 X1.000 Y-2.150 Z-33.000 F300.000 
G2 X-2.150 Y1.000 Z-33.000 I-0.000 J3.150 F300.000 
G1 X-2.150 Y305.800 Z-33.000 F300.000 
G2 X1.000 Y308.950 Z-33.000 I3.150 J0.000 F300.000 
G1 X407.400 Y308.950 Z-33.000 F300.000 
G2 X409.627 Y308.027 Z-33.000 I0.000 J-3.150 F300.000 
G1 X409.627 Y308.027 Z-33.500 F120.000 
G2 X410.550 Y305.800 Z-33.500 I-2.227 J-2.227 F300.000 
G1 X410.550 Y1.000 Z-33.500 F300.000 
G2 X407.400 Y-2.150 Z-33.500 I-3.150 J-0.000 F300.000 
G1 X1.000 Y-2.150 Z-33.500 F300.000 
G2 X-2.150 Y1.000 Z-33.500 I-0.000 J3.150 F300.000 
G1 X-2.150 Y305.800 Z-33.500 F300.000 
G2 X1.000 Y308.950 Z-33.500 I3.150 J0.000 F300.000 
G1 X407.400 Y308.950 Z-33.500 F300.000 
G2 X409.627 Y308.027 Z-33.500 I0.000 J-3.150 F300.000 
G0 Z5.000 
G0 Z5.000 
(finish operation: Profile001)
(begin postamble)
M05
G17 G54 G90 G80 G40
M2
